<?xml version="1.0" encoding="utf-8"?>
<kml xmlns:gx="http://www.google.com/kml/ext/2.2" xmlns:kml="http://www.opengis.net/kml/2.2">
  <Document>
    <name>bio_s3_scs__1s_20260129t221252_20260129t221312_t_g01_m01_c10_t014_f160_map.kml</name>
    <description>L1 Product Overlay ADS</description>
    <GroundOverlay>
      <name>Ground overlay</name>
      <visibility>1</visibility>
      <TimeStamp>
        <when>2026-01-29T22:13:02</when>
      </TimeStamp>
      <Icon>
        <href>bio_s3_scs__1s_20260129t221252_20260129t221312_t_g01_m01_c10_t014_f160_ql.png</href>
      </Icon>
      <gx:LatLonQuad>
        <coordinates>-60.962304,-6.557755 -60.468948,-6.658698 -60.207177,-5.395910 -60.699471,-5.294366</coordinates>
      </gx:LatLonQuad>
    </GroundOverlay>
    <Placemark>
      <name>Placemark</name>
      <visibility>1</visibility>
      <TimeStamp>
        <when>2026-01-29T22:13:02</when>
      </TimeStamp>
      <Style>
        <LineStyle>
          <color>40ffffff</color>
          <width>1</width>
        </LineStyle>
        <PolyStyle>
          <color>00000000</color>
        </PolyStyle>
      </Style>
      <ExtendedData>
        <Data name="Product Name">
          <value>BIO_S3_SCS__1S_20260129T221252_20260129T221312_T_G01_M01_C10_T014_F160_01_DM1J2C</value>
        </Data>
        <Data name="Product Type">
          <value>S3_SCS__1S</value>
        </Data>
        <Data name="Start Date and Time">
          <value>2026-01-29T22:12:52</value>
        </Data>
        <Data name="Stop Date and Time">
          <value>2026-01-29T22:13:12</value>
        </Data>
        <Data name="Duration [s]">
          <value>20</value>
        </Data>
        <Data name="Mission Phase ID">
          <value>T</value>
        </Data>
        <Data name="Global Coverage ID">
          <value>01</value>
        </Data>
        <Data name="Major Cycle ID">
          <value>01</value>
        </Data>
        <Data name="Repeat Cycle ID">
          <value>10</value>
        </Data>
        <Data name="Track Number">
          <value>014</value>
        </Data>
        <Data name="Frame Number">
          <value>160</value>
        </Data>
        <Data name="Baseline ID">
          <value>01</value>
        </Data>
      </ExtendedData>
      <Polygon>
        <tessellate>1</tessellate>
        <altitudeMode>clampToGround</altitudeMode>
        <outerBoundaryIs>
          <LinearRing>
            <coordinates>-60.962304,-6.557755,0 -60.468948,-6.658698,0 -60.207177,-5.395910,0 -60.699471,-5.294366,0 -60.962304,-6.557755,0</coordinates>
          </LinearRing>
        </outerBoundaryIs>
      </Polygon>
    </Placemark>
  </Document>
</kml>
