<?xml version="1.0" encoding="utf-8"?>
<kml xmlns:gx="http://www.google.com/kml/ext/2.2" xmlns:kml="http://www.opengis.net/kml/2.2">
  <Document>
    <name>bio_s1_scs__1s_20260228t204302_20260228t204323_t_g01_m02_c07_t013_f173_map.kml</name>
    <description>L1 Product Overlay ADS</description>
    <GroundOverlay>
      <name>Ground overlay</name>
      <visibility>1</visibility>
      <TimeStamp>
        <when>2026-02-28T20:43:12</when>
      </TimeStamp>
      <Icon>
        <href>bio_s1_scs__1s_20260228t204302_20260228t204323_t_g01_m02_c07_t013_f173_ql.png</href>
      </Icon>
      <gx:LatLonQuad>
        <coordinates>-41.560448,-21.376468 -40.962682,-21.488135 -40.681408,-20.253744 -41.260415,-20.144567</coordinates>
      </gx:LatLonQuad>
    </GroundOverlay>
    <Placemark>
      <name>Placemark</name>
      <visibility>1</visibility>
      <TimeStamp>
        <when>2026-02-28T20:43:12</when>
      </TimeStamp>
      <Style>
        <LineStyle>
          <color>40ffffff</color>
          <width>1</width>
        </LineStyle>
        <PolyStyle>
          <color>00000000</color>
        </PolyStyle>
      </Style>
      <ExtendedData>
        <Data name="Product Name">
          <value>BIO_S1_SCS__1S_20260228T204302_20260228T204323_T_G01_M02_C07_T013_F173_01_DNL0MF</value>
        </Data>
        <Data name="Product Type">
          <value>S1_SCS__1S</value>
        </Data>
        <Data name="Start Date and Time">
          <value>2026-02-28T20:43:02</value>
        </Data>
        <Data name="Stop Date and Time">
          <value>2026-02-28T20:43:23</value>
        </Data>
        <Data name="Duration [s]">
          <value>21</value>
        </Data>
        <Data name="Mission Phase ID">
          <value>T</value>
        </Data>
        <Data name="Global Coverage ID">
          <value>01</value>
        </Data>
        <Data name="Major Cycle ID">
          <value>02</value>
        </Data>
        <Data name="Repeat Cycle ID">
          <value>07</value>
        </Data>
        <Data name="Track Number">
          <value>013</value>
        </Data>
        <Data name="Frame Number">
          <value>173</value>
        </Data>
        <Data name="Baseline ID">
          <value>01</value>
        </Data>
      </ExtendedData>
      <Polygon>
        <tessellate>1</tessellate>
        <altitudeMode>clampToGround</altitudeMode>
        <outerBoundaryIs>
          <LinearRing>
            <coordinates>-41.560448,-21.376468,0 -40.962682,-21.488135,0 -40.681408,-20.253744,0 -41.260415,-20.144567,0 -41.560448,-21.376468,0</coordinates>
          </LinearRing>
        </outerBoundaryIs>
      </Polygon>
    </Placemark>
  </Document>
</kml>
