<?xml version="1.0" encoding="utf-8"?>
<kml xmlns:gx="http://www.google.com/kml/ext/2.2" xmlns:kml="http://www.opengis.net/kml/2.2">
  <Document>
    <name>bio_s1_scs__1s_20251123t214142_20251123t214202_t_g01_m01_c01_t043_f167_map.kml</name>
    <description>L1 Product Overlay ADS</description>
    <GroundOverlay>
      <name>Ground overlay</name>
      <visibility>1</visibility>
      <TimeStamp>
        <when>2025-11-23T21:41:52</when>
      </TimeStamp>
      <Icon>
        <href>bio_s1_scs__1s_20251123t214142_20251123t214202_t_g01_m01_c01_t043_f167_ql.png</href>
      </Icon>
      <gx:LatLonQuad>
        <coordinates>-55.228502,-14.456754 -54.648272,-14.570954 -54.381636,-13.308629 -54.957019,-13.194439</coordinates>
      </gx:LatLonQuad>
    </GroundOverlay>
    <Placemark>
      <name>Placemark</name>
      <visibility>1</visibility>
      <TimeStamp>
        <when>2025-11-23T21:41:52</when>
      </TimeStamp>
      <Style>
        <LineStyle>
          <color>40ffffff</color>
          <width>1</width>
        </LineStyle>
        <PolyStyle>
          <color>00000000</color>
        </PolyStyle>
      </Style>
      <ExtendedData>
        <Data name="Product Name">
          <value>BIO_S1_SCS__1S_20251123T214142_20251123T214202_T_G01_M01_C01_T043_F167_01_DKCPNF</value>
        </Data>
        <Data name="Product Type">
          <value>S1_SCS__1S</value>
        </Data>
        <Data name="Start Date and Time">
          <value>2025-11-23T21:41:42</value>
        </Data>
        <Data name="Stop Date and Time">
          <value>2025-11-23T21:42:02</value>
        </Data>
        <Data name="Duration [s]">
          <value>20</value>
        </Data>
        <Data name="Mission Phase ID">
          <value>T</value>
        </Data>
        <Data name="Global Coverage ID">
          <value>01</value>
        </Data>
        <Data name="Major Cycle ID">
          <value>01</value>
        </Data>
        <Data name="Repeat Cycle ID">
          <value>01</value>
        </Data>
        <Data name="Track Number">
          <value>043</value>
        </Data>
        <Data name="Frame Number">
          <value>167</value>
        </Data>
        <Data name="Baseline ID">
          <value>01</value>
        </Data>
      </ExtendedData>
      <Polygon>
        <tessellate>1</tessellate>
        <altitudeMode>clampToGround</altitudeMode>
        <outerBoundaryIs>
          <LinearRing>
            <coordinates>-55.228502,-14.456754,0 -54.648272,-14.570954,0 -54.381636,-13.308629,0 -54.957019,-13.194439,0 -55.228502,-14.456754,0</coordinates>
          </LinearRing>
        </outerBoundaryIs>
      </Polygon>
    </Placemark>
  </Document>
</kml>
