<?xml version="1.0" encoding="utf-8"?>
<kml xmlns:gx="http://www.google.com/kml/ext/2.2" xmlns:kml="http://www.opengis.net/kml/2.2">
  <Document>
    <name>bio_s1_scs__1s_20251126t092003_20251126t092023_t_g01_m01_c02_t035_f305_map.kml</name>
    <description>L1 Product Overlay ADS</description>
    <GroundOverlay>
      <name>Ground overlay</name>
      <visibility>1</visibility>
      <TimeStamp>
        <when>2025-11-26T09:20:13</when>
      </TimeStamp>
      <Icon>
        <href>bio_s1_scs__1s_20251126t092003_20251126t092023_t_g01_m01_c02_t035_f305_ql.png</href>
      </Icon>
      <gx:LatLonQuad>
        <coordinates>-51.495667,-6.154272 -52.052759,-6.269363 -51.788194,-7.532692 -51.228431,-7.417819</coordinates>
      </gx:LatLonQuad>
    </GroundOverlay>
    <Placemark>
      <name>Placemark</name>
      <visibility>1</visibility>
      <TimeStamp>
        <when>2025-11-26T09:20:13</when>
      </TimeStamp>
      <Style>
        <LineStyle>
          <color>40ffffff</color>
          <width>1</width>
        </LineStyle>
        <PolyStyle>
          <color>00000000</color>
        </PolyStyle>
      </Style>
      <ExtendedData>
        <Data name="Product Name">
          <value>BIO_S1_SCS__1S_20251126T092003_20251126T092023_T_G01_M01_C02_T035_F305_01_DK96PT</value>
        </Data>
        <Data name="Product Type">
          <value>S1_SCS__1S</value>
        </Data>
        <Data name="Start Date and Time">
          <value>2025-11-26T09:20:03</value>
        </Data>
        <Data name="Stop Date and Time">
          <value>2025-11-26T09:20:23</value>
        </Data>
        <Data name="Duration [s]">
          <value>20</value>
        </Data>
        <Data name="Mission Phase ID">
          <value>T</value>
        </Data>
        <Data name="Global Coverage ID">
          <value>01</value>
        </Data>
        <Data name="Major Cycle ID">
          <value>01</value>
        </Data>
        <Data name="Repeat Cycle ID">
          <value>02</value>
        </Data>
        <Data name="Track Number">
          <value>035</value>
        </Data>
        <Data name="Frame Number">
          <value>305</value>
        </Data>
        <Data name="Baseline ID">
          <value>01</value>
        </Data>
      </ExtendedData>
      <Polygon>
        <tessellate>1</tessellate>
        <altitudeMode>clampToGround</altitudeMode>
        <outerBoundaryIs>
          <LinearRing>
            <coordinates>-51.495667,-6.154272,0 -52.052759,-6.269363,0 -51.788194,-7.532692,0 -51.228431,-7.417819,0 -51.495667,-6.154272,0</coordinates>
          </LinearRing>
        </outerBoundaryIs>
      </Polygon>
    </Placemark>
  </Document>
</kml>
