<?xml version="1.0" encoding="utf-8"?>
<kml xmlns:gx="http://www.google.com/kml/ext/2.2" xmlns:kml="http://www.opengis.net/kml/2.2">
  <Document>
    <name>bio_s2_scs__1s_20260321t204336_20260321t204353_t_g01_m02_c07_t013_f174_map.kml</name>
    <description>L1 Product Overlay ADS</description>
    <GroundOverlay>
      <name>Ground overlay</name>
      <visibility>1</visibility>
      <TimeStamp>
        <when>2026-03-21T20:43:44</when>
      </TimeStamp>
      <Icon>
        <href>bio_s2_scs__1s_20260321t204336_20260321t204353_t_g01_m02_c07_t013_f174_ql.png</href>
      </Icon>
      <gx:LatLonQuad>
        <coordinates>-41.424502,-22.428513 -40.795541,-22.543313 -40.568253,-21.483896 -41.190104,-21.369312</coordinates>
      </gx:LatLonQuad>
    </GroundOverlay>
    <Placemark>
      <name>Placemark</name>
      <visibility>1</visibility>
      <TimeStamp>
        <when>2026-03-21T20:43:44</when>
      </TimeStamp>
      <Style>
        <LineStyle>
          <color>40ffffff</color>
          <width>1</width>
        </LineStyle>
        <PolyStyle>
          <color>00000000</color>
        </PolyStyle>
      </Style>
      <ExtendedData>
        <Data name="Product Name">
          <value>BIO_S2_SCS__1S_20260321T204336_20260321T204353_T_G01_M02_C07_T013_F174_01_DONY11</value>
        </Data>
        <Data name="Product Type">
          <value>S2_SCS__1S</value>
        </Data>
        <Data name="Start Date and Time">
          <value>2026-03-21T20:43:36</value>
        </Data>
        <Data name="Stop Date and Time">
          <value>2026-03-21T20:43:53</value>
        </Data>
        <Data name="Duration [s]">
          <value>17</value>
        </Data>
        <Data name="Mission Phase ID">
          <value>T</value>
        </Data>
        <Data name="Global Coverage ID">
          <value>01</value>
        </Data>
        <Data name="Major Cycle ID">
          <value>02</value>
        </Data>
        <Data name="Repeat Cycle ID">
          <value>07</value>
        </Data>
        <Data name="Track Number">
          <value>013</value>
        </Data>
        <Data name="Frame Number">
          <value>174</value>
        </Data>
        <Data name="Baseline ID">
          <value>01</value>
        </Data>
      </ExtendedData>
      <Polygon>
        <tessellate>1</tessellate>
        <altitudeMode>clampToGround</altitudeMode>
        <outerBoundaryIs>
          <LinearRing>
            <coordinates>-41.424502,-22.428513,0 -40.795541,-22.543313,0 -40.568253,-21.483896,0 -41.190104,-21.369312,0 -41.424502,-22.428513,0</coordinates>
          </LinearRing>
        </outerBoundaryIs>
      </Polygon>
    </Placemark>
  </Document>
</kml>
