<?xml version="1.0" encoding="utf-8"?>
<kml xmlns:gx="http://www.google.com/kml/ext/2.2" xmlns:kml="http://www.opengis.net/kml/2.2">
  <Document>
    <name>bio_s1_scs__1s_20251126t214416_20251126t214436_t_g01_m01_c02_t043_f175_map.kml</name>
    <description>L1 Product Overlay ADS</description>
    <GroundOverlay>
      <name>Ground overlay</name>
      <visibility>1</visibility>
      <TimeStamp>
        <when>2025-11-26T21:44:26</when>
      </TimeStamp>
      <Icon>
        <href>bio_s1_scs__1s_20251126t214416_20251126t214436_t_g01_m01_c02_t043_f175_ql.png</href>
      </Icon>
      <gx:LatLonQuad>
        <coordinates>-57.194307,-23.696162 -56.581689,-23.808312 -56.304510,-22.548478 -56.909227,-22.436598</coordinates>
      </gx:LatLonQuad>
    </GroundOverlay>
    <Placemark>
      <name>Placemark</name>
      <visibility>1</visibility>
      <TimeStamp>
        <when>2025-11-26T21:44:26</when>
      </TimeStamp>
      <Style>
        <LineStyle>
          <color>40ffffff</color>
          <width>1</width>
        </LineStyle>
        <PolyStyle>
          <color>00000000</color>
        </PolyStyle>
      </Style>
      <ExtendedData>
        <Data name="Product Name">
          <value>BIO_S1_SCS__1S_20251126T214416_20251126T214436_T_G01_M01_C02_T043_F175_01_DK9JNR</value>
        </Data>
        <Data name="Product Type">
          <value>S1_SCS__1S</value>
        </Data>
        <Data name="Start Date and Time">
          <value>2025-11-26T21:44:16</value>
        </Data>
        <Data name="Stop Date and Time">
          <value>2025-11-26T21:44:36</value>
        </Data>
        <Data name="Duration [s]">
          <value>20</value>
        </Data>
        <Data name="Mission Phase ID">
          <value>T</value>
        </Data>
        <Data name="Global Coverage ID">
          <value>01</value>
        </Data>
        <Data name="Major Cycle ID">
          <value>01</value>
        </Data>
        <Data name="Repeat Cycle ID">
          <value>02</value>
        </Data>
        <Data name="Track Number">
          <value>043</value>
        </Data>
        <Data name="Frame Number">
          <value>175</value>
        </Data>
        <Data name="Baseline ID">
          <value>01</value>
        </Data>
      </ExtendedData>
      <Polygon>
        <tessellate>1</tessellate>
        <altitudeMode>clampToGround</altitudeMode>
        <outerBoundaryIs>
          <LinearRing>
            <coordinates>-57.194307,-23.696162,0 -56.581689,-23.808312,0 -56.304510,-22.548478,0 -56.909227,-22.436598,0 -57.194307,-23.696162,0</coordinates>
          </LinearRing>
        </outerBoundaryIs>
      </Polygon>
    </Placemark>
  </Document>
</kml>
