<?xml version="1.0" encoding="utf-8"?>
<kml xmlns:gx="http://www.google.com/kml/ext/2.2" xmlns:kml="http://www.opengis.net/kml/2.2">
  <Document>
    <name>bio_s1_scs__1s_20251123t092117_20251123t092137_t_g01_m01_c01_t035_f309_map.kml</name>
    <description>L1 Product Overlay ADS</description>
    <GroundOverlay>
      <name>Ground overlay</name>
      <visibility>1</visibility>
      <TimeStamp>
        <when>2025-11-23T09:21:27</when>
      </TimeStamp>
      <Icon>
        <href>bio_s1_scs__1s_20251123t092117_20251123t092137_t_g01_m01_c01_t035_f309_ql.png</href>
      </Icon>
      <gx:LatLonQuad>
        <coordinates>-52.455445,-1.542086 -53.005485,-1.658198 -52.745703,-2.898181 -52.195359,-2.782628</coordinates>
      </gx:LatLonQuad>
    </GroundOverlay>
    <Placemark>
      <name>Placemark</name>
      <visibility>1</visibility>
      <TimeStamp>
        <when>2025-11-23T09:21:27</when>
      </TimeStamp>
      <Style>
        <LineStyle>
          <color>40ffffff</color>
          <width>1</width>
        </LineStyle>
        <PolyStyle>
          <color>00000000</color>
        </PolyStyle>
      </Style>
      <ExtendedData>
        <Data name="Product Name">
          <value>BIO_S1_SCS__1S_20251123T092117_20251123T092137_T_G01_M01_C01_T035_F309_01_DNGYQR</value>
        </Data>
        <Data name="Product Type">
          <value>S1_SCS__1S</value>
        </Data>
        <Data name="Start Date and Time">
          <value>2025-11-23T09:21:17</value>
        </Data>
        <Data name="Stop Date and Time">
          <value>2025-11-23T09:21:37</value>
        </Data>
        <Data name="Duration [s]">
          <value>20</value>
        </Data>
        <Data name="Mission Phase ID">
          <value>T</value>
        </Data>
        <Data name="Global Coverage ID">
          <value>01</value>
        </Data>
        <Data name="Major Cycle ID">
          <value>01</value>
        </Data>
        <Data name="Repeat Cycle ID">
          <value>01</value>
        </Data>
        <Data name="Track Number">
          <value>035</value>
        </Data>
        <Data name="Frame Number">
          <value>309</value>
        </Data>
        <Data name="Baseline ID">
          <value>01</value>
        </Data>
      </ExtendedData>
      <Polygon>
        <tessellate>1</tessellate>
        <altitudeMode>clampToGround</altitudeMode>
        <outerBoundaryIs>
          <LinearRing>
            <coordinates>-52.455445,-1.542086,0 -53.005485,-1.658198,0 -52.745703,-2.898181,0 -52.195359,-2.782628,0 -52.455445,-1.542086,0</coordinates>
          </LinearRing>
        </outerBoundaryIs>
      </Polygon>
    </Placemark>
  </Document>
</kml>
