<?xml version="1.0" encoding="utf-8"?>
<kml xmlns:gx="http://www.google.com/kml/ext/2.2" xmlns:kml="http://www.opengis.net/kml/2.2">
  <Document>
    <name>bio_s3_scs__1s_20260331t084825_20260331t084845_t_g01_m02_c03_t020_f292_map.kml</name>
    <description>L1 Product Overlay ADS</description>
    <GroundOverlay>
      <name>Ground overlay</name>
      <visibility>1</visibility>
      <TimeStamp>
        <when>2026-03-31T08:48:35</when>
      </TimeStamp>
      <Icon>
        <href>bio_s3_scs__1s_20260331t084825_20260331t084845_t_g01_m02_c03_t020_f292_ql.png</href>
      </Icon>
      <gx:LatLonQuad>
        <coordinates>-42.203951,-21.323530 -42.735629,-21.420384 -42.471023,-22.656246 -41.924255,-22.557813</coordinates>
      </gx:LatLonQuad>
    </GroundOverlay>
    <Placemark>
      <name>Placemark</name>
      <visibility>1</visibility>
      <TimeStamp>
        <when>2026-03-31T08:48:35</when>
      </TimeStamp>
      <Style>
        <LineStyle>
          <color>40ffffff</color>
          <width>1</width>
        </LineStyle>
        <PolyStyle>
          <color>00000000</color>
        </PolyStyle>
      </Style>
      <ExtendedData>
        <Data name="Product Name">
          <value>BIO_S3_SCS__1S_20260331T084825_20260331T084845_T_G01_M02_C03_T020_F292_01_DP5F4H</value>
        </Data>
        <Data name="Product Type">
          <value>S3_SCS__1S</value>
        </Data>
        <Data name="Start Date and Time">
          <value>2026-03-31T08:48:25</value>
        </Data>
        <Data name="Stop Date and Time">
          <value>2026-03-31T08:48:45</value>
        </Data>
        <Data name="Duration [s]">
          <value>20</value>
        </Data>
        <Data name="Mission Phase ID">
          <value>T</value>
        </Data>
        <Data name="Global Coverage ID">
          <value>01</value>
        </Data>
        <Data name="Major Cycle ID">
          <value>02</value>
        </Data>
        <Data name="Repeat Cycle ID">
          <value>03</value>
        </Data>
        <Data name="Track Number">
          <value>020</value>
        </Data>
        <Data name="Frame Number">
          <value>292</value>
        </Data>
        <Data name="Baseline ID">
          <value>01</value>
        </Data>
      </ExtendedData>
      <Polygon>
        <tessellate>1</tessellate>
        <altitudeMode>clampToGround</altitudeMode>
        <outerBoundaryIs>
          <LinearRing>
            <coordinates>-42.203951,-21.323530,0 -42.735629,-21.420384,0 -42.471023,-22.656246,0 -41.924255,-22.557813,0 -42.203951,-21.323530,0</coordinates>
          </LinearRing>
        </outerBoundaryIs>
      </Polygon>
    </Placemark>
  </Document>
</kml>
