<?xml version="1.0" encoding="utf-8"?>
<kml xmlns:gx="http://www.google.com/kml/ext/2.2" xmlns:kml="http://www.opengis.net/kml/2.2">
  <Document>
    <name>bio_s1_scs__1s_20251123t091632_20251123t091652_t_g01_m01_c01_t035_f294_map.kml</name>
    <description>L1 Product Overlay ADS</description>
    <GroundOverlay>
      <name>Ground overlay</name>
      <visibility>1</visibility>
      <TimeStamp>
        <when>2025-11-23T09:16:42</when>
      </TimeStamp>
      <Icon>
        <href>bio_s1_scs__1s_20251123t091632_20251123t091652_t_g01_m01_c01_t035_f294_ql.png</href>
      </Icon>
      <gx:LatLonQuad>
        <coordinates>-48.803648,-18.861799 -49.402024,-18.975609 -49.130838,-20.236562 -48.525823,-20.122619</coordinates>
      </gx:LatLonQuad>
    </GroundOverlay>
    <Placemark>
      <name>Placemark</name>
      <visibility>1</visibility>
      <TimeStamp>
        <when>2025-11-23T09:16:42</when>
      </TimeStamp>
      <Style>
        <LineStyle>
          <color>40ffffff</color>
          <width>1</width>
        </LineStyle>
        <PolyStyle>
          <color>00000000</color>
        </PolyStyle>
      </Style>
      <ExtendedData>
        <Data name="Product Name">
          <value>BIO_S1_SCS__1S_20251123T091632_20251123T091652_T_G01_M01_C01_T035_F294_01_DK4PHW</value>
        </Data>
        <Data name="Product Type">
          <value>S1_SCS__1S</value>
        </Data>
        <Data name="Start Date and Time">
          <value>2025-11-23T09:16:32</value>
        </Data>
        <Data name="Stop Date and Time">
          <value>2025-11-23T09:16:52</value>
        </Data>
        <Data name="Duration [s]">
          <value>20</value>
        </Data>
        <Data name="Mission Phase ID">
          <value>T</value>
        </Data>
        <Data name="Global Coverage ID">
          <value>01</value>
        </Data>
        <Data name="Major Cycle ID">
          <value>01</value>
        </Data>
        <Data name="Repeat Cycle ID">
          <value>01</value>
        </Data>
        <Data name="Track Number">
          <value>035</value>
        </Data>
        <Data name="Frame Number">
          <value>294</value>
        </Data>
        <Data name="Baseline ID">
          <value>01</value>
        </Data>
      </ExtendedData>
      <Polygon>
        <tessellate>1</tessellate>
        <altitudeMode>clampToGround</altitudeMode>
        <outerBoundaryIs>
          <LinearRing>
            <coordinates>-48.803648,-18.861799,0 -49.402024,-18.975609,0 -49.130838,-20.236562,0 -48.525823,-20.122619,0 -48.803648,-18.861799,0</coordinates>
          </LinearRing>
        </outerBoundaryIs>
      </Polygon>
    </Placemark>
  </Document>
</kml>
