<?xml version="1.0" encoding="utf-8"?>
<kml xmlns:gx="http://www.google.com/kml/ext/2.2" xmlns:kml="http://www.opengis.net/kml/2.2">
  <Document>
    <name>bio_s3_scs__1s_20260331t084815_20260331t084826_t_g01_m02_c03_t020_f291_map.kml</name>
    <description>L1 Product Overlay ADS</description>
    <GroundOverlay>
      <name>Ground overlay</name>
      <visibility>1</visibility>
      <TimeStamp>
        <when>2026-03-31T08:48:20</when>
      </TimeStamp>
      <Icon>
        <href>bio_s3_scs__1s_20260331t084815_20260331t084826_t_g01_m02_c03_t020_f291_ql.png</href>
      </Icon>
      <gx:LatLonQuad>
        <coordinates>-41.943291,-22.474004 -42.490893,-22.572659 -42.340110,-23.266839 -41.791912,-23.168736</coordinates>
      </gx:LatLonQuad>
    </GroundOverlay>
    <Placemark>
      <name>Placemark</name>
      <visibility>1</visibility>
      <TimeStamp>
        <when>2026-03-31T08:48:20</when>
      </TimeStamp>
      <Style>
        <LineStyle>
          <color>40ffffff</color>
          <width>1</width>
        </LineStyle>
        <PolyStyle>
          <color>00000000</color>
        </PolyStyle>
      </Style>
      <ExtendedData>
        <Data name="Product Name">
          <value>BIO_S3_SCS__1S_20260331T084815_20260331T084826_T_G01_M02_C03_T020_F291_01_DP5EW0</value>
        </Data>
        <Data name="Product Type">
          <value>S3_SCS__1S</value>
        </Data>
        <Data name="Start Date and Time">
          <value>2026-03-31T08:48:15</value>
        </Data>
        <Data name="Stop Date and Time">
          <value>2026-03-31T08:48:26</value>
        </Data>
        <Data name="Duration [s]">
          <value>11</value>
        </Data>
        <Data name="Mission Phase ID">
          <value>T</value>
        </Data>
        <Data name="Global Coverage ID">
          <value>01</value>
        </Data>
        <Data name="Major Cycle ID">
          <value>02</value>
        </Data>
        <Data name="Repeat Cycle ID">
          <value>03</value>
        </Data>
        <Data name="Track Number">
          <value>020</value>
        </Data>
        <Data name="Frame Number">
          <value>291</value>
        </Data>
        <Data name="Baseline ID">
          <value>01</value>
        </Data>
      </ExtendedData>
      <Polygon>
        <tessellate>1</tessellate>
        <altitudeMode>clampToGround</altitudeMode>
        <outerBoundaryIs>
          <LinearRing>
            <coordinates>-41.943291,-22.474004,0 -42.490893,-22.572659,0 -42.340110,-23.266839,0 -41.791912,-23.168736,0 -41.943291,-22.474004,0</coordinates>
          </LinearRing>
        </outerBoundaryIs>
      </Polygon>
    </Placemark>
  </Document>
</kml>
