<?xml version="1.0" encoding="utf-8"?>
<kml xmlns:gx="http://www.google.com/kml/ext/2.2" xmlns:kml="http://www.opengis.net/kml/2.2">
  <Document>
    <name>bio_s1_scs__1s_20260217t084816_20260217t084837_t_g01_m02_c03_t020_f293_map.kml</name>
    <description>L1 Product Overlay ADS</description>
    <GroundOverlay>
      <name>Ground overlay</name>
      <visibility>1</visibility>
      <TimeStamp>
        <when>2026-02-17T08:48:26</when>
      </TimeStamp>
      <Icon>
        <href>bio_s1_scs__1s_20260217t084816_20260217t084837_t_g01_m02_c03_t020_f293_ql.png</href>
      </Icon>
      <gx:LatLonQuad>
        <coordinates>-41.601025,-20.031233 -42.198394,-20.143775 -41.921982,-21.378951 -41.309668,-21.264697</coordinates>
      </gx:LatLonQuad>
    </GroundOverlay>
    <Placemark>
      <name>Placemark</name>
      <visibility>1</visibility>
      <TimeStamp>
        <when>2026-02-17T08:48:26</when>
      </TimeStamp>
      <Style>
        <LineStyle>
          <color>40ffffff</color>
          <width>1</width>
        </LineStyle>
        <PolyStyle>
          <color>00000000</color>
        </PolyStyle>
      </Style>
      <ExtendedData>
        <Data name="Product Name">
          <value>BIO_S1_SCS__1S_20260217T084816_20260217T084837_T_G01_M02_C03_T020_F293_01_DMZKC9</value>
        </Data>
        <Data name="Product Type">
          <value>S1_SCS__1S</value>
        </Data>
        <Data name="Start Date and Time">
          <value>2026-02-17T08:48:16</value>
        </Data>
        <Data name="Stop Date and Time">
          <value>2026-02-17T08:48:37</value>
        </Data>
        <Data name="Duration [s]">
          <value>21</value>
        </Data>
        <Data name="Mission Phase ID">
          <value>T</value>
        </Data>
        <Data name="Global Coverage ID">
          <value>01</value>
        </Data>
        <Data name="Major Cycle ID">
          <value>02</value>
        </Data>
        <Data name="Repeat Cycle ID">
          <value>03</value>
        </Data>
        <Data name="Track Number">
          <value>020</value>
        </Data>
        <Data name="Frame Number">
          <value>293</value>
        </Data>
        <Data name="Baseline ID">
          <value>01</value>
        </Data>
      </ExtendedData>
      <Polygon>
        <tessellate>1</tessellate>
        <altitudeMode>clampToGround</altitudeMode>
        <outerBoundaryIs>
          <LinearRing>
            <coordinates>-41.601025,-20.031233,0 -42.198394,-20.143775,0 -41.921982,-21.378951,0 -41.309668,-21.264697,0 -41.601025,-20.031233,0</coordinates>
          </LinearRing>
        </outerBoundaryIs>
      </Polygon>
    </Placemark>
  </Document>
</kml>
