<?xml version="1.0" encoding="utf-8"?>
<kml xmlns:gx="http://www.google.com/kml/ext/2.2" xmlns:kml="http://www.opengis.net/kml/2.2">
  <Document>
    <name>bio_s1_scs__1s_20260228t204243_20260228t204304_t_g01_m02_c07_t013_f172_map.kml</name>
    <description>L1 Product Overlay ADS</description>
    <GroundOverlay>
      <name>Ground overlay</name>
      <visibility>1</visibility>
      <TimeStamp>
        <when>2026-02-28T20:42:53</when>
      </TimeStamp>
      <Icon>
        <href>bio_s1_scs__1s_20260228t204243_20260228t204304_t_g01_m02_c07_t013_f172_ql.png</href>
      </Icon>
      <gx:LatLonQuad>
        <coordinates>-41.289661,-20.226568 -40.707933,-20.336218 -40.451446,-19.097192 -41.025997,-18.987812</coordinates>
      </gx:LatLonQuad>
    </GroundOverlay>
    <Placemark>
      <name>Placemark</name>
      <visibility>1</visibility>
      <TimeStamp>
        <when>2026-02-28T20:42:53</when>
      </TimeStamp>
      <Style>
        <LineStyle>
          <color>40ffffff</color>
          <width>1</width>
        </LineStyle>
        <PolyStyle>
          <color>00000000</color>
        </PolyStyle>
      </Style>
      <ExtendedData>
        <Data name="Product Name">
          <value>BIO_S1_SCS__1S_20260228T204243_20260228T204304_T_G01_M02_C07_T013_F172_01_DNL0MM</value>
        </Data>
        <Data name="Product Type">
          <value>S1_SCS__1S</value>
        </Data>
        <Data name="Start Date and Time">
          <value>2026-02-28T20:42:43</value>
        </Data>
        <Data name="Stop Date and Time">
          <value>2026-02-28T20:43:04</value>
        </Data>
        <Data name="Duration [s]">
          <value>21</value>
        </Data>
        <Data name="Mission Phase ID">
          <value>T</value>
        </Data>
        <Data name="Global Coverage ID">
          <value>01</value>
        </Data>
        <Data name="Major Cycle ID">
          <value>02</value>
        </Data>
        <Data name="Repeat Cycle ID">
          <value>07</value>
        </Data>
        <Data name="Track Number">
          <value>013</value>
        </Data>
        <Data name="Frame Number">
          <value>172</value>
        </Data>
        <Data name="Baseline ID">
          <value>01</value>
        </Data>
      </ExtendedData>
      <Polygon>
        <tessellate>1</tessellate>
        <altitudeMode>clampToGround</altitudeMode>
        <outerBoundaryIs>
          <LinearRing>
            <coordinates>-41.289661,-20.226568,0 -40.707933,-20.336218,0 -40.451446,-19.097192,0 -41.025997,-18.987812,0 -41.289661,-20.226568,0</coordinates>
          </LinearRing>
        </outerBoundaryIs>
      </Polygon>
    </Placemark>
  </Document>
</kml>
