<?xml version="1.0" encoding="utf-8"?>
<kml xmlns:gx="http://www.google.com/kml/ext/2.2" xmlns:kml="http://www.opengis.net/kml/2.2">
  <Document>
    <name>bio_s1_scs__1s_20251121t095340_20251121t095401_t_g01_m01_c01_t006_f308_map.kml</name>
    <description>L1 Product Overlay ADS</description>
    <GroundOverlay>
      <name>Ground overlay</name>
      <visibility>1</visibility>
      <TimeStamp>
        <when>2025-11-21T09:53:50</when>
      </TimeStamp>
      <Icon>
        <href>bio_s1_scs__1s_20251121t095340_20251121t095401_t_g01_m01_c01_t006_f308_ql.png</href>
      </Icon>
      <gx:LatLonQuad>
        <coordinates>-60.393814,-2.686424 -60.944991,-2.802196 -60.679254,-4.065721 -60.126354,-3.950255</coordinates>
      </gx:LatLonQuad>
    </GroundOverlay>
    <Placemark>
      <name>Placemark</name>
      <visibility>1</visibility>
      <TimeStamp>
        <when>2025-11-21T09:53:50</when>
      </TimeStamp>
      <Style>
        <LineStyle>
          <color>40ffffff</color>
          <width>1</width>
        </LineStyle>
        <PolyStyle>
          <color>00000000</color>
        </PolyStyle>
      </Style>
      <ExtendedData>
        <Data name="Product Name">
          <value>BIO_S1_SCS__1S_20251121T095340_20251121T095401_T_G01_M01_C01_T006_F308_01_DJUR70</value>
        </Data>
        <Data name="Product Type">
          <value>S1_SCS__1S</value>
        </Data>
        <Data name="Start Date and Time">
          <value>2025-11-21T09:53:40</value>
        </Data>
        <Data name="Stop Date and Time">
          <value>2025-11-21T09:54:01</value>
        </Data>
        <Data name="Duration [s]">
          <value>21</value>
        </Data>
        <Data name="Mission Phase ID">
          <value>T</value>
        </Data>
        <Data name="Global Coverage ID">
          <value>01</value>
        </Data>
        <Data name="Major Cycle ID">
          <value>01</value>
        </Data>
        <Data name="Repeat Cycle ID">
          <value>01</value>
        </Data>
        <Data name="Track Number">
          <value>006</value>
        </Data>
        <Data name="Frame Number">
          <value>308</value>
        </Data>
        <Data name="Baseline ID">
          <value>01</value>
        </Data>
      </ExtendedData>
      <Polygon>
        <tessellate>1</tessellate>
        <altitudeMode>clampToGround</altitudeMode>
        <outerBoundaryIs>
          <LinearRing>
            <coordinates>-60.393814,-2.686424,0 -60.944991,-2.802196,0 -60.679254,-4.065721,0 -60.126354,-3.950255,0 -60.393814,-2.686424,0</coordinates>
          </LinearRing>
        </outerBoundaryIs>
      </Polygon>
    </Placemark>
  </Document>
</kml>
