{
"type": "FeatureCollection",
"name": "nisar_unique_orbit_geometries",
"crs": { "type": "name", "properties": { "name": "urn:ogc:def:crs:OGC:1.3:CRS84" } },
"features": [
{ "type": "Feature", "properties": { "orbit_key": "NISAR__NISAR__ASCENDING__PATH_16", "dataset": "NISAR", "platform": "NISAR", "processing_level": "RSLC", "flight_direction": "ASCENDING", "path_number": 16, "frame_count": 2, "frame_numbers": "175,176", "beam_mode": null, "scene_count": 10, "unique_footprints": 10, "first_start_time": "2025-10-30T08:39:40Z", "last_stop_time": "2026-01-10T08:40:22Z", "example_scene": "NISAR_L1_PR_RSLC_004_016_A_176_4005_DHDH_A_20251030T083945_20251030T084019_X05009_N_F_J_001" }, "geometry": { "type": "Polygon", "coordinates": [ [ [ -45.109032674748043, -4.630756678212986 ], [ -45.10933, -4.63082 ], [ -45.165110875660339, -4.363712113708013 ], [ -45.60324, -2.31082 ], [ -45.603130861313439, -2.310796315939083 ], [ -45.6037, -2.30813 ], [ -43.38472, -1.82655 ], [ -43.382848643174491, -1.835223791420951 ], [ -43.38214, -1.83507 ], [ -43.378534404883041, -1.851776523974544 ], [ -43.37832, -1.85173 ], [ -42.952836918755764, -3.823740172788003 ], [ -42.934429894828682, -3.908474526339916 ], [ -42.87917, -4.16211 ], [ -42.879324952138852, -4.162143001745479 ], [ -42.8757, -4.17883 ], [ -42.876628275291246, -4.17902767271274 ], [ -42.86918, -4.21333 ], [ -45.09713, -4.68761 ], [ -45.109032674748043, -4.630756678212986 ] ] ] } },
{ "type": "Feature", "properties": { "orbit_key": "NISAR__NISAR__ASCENDING__PATH_45", "dataset": "NISAR", "platform": "NISAR", "processing_level": "RSLC", "flight_direction": "ASCENDING", "path_number": 45, "frame_count": 4, "frame_numbers": "173,174,175,176", "beam_mode": null, "scene_count": 23, "unique_footprints": 23, "first_start_time": "2025-11-01T08:55:15Z", "last_stop_time": "2026-01-12T08:57:04Z", "example_scene": "NISAR_L1_PR_RSLC_006_045_A_176_2005_DHDH_A_20251125T085624_20251125T085702_X05009_N_F_J_001" }, "geometry": { "type": "Polygon", "coordinates": [ [ [ -46.725990765856857, -5.807288450758497 ], [ -46.72576, -5.80724 ], [ -46.72201541049396, -5.824781135722998 ], [ -46.72201, -5.82478 ], [ -46.719655475052342, -5.835819430130772 ], [ -46.71942, -5.83577 ], [ -46.717350659594821, -5.845474462613989 ], [ -46.71671, -5.84534 ], [ -46.24602, -8.05265 ], [ -48.46449, -8.509 ], [ -48.46457733414816, -8.508579340073704 ], [ -48.46565, -8.5088 ], [ -48.469868917900378, -8.488538629744157 ], [ -48.47007, -8.48858 ], [ -48.47124429282664, -8.482934753991699 ], [ -48.47161, -8.48301 ], [ -48.5211, -8.24518 ], [ -48.520977960776264, -8.245154834296869 ], [ -48.906649547205056, -6.386986547525787 ], [ -49.35421, -4.25946 ], [ -49.3541881761236, -4.259455338328006 ], [ -49.366891850816721, -4.199546952905296 ], [ -49.80958, -2.12359 ], [ -49.809226921152266, -2.123513274139904 ], [ -49.81296, -2.10602 ], [ -47.62228, -1.62987 ], [ -47.614001711951325, -1.6682203221232 ], [ -47.61354, -1.66812 ], [ -47.12385, -3.93552 ], [ -47.124550864073207, -3.935669530125809 ], [ -47.11994, -3.95703 ], [ -47.120506105314284, -3.957150756736521 ], [ -47.11672, -3.9747 ], [ -47.117490036112095, -3.974864225794122 ], [ -46.821712616469902, -5.359718561972923 ], [ -46.725990765856857, -5.807288450758497 ] ] ] } },
{ "type": "Feature", "properties": { "orbit_key": "NISAR__NISAR__ASCENDING__PATH_60", "dataset": "NISAR", "platform": "NISAR", "processing_level": "RSLC", "flight_direction": "ASCENDING", "path_number": 60, "frame_count": 9, "frame_numbers": "165,166,167,168,169,170,171,172,173", "beam_mode": null, "scene_count": 9, "unique_footprints": 9, "first_start_time": "2025-11-02T09:48:31Z", "last_stop_time": "2025-11-02T09:53:34Z", "example_scene": "NISAR_L1_PR_RSLC_004_060_A_173_2005_DHDH_A_20251102T095259_20251102T095334_X05009_N_F_J_001" }, "geometry": { "type": "Polygon", "coordinates": [ [ [ -59.992152654843579, -24.364708743022149 ], [ -59.99216, -24.36471 ], [ -60.407144565806675, -22.255662488664218 ], [ -60.803206131985434, -20.248164109403461 ], [ -61.175470560490346, -18.368148254869745 ], [ -61.17548, -18.36815 ], [ -61.577843018901561, -16.348193767020891 ], [ -61.57814, -16.34825 ], [ -61.99199, -14.26775 ], [ -61.991989915183744, -14.267749983559012 ], [ -62.389763043660423, -12.292507403978854 ], [ -62.773695777908586, -10.403256942946888 ], [ -62.77381, -10.40328 ], [ -63.21204, -8.26228 ], [ -60.83455, -7.77229 ], [ -60.403362412310287, -9.800413034514545 ], [ -60.4031, -9.80036 ], [ -59.96209, -11.88797 ], [ -59.962760565750528, -11.888102669674696 ], [ -59.542989104542329, -13.873489230825374 ], [ -59.138064249583898, -15.762284052794362 ], [ -59.13741, -15.76216 ], [ -58.709147915136469, -17.788360527078339 ], [ -58.70234, -17.7871 ], [ -58.279334269436347, -19.751870771663114 ], [ -58.27933, -19.75187 ], [ -57.829078949110055, -21.835803280275787 ], [ -57.37538, -23.9169 ], [ -57.375405858264457, -23.916904425129129 ], [ -56.94575, -25.87925 ], [ -59.60703, -26.32237 ], [ -59.992152654843579, -24.364708743022149 ] ] ] } },
{ "type": "Feature", "properties": { "orbit_key": "NISAR__NISAR__DESCENDING__PATH_82", "dataset": "NISAR", "platform": "NISAR", "processing_level": "RSLC", "flight_direction": "DESCENDING", "path_number": 82, "frame_count": 9, "frame_numbers": "89,90,91,92,93,94,95,96,97", "beam_mode": null, "scene_count": 9, "unique_footprints": 9, "first_start_time": "2025-11-15T21:42:40Z", "last_stop_time": "2025-11-15T21:47:42Z", "example_scene": "NISAR_L1_PR_RSLC_005_082_D_097_2005_DHDH_A_20251115T214707_20251115T214742_X05009_N_F_J_001" }, "geometry": { "type": "Polygon", "coordinates": [ [ [ -54.687377578896829, -15.833032950965631 ], [ -54.69003, -15.83253 ], [ -54.270190902111381, -13.86612767114492 ], [ -54.27054, -13.86606 ], [ -53.81649, -11.7195 ], [ -53.815991036568889, -11.719598955910021 ], [ -53.421937696950543, -9.87113201220355 ], [ -53.42269, -9.87098 ], [ -52.990979784717467, -7.842933665542589 ], [ -52.99158, -7.84281 ], [ -52.57207224404673, -5.873830504894662 ], [ -52.57217, -5.87381 ], [ -52.55977543156753, -5.816114833889534 ], [ -52.54665, -5.75451 ], [ -52.546545661665185, -5.754531909378893 ], [ -52.12355, -3.78554 ], [ -52.122987590585545, -3.785660106927458 ], [ -51.711532863734199, -1.875858417676117 ], [ -51.71171, -1.87582 ], [ -51.696641403471453, -1.806738453536079 ], [ -51.68582, -1.75651 ], [ -51.685691283123958, -1.75653794241759 ], [ -51.25617, 0.21259 ], [ -49.01242, -0.28182 ], [ -49.440827123739382, -2.25759561117666 ], [ -49.889964562443161, -4.365190388732954 ], [ -50.3032, -6.34974 ], [ -50.305324046962582, -6.349294468472081 ], [ -50.71299, -8.31228 ], [ -50.71374035899931, -8.312125399549981 ], [ -51.13028, -10.33419 ], [ -51.130349996672471, -10.334175856300288 ], [ -51.52919, -12.29679 ], [ -51.529254216976611, -12.296777279972284 ], [ -51.93058703458707, -14.285647921268774 ], [ -52.32635, -16.28073 ], [ -52.32930543664861, -16.280169591355044 ], [ -52.7278, -18.30142 ], [ -55.12573, -17.85738 ], [ -54.687377578896829, -15.833032950965631 ] ] ] } },
{ "type": "Feature", "properties": { "orbit_key": "NISAR__NISAR__ASCENDING__PATH_117", "dataset": "NISAR", "platform": "NISAR", "processing_level": "RSLC", "flight_direction": "ASCENDING", "path_number": 117, "frame_count": 7, "frame_numbers": "170,171,172,173,174,175,176", "beam_mode": null, "scene_count": 35, "unique_footprints": 35, "first_start_time": "2025-11-06T08:44:43Z", "last_stop_time": "2026-01-17T08:48:42Z", "example_scene": "NISAR_L1_PR_RSLC_006_117_A_176_2005_DHDH_A_20251130T084805_20251130T084839_X05010_F_F_J_001" }, "geometry": { "type": "Polygon", "coordinates": [ [ [ -46.43976, -8.40823 ], [ -46.439938353624953, -8.407367308388411 ], [ -46.44, -8.40738 ], [ -46.692478645788185, -7.185934494777986 ], [ -46.854256459851307, -6.404397045594391 ], [ -46.888119087515285, -6.243103686174967 ], [ -47.263752062741531, -4.456381825672096 ], [ -47.2644, -4.45652 ], [ -47.7193, -2.31489 ], [ -47.719226385514922, -2.314874025795832 ], [ -47.7266, -2.28018 ], [ -45.49811, -1.79648 ], [ -45.487195348831889, -1.846867945531051 ], [ -45.48679, -1.84678 ], [ -45.483020561347963, -1.864170121781573 ], [ -45.48302, -1.86417 ], [ -45.482120617649031, -1.868321968240864 ], [ -45.047111660360891, -3.875214622995117 ], [ -45.04709, -3.87521 ], [ -45.045671156992213, -3.881860315184444 ], [ -45.02126, -3.99448 ], [ -45.021627078450145, -3.994558266788192 ], [ -44.60146, -5.96394 ], [ -44.601667460568407, -5.963983489828056 ], [ -44.199736521768322, -7.857940548007726 ], [ -44.1992, -7.85783 ], [ -44.036545306096286, -8.624718855575734 ], [ -43.776951860335508, -9.841658783904712 ], [ -43.77676, -9.84162 ], [ -43.357771697679333, -11.809244207414567 ], [ -43.3577, -11.80923 ], [ -43.340870784368995, -11.888613120514625 ], [ -43.33239, -11.92844 ], [ -43.332425979307224, -11.928447120662932 ], [ -42.90271, -13.95541 ], [ -42.903326496869205, -13.955529402040998 ], [ -42.48952, -15.92293 ], [ -42.49045648049254, -15.923107418286987 ], [ -42.48678, -15.9406 ], [ -42.487341478025456, -15.940706355101822 ], [ -42.48175, -15.96732 ], [ -44.81858, -16.40983 ], [ -45.24838, -14.27016 ], [ -45.248198052931208, -14.270124708071942 ], [ -45.6102857552576, -12.473867943202029 ], [ -45.624884211017019, -12.401548503599097 ], [ -45.626781021587135, -12.392244265261098 ], [ -45.62681, -12.39225 ], [ -45.714378243110403, -11.96256222972178 ], [ -46.05612, -10.28625 ], [ -46.056035683609011, -10.28623295275176 ], [ -46.439607144792376, -8.408198527519792 ], [ -46.43976, -8.40823 ] ] ] } },
{ "type": "Feature", "properties": { "orbit_key": "NISAR__NISAR__DESCENDING__PATH_140", "dataset": "NISAR", "platform": "NISAR", "processing_level": "RSLC", "flight_direction": "DESCENDING", "path_number": 140, "frame_count": 5, "frame_numbers": "92,93,94,95,96", "beam_mode": null, "scene_count": 15, "unique_footprints": 15, "first_start_time": "2025-11-19T22:17:38Z", "last_stop_time": "2025-12-13T22:20:27Z", "example_scene": "NISAR_L1_PR_RSLC_005_140_D_096_2005_SHSH_A_20251119T221952_20251119T222026_X05009_N_F_J_001" }, "geometry": { "type": "Polygon", "coordinates": [ [ [ -63.0009, -15.8617 ], [ -62.99399581349801, -15.829168327128695 ], [ -62.99462, -15.82905 ], [ -62.576730348334763, -13.862306913641312 ], [ -62.57754, -13.86215 ], [ -62.12044, -11.71626 ], [ -62.119406936159173, -11.716464829455076 ], [ -61.70367, -9.74806 ], [ -61.703493459674377, -9.748095708332782 ], [ -61.701231245683346, -9.737455158074502 ], [ -61.69777, -9.72102 ], [ -61.69773843758108, -9.721026385066301 ], [ -61.599091678670774, -9.257031466742053 ], [ -61.304648854814424, -7.871798770110727 ], [ -61.30474, -7.87178 ], [ -61.297779824559505, -7.839207119076113 ], [ -61.29796, -7.83917 ], [ -60.85206, -5.75112 ], [ -60.851617096404084, -5.751212995777466 ], [ -60.84583, -5.72413 ], [ -58.57441, -6.20115 ], [ -59.01884, -8.34253 ], [ -59.019323605610985, -8.342430408004999 ], [ -59.397795516347173, -10.186304033174377 ], [ -59.39742, -10.18638 ], [ -59.83136, -12.3275 ], [ -59.83195104269678, -12.327383011435089 ], [ -60.21625457681521, -14.223033835175434 ], [ -60.63292, -16.31035 ], [ -63.0009, -15.8617 ] ] ] } },
{ "type": "Feature", "properties": { "orbit_key": "NISAR__NISAR__ASCENDING__PATH_146", "dataset": "NISAR", "platform": "NISAR", "processing_level": "RSLC", "flight_direction": "ASCENDING", "path_number": 146, "frame_count": 5, "frame_numbers": "172,173,174,175,176", "beam_mode": null, "scene_count": 15, "unique_footprints": 15, "first_start_time": "2025-11-20T09:02:29Z", "last_stop_time": "2026-01-19T09:05:20Z", "example_scene": "NISAR_L1_PR_RSLC_005_146_A_176_2005_DHDH_A_20251120T090443_20251120T090518_X05009_N_F_J_001" }, "geometry": { "type": "Polygon", "coordinates": [ [ [ -51.00173, -6.41714 ], [ -51.428284333617533, -4.382579208514497 ], [ -51.86942, -2.31251 ], [ -51.868085063313529, -2.312220324779799 ], [ -51.86983, -2.30403 ], [ -49.63962, -1.82003 ], [ -49.17557, -3.96808 ], [ -49.175838949412771, -3.968137362832072 ], [ -49.17543, -3.97003 ], [ -49.175532082307555, -3.970051771843114 ], [ -48.75344, -5.93708 ], [ -48.753796513663602, -5.93715476345458 ], [ -48.75339, -5.93905 ], [ -48.753607341477419, -5.939095576651852 ], [ -48.32113, -7.96557 ], [ -48.321288376338394, -7.965602605553372 ], [ -47.927803802843123, -9.814654145814904 ], [ -47.92719, -9.81453 ], [ -47.4713, -11.96125 ], [ -47.47149612034039, -11.961288814558252 ], [ -47.47109, -11.9632 ], [ -47.472607597153775, -11.96350033400994 ], [ -47.47125, -11.96989 ], [ -49.76611, -12.42401 ], [ -50.189915562373059, -10.337579617510814 ], [ -50.60555, -8.32047 ], [ -50.605407646268823, -8.320440664391814 ], [ -51.001138499475921, -6.417015973150619 ], [ -51.00173, -6.41714 ] ] ] } }
]
}
