{
"type": "FeatureCollection",
"name": "sentinel-1_unique_orbit_geometries",
"crs": { "type": "name", "properties": { "name": "urn:ogc:def:crs:OGC:1.3:CRS84" } },
"features": [
{ "type": "Feature", "properties": { "orbit_key": "SENTINEL-1__Sentinel-1A__DESCENDING__PATH_39__FRAME_630__IW", "dataset": "SENTINEL-1", "platform": "Sentinel-1A", "processing_level": "SLC", "flight_direction": "DESCENDING", "path_number": 39, "frame_number": 630, "beam_mode": "IW", "scene_count": 14, "unique_footprints": 14, "first_start_time": "2025-01-07T09:25:32Z", "last_stop_time": "2025-07-18T09:25:54Z", "example_scene": "S1A_IW_SLC__1SDV_20250131T092530_20250131T092557_057686_071C1E_0299" }, "geometry": { "type": "Polygon", "coordinates": [ [ [ -58.300449, -10.546623 ], [ -56.023575, -11.065419 ], [ -56.035194678752809, -11.116639894838633 ], [ -56.023876, -11.119219 ], [ -56.275403399277664, -12.227795860613805 ], [ -56.394566, -12.753071 ], [ -56.395362188669012, -12.752888436556574 ], [ -56.432957, -12.918321 ], [ -56.433485569660185, -12.918199688832559 ], [ -56.433819, -12.919667 ], [ -56.435418296225656, -12.919299937049702 ], [ -56.741711, -14.250218 ], [ -56.742725411208163, -14.249984127954166 ], [ -56.742855, -14.250547 ], [ -56.743032548385436, -14.250506054024063 ], [ -56.743065, -14.250647 ], [ -56.743717699109389, -14.250496462645906 ], [ -56.78175, -14.415408 ], [ -56.782275527931027, -14.415286732720379 ], [ -56.782532, -14.416399 ], [ -56.783147099279368, -14.416257074812062 ], [ -56.783154, -14.416287 ], [ -56.783211058356223, -14.416273835462054 ], [ -56.783245, -14.416421 ], [ -56.785115728147495, -14.415989272810879 ], [ -56.785198, -14.416346 ], [ -56.785327766490354, -14.416316053882531 ], [ -57.064496973474157, -15.610732212228157 ], [ -57.060837, -15.61158 ], [ -57.060902719317426, -15.611856578154436 ], [ -57.06078, -15.611885 ], [ -57.448288, -17.242956 ], [ -57.44908164948901, -17.242771275895375 ], [ -57.449112, -17.242899 ], [ -57.44952132369955, -17.242803711147097 ], [ -57.449635, -17.243282 ], [ -57.449694877266239, -17.243268059301904 ], [ -57.449726, -17.243399 ], [ -57.449877469839173, -17.243363731706143 ], [ -57.449883, -17.243387 ], [ -57.45005640401525, -17.243346627721859 ], [ -57.450066, -17.243387 ], [ -59.804092, -16.695295 ], [ -59.8040140569287, -16.694985235558754 ], [ -59.804466, -16.69488 ], [ -59.804442597056592, -16.694786996268373 ], [ -59.805061, -16.694643 ], [ -59.729544458243574, -16.394533903873402 ], [ -59.567490121638436, -15.749956740957261 ], [ -59.594948, -15.743576 ], [ -59.138599, -13.903854 ], [ -59.138491258886241, -13.903878885155168 ], [ -59.138401, -13.903515 ], [ -59.138271833687917, -13.903544832614452 ], [ -59.138256, -13.903481 ], [ -59.136903274264697, -13.903793437842157 ], [ -59.136765, -13.903236 ], [ -59.134364000412809, -13.903790565221644 ], [ -59.134346, -13.903718 ], [ -59.134201244658385, -13.903751435379251 ], [ -59.134155, -13.903565 ], [ -59.112743082043934, -13.908510465496278 ], [ -59.019321, -13.529093 ], [ -59.017182490192695, -13.529585970069652 ], [ -59.017021, -13.52893 ], [ -59.017002996658924, -13.528934149536408 ], [ -58.753978027017517, -12.440052151756408 ], [ -58.657063, -12.038521 ], [ -58.656217904784313, -12.03871473207659 ], [ -58.623368139287692, -11.90011977995079 ], [ -58.302795, -10.546579 ], [ -58.300762147887859, -10.547042241528974 ], [ -58.300674, -10.54667 ], [ -58.300471079216692, -10.546716234466551 ], [ -58.300449, -10.546623 ] ] ] } },
{ "type": "Feature", "properties": { "orbit_key": "SENTINEL-1__Sentinel-1A__DESCENDING__PATH_141__FRAME_632__IW", "dataset": "SENTINEL-1", "platform": "Sentinel-1A", "processing_level": "SLC", "flight_direction": "DESCENDING", "path_number": 141, "frame_number": 632, "beam_mode": "IW", "scene_count": 37, "unique_footprints": 37, "first_start_time": "2025-01-02T09:17:30Z", "last_stop_time": "2026-03-22T09:17:41Z", "example_scene": "S1A_IW_SLC__1SDV_20250126T091728_20250126T091756_057613_071940_1CA8" }, "geometry": { "type": "Polygon", "coordinates": [ [ [ -56.381737, -11.101465 ], [ -56.381700480169478, -11.101473340061538 ], [ -56.381458, -11.100457 ], [ -56.379863094741012, -11.100821233627018 ], [ -56.379822, -11.100649 ], [ -56.379547235656986, -11.100711753004365 ], [ -56.379543, -11.100694 ], [ -54.087048, -11.624241 ], [ -54.087250301095757, -11.625127880551007 ], [ -54.087044, -11.625175 ], [ -54.125026828986833, -11.79168012867332 ], [ -54.12392, -11.791933 ], [ -54.12402108249546, -11.792375573536539 ], [ -54.123726, -11.792443 ], [ -54.439583147713876, -13.175328258591875 ], [ -54.439445, -13.17536 ], [ -54.450160031862033, -13.221635955841046 ], [ -54.477663373402272, -13.342051041753482 ], [ -54.47752, -13.342084 ], [ -54.477520033514878, -13.342084144529199 ], [ -54.476681, -13.342277 ], [ -54.7850158432379, -14.672073395887802 ], [ -54.782688, -14.672611 ], [ -54.782977910129304, -14.673843676693467 ], [ -54.782799, -14.673885 ], [ -54.821823836930811, -14.839803676710623 ], [ -54.821342, -14.839915 ], [ -54.821365149584267, -14.84001328194932 ], [ -54.820583, -14.840194 ], [ -55.173120041743594, -16.33679925636952 ], [ -55.173035, -16.336819 ], [ -55.173050974868524, -16.336885676060632 ], [ -55.172649, -16.336979 ], [ -55.203162016288047, -16.464334725529241 ], [ -55.204929, -16.471836 ], [ -55.204957644308074, -16.471829347074106 ], [ -55.530946701447455, -17.832447795760292 ], [ -55.530354, -17.832586 ], [ -55.85425892907179, -19.16026448529173 ], [ -55.854214, -19.160275 ], [ -55.854273115242748, -19.160513680176376 ], [ -55.854088, -19.160557 ], [ -55.854290666712117, -19.161375290894245 ], [ -55.854168, -19.161404 ], [ -55.878719491282645, -19.260527739322963 ], [ -55.895033872856068, -19.327399995567873 ], [ -55.893543, -19.327749 ], [ -56.311172, -21.006407 ], [ -56.311573265003723, -21.006312694600847 ], [ -56.311592, -21.006388 ], [ -56.312211711953317, -21.006242354593557 ], [ -56.31229, -21.006557 ], [ -56.312964427849181, -21.006398479961302 ], [ -56.312977, -21.006449 ], [ -56.313077224870987, -21.006425439501339 ], [ -56.313103, -21.006529 ], [ -56.313380057618275, -21.006463863290701 ], [ -56.3134, -21.006544 ], [ -56.313777987894817, -21.006455151758473 ], [ -56.808178, -22.946146 ], [ -56.808584381741149, -22.946050108047316 ], [ -56.808605, -22.946131 ], [ -56.808870599619176, -22.946068327527176 ], [ -56.808922, -22.94627 ], [ -56.809315857798978, -22.946177068390874 ], [ -56.809376, -22.946413 ], [ -56.810285093622291, -22.946198463732042 ], [ -56.810299, -22.946253 ], [ -56.810511503273126, -22.946202839486268 ], [ -56.810535, -22.946295 ], [ -59.265671, -22.36688 ], [ -59.265655286254635, -22.366822713972049 ], [ -59.266243, -22.366684 ], [ -59.266221299161863, -22.366604891188601 ], [ -59.266331, -22.366579 ], [ -59.266289178631872, -22.366426544803542 ], [ -59.266766, -22.366314 ], [ -59.008499840285538, -21.424866827805069 ], [ -59.031151, -21.419523 ], [ -59.031116383756554, -21.419395110261295 ], [ -59.031155, -21.419386 ], [ -59.031143580423439, -21.41934380949267 ], [ -59.031715, -21.419209 ], [ -59.031712400190436, -21.419199394995104 ], [ -59.031837, -21.41917 ], [ -59.031826898249243, -21.419132679246285 ], [ -59.032402, -21.418997 ], [ -58.535976, -19.584967 ], [ -58.535793158208541, -19.585009957196633 ], [ -58.446785, -19.254333 ], [ -58.442406563245932, -19.255360814481428 ], [ -58.442226, -19.25469 ], [ -58.421972783829041, -19.259444296357529 ], [ -58.326489454892609, -18.901075625899374 ], [ -58.326744, -18.901016 ], [ -57.930523053040652, -17.377772133848477 ], [ -57.550146366252058, -15.882128889261915 ], [ -57.19006063164386, -14.435582351306747 ], [ -57.191113, -14.435339 ], [ -57.191094223001144, -14.435262018595269 ], [ -57.19141, -14.435189 ], [ -56.827866241452959, -12.944661698929616 ], [ -56.827991, -12.944633 ], [ -56.426643, -11.266319 ], [ -56.426274159525569, -11.266403304612355 ], [ -56.426254, -11.266319 ], [ -56.426236355492854, -11.266323032626767 ], [ -56.426167, -11.266033 ], [ -56.425731842348661, -11.266132459310038 ], [ -56.425682, -11.265924 ], [ -56.421218287819798, -11.266944107711733 ], [ -56.381737, -11.101465 ] ] ] } },
{ "type": "Feature", "properties": { "orbit_key": "SENTINEL-1__Sentinel-1A__DESCENDING__PATH_68__FRAME_633__IW", "dataset": "SENTINEL-1", "platform": "Sentinel-1A", "processing_level": "SLC", "flight_direction": "DESCENDING", "path_number": 68, "frame_number": 633, "beam_mode": "IW", "scene_count": 3, "unique_footprints": 3, "first_start_time": "2025-01-09T09:09:20Z", "last_stop_time": "2025-08-25T09:09:43Z", "example_scene": "S1A_IW_SLC__1SDV_20250109T090920_20250109T090948_057365_070F67_A4CC" }, "geometry": { "type": "Polygon", "coordinates": [ [ [ -52.952646354764461, -15.625544578851953 ], [ -52.952446, -15.625591 ], [ -53.340137, -17.256374 ], [ -53.340219154523872, -17.256354870655088 ], [ -53.340446, -17.257309 ], [ -53.342655401194094, -17.256794551048998 ], [ -53.623272, -18.418894 ], [ -53.623379617039099, -18.418868859875008 ], [ -53.623611, -18.419827 ], [ -53.669463815521368, -18.409115382498953 ], [ -53.852300207573251, -19.159575875080655 ], [ -53.851681, -19.159721 ], [ -54.255104, -20.781786 ], [ -54.258724946943687, -20.780933967559264 ], [ -54.258961, -20.781883 ], [ -54.259003184098873, -20.781873073139653 ], [ -54.259083, -20.782194 ], [ -54.260413323238502, -20.781880971298094 ], [ -54.606583133383694, -22.14530274685805 ], [ -54.603451, -22.146042 ], [ -55.023643, -23.765612 ], [ -55.027279433981498, -23.764751011124009 ], [ -55.027611, -23.766029 ], [ -55.027760722765336, -23.765993551190828 ], [ -55.027779, -23.766064 ], [ -55.033342659583752, -23.764746745545722 ], [ -55.163284, -24.261705 ], [ -55.163653385068464, -24.261617457358696 ], [ -55.163841, -24.262335 ], [ -55.164921181382432, -24.262078999222698 ], [ -55.164974, -24.262281 ], [ -57.630928, -23.677834 ], [ -57.630860910729886, -23.677596345757166 ], [ -57.630913, -23.677584 ], [ -57.630896961625027, -23.677527187291613 ], [ -57.631172, -23.677462 ], [ -57.63116637822506, -23.677442086421674 ], [ -57.631268, -23.677418 ], [ -57.308455840843912, -22.533982451201361 ], [ -57.213487692625669, -22.194559090889612 ], [ -57.213505, -22.194555 ], [ -57.21347262180543, -22.194437253359045 ], [ -57.213516, -22.194427 ], [ -57.213494833597892, -22.194350027522404 ], [ -57.213863, -22.194263 ], [ -56.889548742318603, -21.014947407194079 ], [ -56.636501, -20.086843 ], [ -56.636142261448441, -20.086927401759219 ], [ -56.394580497864304, -19.186141200066121 ], [ -55.964529366045639, -17.540759452530949 ], [ -55.796169, -16.891558 ], [ -55.79536549250804, -16.89174544175409 ], [ -55.795341, -16.891651 ], [ -55.791922742899665, -16.892448423749677 ], [ -55.791759, -16.891817 ], [ -55.745589486681027, -16.902586855403708 ], [ -55.53532, -16.079229 ], [ -55.534960552235184, -16.079312543830028 ], [ -55.534893, -16.079048 ], [ -55.534859050215552, -16.079055890360994 ], [ -55.235138883453196, -14.879718091900411 ], [ -55.025709770964077, -14.029937984391744 ], [ -54.817473017286297, -13.17932767555445 ], [ -54.627488701559592, -12.392656250051724 ], [ -54.426708, -11.555976 ], [ -52.963836050720438, -11.890671061264474 ], [ -52.131939, -12.080971 ], [ -52.517845, -13.765789 ], [ -52.517918016469039, -13.765772191677634 ], [ -52.517956, -13.765938 ], [ -52.518487149158581, -13.765815714489582 ], [ -52.518517, -13.765946 ], [ -52.51943659567268, -13.765734274538145 ], [ -52.634064, -14.263626 ], [ -52.634105991955074, -14.263616314693683 ], [ -52.634239, -14.264194 ], [ -52.635932166372186, -14.263803477535475 ], [ -52.868214, -15.262504 ], [ -52.868331570688817, -15.262476795761501 ], [ -52.86837, -15.262642 ], [ -52.868920866052243, -15.262514521016012 ], [ -52.938140821836186, -15.555368870607385 ], [ -52.954410824468205, -15.624938913230967 ], [ -52.952602, -15.625358 ], [ -52.952646354764461, -15.625544578851953 ] ] ] } },
{ "type": "Feature", "properties": { "orbit_key": "SENTINEL-1__Sentinel-1A__DESCENDING__PATH_170__FRAME_610__IW", "dataset": "SENTINEL-1", "platform": "Sentinel-1A", "processing_level": "SLC", "flight_direction": "DESCENDING", "path_number": 170, "frame_number": 610, "beam_mode": "IW", "scene_count": 38, "unique_footprints": 38, "first_start_time": "2025-01-04T08:59:12Z", "last_stop_time": "2026-03-24T08:59:22Z", "example_scene": "S1A_IW_SLC__1SDV_20250128T085911_20250128T085938_057642_071A68_8A39" }, "geometry": { "type": "Polygon", "coordinates": [ [ [ -49.524045417173348, -9.643602342910167 ], [ -49.523857, -9.643645 ], [ -49.714279, -10.496771 ], [ -49.718295121050552, -10.495858401463488 ], [ -49.862805756035897, -11.141055342487252 ], [ -49.862759, -11.141066 ], [ -49.862771024973014, -11.141118974301303 ], [ -49.862003, -11.141294 ], [ -49.862079790467199, -11.141632358756409 ], [ -49.861919, -11.141669 ], [ -49.861923064419429, -11.141686907435478 ], [ -49.86187, -11.141699 ], [ -50.201859020950174, -12.639644366866662 ], [ -50.201817, -12.639654 ], [ -50.201894369906313, -12.639989968778151 ], [ -50.201759, -12.640021 ], [ -50.201763524911421, -12.640040647086719 ], [ -50.201714, -12.640052 ], [ -50.218080861552188, -12.711115589390072 ], [ -50.231144, -12.76867 ], [ -50.231326732689006, -12.768628090768479 ], [ -50.558596084223261, -14.189605151228477 ], [ -50.557278, -14.189909 ], [ -50.5572825176789, -14.189928276461103 ], [ -50.557236, -14.189939 ], [ -51.01757, -16.154123 ], [ -51.018361952567425, -16.153939254741232 ], [ -51.018394, -16.154076 ], [ -51.019190895689739, -16.153891110345938 ], [ -51.019253, -16.154156 ], [ -51.021782826584186, -16.153568847171389 ], [ -51.298336, -17.316368 ], [ -51.298727885529445, -17.316276747110546 ], [ -51.298889, -17.316954 ], [ -51.299405687577284, -17.316833657162199 ], [ -51.299416, -17.316877 ], [ -51.299707937533746, -17.316809002389007 ], [ -51.299805, -17.317217 ], [ -51.300030091170221, -17.31716457281432 ], [ -51.300034, -17.317181 ], [ -51.300109259986755, -17.317163468100521 ], [ -51.300117, -17.317196 ], [ -51.300792994149212, -17.317038552973798 ], [ -51.3008, -17.317068 ], [ -51.300843497912155, -17.317057868848686 ], [ -51.629887567377089, -18.676299241359452 ], [ -51.626766, -18.677029 ], [ -51.626781820216173, -18.677093126628726 ], [ -51.626316, -18.677202 ], [ -52.028164, -20.306484 ], [ -52.02882694314053, -20.306328426946234 ], [ -52.028889, -20.30658 ], [ -52.029399268895929, -20.306460239259653 ], [ -52.029434, -20.306601 ], [ -52.029584977304545, -20.306565560626716 ], [ -52.385545376938801, -21.720712808753795 ], [ -52.382168, -21.721508 ], [ -52.382342456634923, -21.722185594264534 ], [ -52.381695, -21.722338 ], [ -52.828518, -23.458206 ], [ -52.829280480412237, -23.458025912242444 ], [ -52.829315, -23.45816 ], [ -52.830019511372406, -23.457993582169269 ], [ -52.830067, -23.458178 ], [ -52.830603953026319, -23.458051144288987 ], [ -52.830727, -23.458529 ], [ -52.830818310865403, -23.458507428380425 ], [ -52.830837, -23.45858 ], [ -52.83175525888619, -23.458363031924296 ], [ -52.831867, -23.458797 ], [ -52.893552191445764, -23.444223814957908 ], [ -53.078907, -24.15419 ], [ -53.080594026304276, -24.153790214191233 ], [ -53.080677, -24.154108 ], [ -53.082742238612568, -24.153618550905396 ], [ -53.082893, -24.154196 ], [ -53.083219002115378, -24.154118744188985 ], [ -53.083294, -24.154406 ], [ -53.083435961430986, -24.154372357558273 ], [ -53.083492, -24.154587 ], [ -53.089640435628866, -24.153129966654834 ], [ -53.089706, -24.153381 ], [ -53.090788922187208, -24.153124318531383 ], [ -53.090851, -24.153362 ], [ -55.546429, -23.571325 ], [ -55.546336537633024, -23.570996887031338 ], [ -55.546585, -23.570938 ], [ -55.546545470107873, -23.570797714061708 ], [ -55.546886, -23.570717 ], [ -55.10903472073516, -22.016968579950312 ], [ -54.721097320299542, -20.603785587094166 ], [ -54.721329, -20.603731 ], [ -54.241609264523163, -18.808733710754893 ], [ -53.842949, -17.28087 ], [ -53.842846966678678, -17.280893832711616 ], [ -53.842793, -17.280687 ], [ -53.842734815688054, -17.280700590187461 ], [ -53.842701, -17.280571 ], [ -53.840230500098464, -17.28114808864078 ], [ -53.840088, -17.280602 ], [ -53.838368119941471, -17.281003755306234 ], [ -53.838322, -17.280827 ], [ -53.799593084028217, -17.289873186599181 ], [ -53.630226, -16.632324 ], [ -53.630157119899735, -16.632340037839917 ], [ -53.630077, -16.632029 ], [ -53.629981979137831, -16.63205112510283 ], [ -53.629848, -16.631531 ], [ -53.629274901166845, -16.631664447966298 ], [ -53.277913654284269, -15.237083805889968 ], [ -52.887169, -13.653258 ], [ -52.887060464976862, -13.653283029750975 ], [ -52.886982, -13.652965 ], [ -52.8868720642052, -13.652990353600385 ], [ -52.886776, -13.652601 ], [ -52.885964002439955, -13.652788272207575 ], [ -52.529063133166396, -12.176412834778358 ], [ -52.190125426441902, -10.746953395298224 ], [ -52.190342, -10.746904 ], [ -51.812794, -9.125695 ], [ -51.812628788196818, -9.125732420467813 ], [ -51.812553, -9.125407 ], [ -51.812424081877374, -9.12543620095739 ], [ -51.812336, -9.125058 ], [ -51.812180153822339, -9.12509330179534 ], [ -51.470425, -7.63231 ], [ -51.470242061796874, -7.632351150502864 ], [ -51.470139, -7.631901 ], [ -51.469998972085818, -7.631932499142455 ], [ -51.469913, -7.631557 ], [ -51.469162984462201, -7.631725722256516 ], [ -51.135276734722346, -6.149527014627341 ], [ -50.801083, -4.643124 ], [ -50.800857959851491, -4.643173852133817 ], [ -50.800785, -4.642845 ], [ -50.800633694331992, -4.642878519210059 ], [ -50.800579, -4.642632 ], [ -50.799895732370175, -4.642783372939984 ], [ -50.799885, -4.642735 ], [ -50.799698939677342, -4.642776220891768 ], [ -50.799637, -4.642497 ], [ -50.799347203332552, -4.642561193083651 ], [ -50.786716, -4.585618 ], [ -50.782254321266016, -4.586606202426698 ], [ -50.745285, -4.419589 ], [ -50.744789611754015, -4.41969860134409 ], [ -50.74477, -4.41961 ], [ -50.744505472752955, -4.419668526122533 ], [ -50.744396, -4.419174 ], [ -48.49461, -4.916994 ], [ -48.4946433455871, -4.917148194766138 ], [ -48.494251, -4.917235 ], [ -48.494264906346245, -4.917299311344541 ], [ -48.494194, -4.917315 ], [ -48.494254682150263, -4.917595621283597 ], [ -48.493114, -4.917848 ], [ -48.529386751677208, -5.085586369317862 ], [ -48.527298, -5.086049 ], [ -48.539673459551452, -5.143200954760666 ], [ -48.539452, -5.14325 ], [ -48.539489628163302, -5.143423822658967 ], [ -48.539227, -5.143482 ], [ -48.539267615400277, -5.143669575282128 ], [ -48.539207, -5.143683 ], [ -48.891891, -6.772768 ], [ -48.892207766311301, -6.772697243742773 ], [ -48.892235, -6.772823 ], [ -48.892355191424365, -6.772796146122555 ], [ -49.220459, -8.272759 ], [ -49.220828650600737, -8.27267582367239 ], [ -49.220844, -8.272746 ], [ -49.221039800263163, -8.272701947609198 ], [ -49.221077, -8.272872 ], [ -49.221274682558665, -8.272827512808526 ], [ -49.22134, -8.273126 ], [ -49.222376068204667, -8.272892775245607 ], [ -49.222412, -8.273057 ], [ -49.222585771999199, -8.273017889822997 ], [ -49.222637, -8.273252 ], [ -49.223107852226924, -8.273146012696774 ], [ -49.526145281598055, -9.642884918325866 ], [ -49.523994, -9.643372 ], [ -49.524045417173348, -9.643602342910167 ] ] ] } },
{ "type": "Feature", "properties": { "orbit_key": "SENTINEL-1__Sentinel-1A__DESCENDING__PATH_97__FRAME_607__IW", "dataset": "SENTINEL-1", "platform": "Sentinel-1A", "processing_level": "SLC", "flight_direction": "DESCENDING", "path_number": 97, "frame_number": 607, "beam_mode": "IW", "scene_count": 22, "unique_footprints": 22, "first_start_time": "2025-01-11T08:50:40Z", "last_stop_time": "2025-09-20T08:51:03Z", "example_scene": "S1A_IW_SLC__1SDV_20250123T085039_20250123T085107_057569_071784_F37C" }, "geometry": { "type": "Polygon", "coordinates": [ [ [ -46.935181, -7.228437 ], [ -46.935383749622424, -7.228391605401165 ], [ -46.935429, -7.2286 ], [ -46.935492775649799, -7.22858572219301 ], [ -47.236277071532257, -8.599049038613003 ], [ -47.236153, -8.599077 ], [ -47.236171267649674, -8.599159277014255 ], [ -47.236137, -8.599167 ], [ -47.236141942897149, -8.599189261890679 ], [ -47.235939, -8.599235 ], [ -47.59745, -10.227406 ], [ -47.597596878871983, -10.22737265497633 ], [ -47.597668, -10.227693 ], [ -47.598173432125961, -10.227578264322316 ], [ -47.906098854392837, -11.597050302239948 ], [ -47.906052, -11.597061 ], [ -47.906083751271922, -11.59720030573942 ], [ -47.905888, -11.597245 ], [ -47.924756311145856, -11.68002774896657 ], [ -47.93507, -11.725897 ], [ -47.935190509001409, -11.725869470931041 ], [ -47.935261, -11.726183 ], [ -47.935275520363739, -11.726179683248294 ], [ -48.276669, -13.224008 ], [ -48.276760298278248, -13.2239870238588 ], [ -48.276802, -13.22417 ], [ -48.277340581840726, -13.224046269081891 ], [ -48.277382, -13.224228 ], [ -48.27805481786055, -13.224073428782178 ], [ -48.278057, -13.224083 ], [ -48.278148752888747, -13.224061916242604 ], [ -48.278149, -13.224063 ], [ -48.278164237741393, -13.224059498178097 ], [ -48.278168, -13.224076 ], [ -48.278202158382015, -13.224068150102093 ], [ -48.278206, -13.224085 ], [ -48.278526091863128, -13.224011441083567 ], [ -48.278557, -13.224147 ], [ -48.27881200440077, -13.224088393717693 ], [ -48.638657, -14.779389 ], [ -48.639256147744845, -14.779250583964659 ], [ -48.639343, -14.779626 ], [ -48.640200285376963, -14.779427962510562 ], [ -48.991936, -16.275484 ], [ -48.991963116706117, -16.275477705074941 ], [ -48.991974, -16.275524 ], [ -48.992526195247649, -16.275395823015533 ], [ -48.992664, -16.275982 ], [ -48.993726002840582, -16.275735481606119 ], [ -48.99374, -16.275795 ], [ -48.993918230786477, -16.275753615765638 ], [ -49.343606791474507, -17.738197407375583 ], [ -49.35144, -17.77096 ], [ -49.351990729394721, -17.770831597566492 ], [ -49.352135, -17.771435 ], [ -49.352229224533588, -17.771413031267453 ], [ -49.683082986429312, -19.130537505012647 ], [ -49.681316, -19.130951 ], [ -49.681385349615695, -19.131229536389533 ], [ -49.681362, -19.131235 ], [ -50.210796, -21.257845 ], [ -50.211358581359221, -21.257712700808408 ], [ -50.211456, -21.258104 ], [ -50.212773630519791, -21.257794134710238 ], [ -50.212799, -21.257896 ], [ -50.212925264269266, -21.257866299906077 ], [ -50.212975, -21.258066 ], [ -50.213495738625703, -21.257943500797602 ], [ -50.213524, -21.258057 ], [ -50.2755463582087, -21.24346916824253 ], [ -50.380562900770393, -21.660312316875924 ], [ -50.380013, -21.660442 ], [ -50.380142309660215, -21.660943702168275 ], [ -50.380035, -21.660969 ], [ -50.410730496109665, -21.780056836369432 ], [ -50.412811, -21.788315 ], [ -50.412856324907935, -21.788304311867908 ], [ -50.797482, -23.280518 ], [ -50.79808927018869, -23.28037437063556 ], [ -50.7981, -23.280416 ], [ -50.801291940233142, -23.279661174203177 ], [ -50.801662, -23.281097 ], [ -50.802734405133691, -23.280843274537563 ], [ -50.802773, -23.280993 ], [ -53.237865, -22.704784 ], [ -53.19219267842545, -22.54015676172768 ], [ -53.192272, -22.540138 ], [ -52.770931262472189, -21.016875284541591 ], [ -52.287632, -19.221445 ], [ -52.287344003594363, -19.221512619443523 ], [ -52.287178, -19.220896 ], [ -52.286351770360874, -19.221090013853136 ], [ -52.28632, -19.220972 ], [ -52.284798959381888, -19.221329155699937 ], [ -52.284744, -19.221125 ], [ -52.243671801810592, -19.230769078097481 ], [ -52.104131159655175, -18.707357521297432 ], [ -52.104206, -18.70734 ], [ -52.104189794490281, -18.707277503216062 ], [ -52.104256, -18.707262 ], [ -52.104244163650229, -18.707216364705427 ], [ -52.104408, -18.707178 ], [ -51.691226852083147, -17.114071255771751 ], [ -51.306339, -15.596468 ], [ -51.306139868396883, -15.596514222021002 ], [ -51.306118, -15.596428 ], [ -51.30580558647447, -15.59650051787777 ], [ -51.305756, -15.596305 ], [ -51.305729047794443, -15.596311255979952 ], [ -50.935959, -14.106865 ], [ -50.935948907729262, -14.106867331175843 ], [ -50.93589, -14.10663 ], [ -50.935528949200659, -14.106713380476281 ], [ -50.917605375599464, -14.033011880310502 ], [ -50.560463, -12.564108 ], [ -50.56015306677812, -12.564179181696817 ], [ -50.560127, -12.564072 ], [ -50.559696019046079, -12.564171004494726 ], [ -50.220868327368024, -11.14293625823003 ], [ -49.854946, -9.579737 ], [ -49.854921125090016, -9.579742644501822 ], [ -49.533265300213344, -8.181603796776583 ], [ -49.183230611076354, -6.634918472592918 ], [ -48.854987200779462, -5.161821469281461 ], [ -48.499943, -3.544468 ], [ -48.498873095948532, -3.544703533982389 ], [ -48.498779, -3.544275 ], [ -46.247314, -4.040024 ], [ -46.247352671651335, -4.040203780960741 ], [ -46.246593, -4.040371 ], [ -46.246640885994729, -4.040593704427851 ], [ -46.246635, -4.040595 ], [ -46.246659921861877, -4.040710910165688 ], [ -46.246605, -4.040723 ], [ -46.246639109611067, -4.040881629077248 ], [ -46.246433, -4.040927 ], [ -46.581485069851354, -5.599090119218014 ], [ -46.581364, -5.599117 ], [ -46.594320406340699, -5.658780984429884 ], [ -46.609222, -5.728081 ], [ -46.609362555472586, -5.728049771468291 ], [ -46.907177122627068, -7.099479721290195 ], [ -46.907158, -7.099484 ], [ -46.909054837603584, -7.108126560095406 ], [ -46.935181, -7.228437 ] ] ] } },
{ "type": "Feature", "properties": { "orbit_key": "SENTINEL-1__Sentinel-1A__DESCENDING__PATH_24__FRAME_603__IW", "dataset": "SENTINEL-1", "platform": "Sentinel-1A", "processing_level": "SLC", "flight_direction": "DESCENDING", "path_number": 24, "frame_number": 603, "beam_mode": "IW", "scene_count": 38, "unique_footprints": 38, "first_start_time": "2025-01-06T08:42:09Z", "last_stop_time": "2026-03-26T08:42:20Z", "example_scene": "S1A_IW_SLC__1SDV_20250130T084207_20250130T084234_057671_071B88_8FD8" }, "geometry": { "type": "Polygon", "coordinates": [ [ [ -44.314849723944292, -4.62521779532045 ], [ -44.314869, -4.625308 ], [ -44.315071473302268, -4.62526328023966 ], [ -44.651077, -6.18333 ], [ -44.65112237040713, -6.183319895205678 ], [ -44.65115, -6.183448 ], [ -44.651294406709582, -6.183415834634586 ], [ -44.651382, -6.183822 ], [ -44.651595884315043, -6.183774362870072 ], [ -44.651615, -6.183863 ], [ -44.651835405930846, -6.183813910449619 ], [ -44.651882, -6.18403 ], [ -44.653510338069495, -6.183667391177938 ], [ -44.653526, -6.18374 ], [ -44.654371337763756, -6.183551694119719 ], [ -44.952919390419162, -7.553913814762316 ], [ -44.950653, -7.554422 ], [ -44.950659020105221, -7.554449337782271 ], [ -44.9505, -7.554485 ], [ -45.309155, -9.182907 ], [ -45.30927858566745, -9.182879071354151 ], [ -45.309368, -9.183285 ], [ -45.309453295808204, -9.183265722218895 ], [ -45.309456, -9.183278 ], [ -45.309654296067357, -9.183233186831108 ], [ -45.309658, -9.18325 ], [ -45.309676243994112, -9.183245876107936 ], [ -45.309719, -9.18344 ], [ -45.310147270084776, -9.18334321477926 ], [ -45.310173, -9.18346 ], [ -45.310592722915807, -9.183365123926633 ], [ -45.310596, -9.18338 ], [ -45.311728400280899, -9.183124061774501 ], [ -45.311798, -9.18344 ], [ -45.312129344899688, -9.183365107017705 ], [ -45.646038, -10.681437 ], [ -45.646099281740256, -10.68142305987762 ], [ -45.646122, -10.681525 ], [ -45.646199737110692, -10.681507319424314 ], [ -45.646271, -10.681827 ], [ -45.646551560300431, -10.68176317236251 ], [ -45.646599, -10.681976 ], [ -45.647100849181101, -10.681861838596328 ], [ -45.647102, -10.681867 ], [ -45.647498705191111, -10.681776735747198 ], [ -45.647503, -10.681796 ], [ -45.647608881470497, -10.681771911556563 ], [ -45.956778397721891, -12.051036072995981 ], [ -45.95388, -12.051699 ], [ -45.953895778254278, -12.051767924479027 ], [ -45.953655, -12.051823 ], [ -46.030372434697597, -12.386918593513832 ], [ -46.325989, -13.678348 ], [ -46.326257207424867, -13.678286284730586 ], [ -46.326275, -13.678364 ], [ -46.326276399891093, -13.678363677824672 ], [ -46.326366, -13.678755 ], [ -46.326777167502492, -13.678660364580386 ], [ -46.326778, -13.678664 ], [ -46.327293843556838, -13.67854525491364 ], [ -46.327316, -13.678642 ], [ -46.327634514658769, -13.678568678817461 ], [ -46.327641, -13.678597 ], [ -46.327843769418685, -13.678550329146155 ], [ -46.327854, -13.678595 ], [ -46.328006080171789, -13.67855998997927 ], [ -46.328037, -13.678695 ], [ -46.328810368614342, -13.678516960104455 ], [ -46.328869, -13.678773 ], [ -46.330630137461377, -13.678367622012066 ], [ -46.691971, -15.232832 ], [ -46.692070507784685, -15.232808979060644 ], [ -46.692074, -15.232824 ], [ -46.692304007477567, -15.232770780054727 ], [ -46.692348, -15.23296 ], [ -46.692375507889274, -15.232953634986488 ], [ -46.69244, -15.233231 ], [ -46.693322838144724, -15.233026703947237 ], [ -46.693325, -15.233036 ], [ -46.693441827102824, -15.233008963597959 ], [ -46.693493, -15.233229 ], [ -46.694104022008219, -15.233087583357422 ], [ -46.694149, -15.233281 ], [ -46.694949303193781, -15.233095793472392 ], [ -46.694984, -15.233245 ], [ -46.698126250682286, -15.232517803810406 ], [ -47.019526932267262, -16.592520526588071 ], [ -47.016659, -16.593187 ], [ -47.016690228307255, -16.593316880202959 ], [ -47.016552, -16.593349 ], [ -47.016590928136694, -16.593510917412388 ], [ -47.016285, -16.593582 ], [ -47.375840289911231, -18.08921853089964 ], [ -47.372711, -18.089949 ], [ -47.73879051417557, -19.584680739193285 ], [ -47.738384, -19.584776 ], [ -47.765266631904531, -19.692784831248868 ], [ -47.771835, -19.719604 ], [ -47.7719358488513, -19.719580359689825 ], [ -48.019798, -20.715439 ], [ -48.021134847049716, -20.715124892401843 ], [ -48.021221, -20.715471 ], [ -48.023724676966808, -20.714882686843779 ], [ -48.06472, -20.87956 ], [ -48.064845870412675, -20.87953041202649 ], [ -48.065086, -20.880495 ], [ -48.06522054145919, -20.880463373598495 ], [ -48.065266, -20.880646 ], [ -48.067169097249661, -20.880198705843384 ], [ -48.067326, -20.880829 ], [ -48.119526602895746, -20.868558229085533 ], [ -48.26624707237692, -21.451848862798069 ], [ -48.264969, -21.45215 ], [ -48.681019, -23.071646 ], [ -48.682731919139933, -23.071241064510385 ], [ -48.77874008242182, -23.436651560412894 ], [ -48.842678, -23.684374 ], [ -48.84353941185703, -23.684170185905376 ], [ -48.843647, -23.684587 ], [ -48.843868981515072, -23.684534474758134 ], [ -49.07444, -24.562096 ], [ -49.076775962843051, -24.561542274817587 ], [ -49.077015, -24.562452 ], [ -49.077199972801623, -24.562408142897912 ], [ -49.477806, -26.051216 ], [ -49.479991709151534, -26.050696653472421 ], [ -49.480206, -26.051493 ], [ -49.480988195401927, -26.051307096484823 ], [ -49.481148, -26.051901 ], [ -49.482151344367573, -26.051662549963986 ], [ -49.482159, -26.051691 ], [ -49.482226593067935, -26.051674938633852 ], [ -49.482292, -26.051918 ], [ -49.482551549165429, -26.051856312529917 ], [ -49.482559, -26.051884 ], [ -51.965611, -25.461718 ], [ -51.725652186378291, -24.639258902825233 ], [ -51.728874, -24.638494 ], [ -51.728832196196066, -24.638348481954566 ], [ -51.730637, -24.63792 ], [ -51.268574, -23.029484 ], [ -51.2679101085536, -23.029641176738703 ], [ -51.267719, -23.028976 ], [ -51.267533114504651, -23.029020012024588 ], [ -51.267513, -23.02895 ], [ -51.266693606313851, -23.029144006743273 ], [ -50.852188, -21.546541 ], [ -50.852116245386789, -21.546557936656725 ], [ -50.387997, -19.839809 ], [ -50.387266349059175, -19.83998079592449 ], [ -50.387184, -19.839678 ], [ -50.387009151042754, -19.839719115364396 ], [ -50.386955, -19.83952 ], [ -50.386437834854235, -19.839641609308078 ], [ -50.386417, -19.839565 ], [ -50.386015521112242, -19.839659410816427 ], [ -50.385967, -19.839481 ], [ -50.383709569249774, -19.840011838076961 ], [ -50.282868795780757, -19.465713064712396 ], [ -49.817528, -17.693148 ], [ -49.817397039884575, -17.693178620784686 ], [ -49.817368, -17.693068 ], [ -49.817300978694576, -17.693083670359243 ], [ -49.817158, -17.692539 ], [ -49.815265479753251, -17.692981477444736 ], [ -49.815174, -17.692633 ], [ -49.801185017546054, -17.695903741034655 ], [ -49.801178, -17.695877 ], [ -49.786288833022603, -17.699357573546859 ], [ -49.736044359806399, -17.506487284286262 ], [ -49.738106, -17.506006 ], [ -49.320386777927105, -15.86539366483437 ], [ -48.940849, -14.341702 ], [ -48.93987908216679, -14.341926240644986 ], [ -48.939751, -14.341412 ], [ -48.939634128610543, -14.341439016971643 ], [ -48.939327, -14.340206 ], [ -48.939051180514667, -14.340269767108909 ], [ -48.93898, -14.339984 ], [ -48.938866590206992, -14.340010219981631 ], [ -48.93874, -14.339502 ], [ -48.938468469161457, -14.339564777858678 ], [ -48.575249, -12.851182 ], [ -48.574308433512535, -12.851398305415088 ], [ -48.574272, -12.851249 ], [ -48.574150590369953, -12.851276917764906 ], [ -48.573879, -12.850164 ], [ -48.573733058924738, -12.850197562082929 ], [ -48.247721532331695, -11.488017024240905 ], [ -48.248421, -11.487857 ], [ -47.884157071959535, -9.937514184315591 ], [ -47.52327, -8.374384 ], [ -47.522396207211365, -8.374581260590036 ], [ -47.522217, -8.373805 ], [ -47.522017153024564, -8.373850110272368 ], [ -47.521729, -8.372602 ], [ -47.521499510560638, -8.372653806543646 ], [ -47.521458, -8.372474 ], [ -47.520768748548939, -8.372629587230206 ], [ -47.197976803443893, -6.950618691204565 ], [ -47.198524, -6.950496 ], [ -46.836063, -5.328015 ], [ -46.83538045645394, -5.328166773977228 ], [ -46.506233, -3.832861 ], [ -46.506079582694838, -3.832894836797156 ], [ -46.181435, -2.337334 ], [ -46.18066059105405, -2.337503319393605 ], [ -46.180519, -2.336851 ], [ -46.180207104181711, -2.336919185140133 ], [ -46.179985, -2.335896 ], [ -46.179624075904663, -2.33597491178027 ], [ -46.1796, -2.335864 ], [ -46.178675332698063, -2.336066172951845 ], [ -46.178669, -2.336037 ], [ -43.933483, -2.826923 ], [ -43.969269460802415, -2.994497188375189 ], [ -43.966209, -2.995167 ], [ -43.966274396888537, -2.995472966280867 ], [ -43.96616, -2.995498 ], [ -44.246558642306972, -4.307565154496499 ], [ -44.314342, -4.624777 ], [ -44.314523169151876, -4.624736986551182 ], [ -44.314636, -4.625265 ], [ -44.314849723944292, -4.62521779532045 ] ] ] } },
{ "type": "Feature", "properties": { "orbit_key": "SENTINEL-1__Sentinel-1A__DESCENDING__PATH_126__FRAME_599__IW", "dataset": "SENTINEL-1", "platform": "Sentinel-1A", "processing_level": "SLC", "flight_direction": "DESCENDING", "path_number": 126, "frame_number": 599, "beam_mode": "IW", "scene_count": 35, "unique_footprints": 35, "first_start_time": "2025-01-01T08:33:34Z", "last_stop_time": "2026-03-21T08:33:50Z", "example_scene": "S1A_IW_SLC__1SDV_20250125T083332_20250125T083402_057598_0718AC_4CFF" }, "geometry": { "type": "Polygon", "coordinates": [ [ [ -42.015079617629468, -3.46606907495845 ], [ -42.347183, -5.016448 ], [ -42.347858318817771, -5.016298491512725 ], [ -42.347961, -5.016778 ], [ -42.348755022632098, -5.01660226029006 ], [ -42.673096, -6.516544 ], [ -42.673673658201579, -6.516415093389565 ], [ -42.673748, -6.516759 ], [ -42.674098518797742, -6.516680801905216 ], [ -43.001675, -8.016214 ], [ -43.002157858924328, -8.016105445632078 ], [ -43.002258, -8.016564 ], [ -43.003364002302582, -8.016315420693223 ], [ -43.003422, -8.016581 ], [ -43.003947804688771, -8.016462823683437 ], [ -43.003971, -8.016569 ], [ -43.005333896326249, -8.016262591478389 ], [ -43.336449, -9.515083 ], [ -43.336831900402458, -9.514996316771073 ], [ -43.336876, -9.515196 ], [ -43.336990930229923, -9.515169988457913 ], [ -43.336998, -9.515202 ], [ -43.337463148259502, -9.515096724544261 ], [ -43.672611, -11.013856 ], [ -43.672897151616361, -11.013790800187191 ], [ -43.672939, -11.013978 ], [ -43.673555984577305, -11.013837457645414 ], [ -43.673557, -11.013842 ], [ -43.674035768315107, -11.013732944167039 ], [ -43.674129, -11.01415 ], [ -43.67782971896326, -11.013307022567171 ], [ -43.969011179359605, -12.29794726266859 ], [ -43.968056, -12.298166 ], [ -44.000603155890964, -12.439926339297733 ], [ -44.000465, -12.439958 ], [ -44.000649987685911, -12.440762380699548 ], [ -43.999329, -12.441065 ], [ -43.999375819990703, -12.441268676359437 ], [ -43.999226, -12.441303 ], [ -43.999232724833419, -12.441332252682644 ], [ -43.998924, -12.441403 ], [ -44.34328423487851, -13.93889725521047 ], [ -44.34309, -13.938942 ], [ -44.343101247508933, -13.938990186912152 ], [ -44.341969, -13.939251 ], [ -44.341989711356781, -13.939339737124861 ], [ -44.341854, -13.939371 ], [ -44.341891192534277, -13.939530340740784 ], [ -44.341667, -13.939582 ], [ -44.672822953565486, -15.357890846591523 ], [ -44.721077, -15.564624 ], [ -44.721091564152736, -15.564620626538057 ], [ -44.721115, -15.564721 ], [ -44.721500159624611, -15.564631762314788 ], [ -44.931767, -16.453911 ], [ -44.931845319203958, -16.45389280851861 ], [ -44.9319, -16.454124 ], [ -44.932670522450167, -16.453944980211176 ], [ -44.932671, -16.453947 ], [ -44.932733962522128, -16.453932376014293 ], [ -44.932793, -16.454182 ], [ -44.932956320813553, -16.454144056103907 ], [ -44.933014, -16.454388 ], [ -44.933754659578682, -16.454215964861387 ], [ -44.933762, -16.454247 ], [ -44.933846221193832, -16.454227432457895 ], [ -44.933857, -16.454273 ], [ -44.933916934909526, -16.454259074013226 ], [ -44.933933, -16.454327 ], [ -44.968233759422432, -16.446358656933018 ], [ -45.187188793291973, -17.363273534023431 ], [ -45.186535, -17.363426 ], [ -45.186581076361811, -17.363615540858628 ], [ -45.186459, -17.363644 ], [ -45.549821350735492, -18.85837283006164 ], [ -45.549637, -18.858416 ], [ -45.549651976591548, -18.858476446617875 ], [ -45.54953, -18.858505 ], [ -45.566687855978721, -18.927754953989471 ], [ -45.580776, -18.985708 ], [ -45.580859410445697, -18.98568846804341 ], [ -45.581028, -18.986382 ], [ -45.581075878990895, -18.98637078626421 ], [ -45.581135, -18.986614 ], [ -45.581263717089044, -18.986583849190517 ], [ -45.919664355796904, -20.352385537326064 ], [ -45.915897, -20.353271 ], [ -45.915962085924122, -20.353528465340538 ], [ -45.915913, -20.35354 ], [ -46.2931773027898, -21.845973812282562 ], [ -46.292286, -21.846184 ], [ -46.292383895715417, -21.846562878289316 ], [ -46.292324, -21.846577 ], [ -46.72575, -23.524076 ], [ -46.725783876771438, -23.524067986382047 ], [ -46.725857, -23.524351 ], [ -46.727737928589214, -23.523905984946932 ], [ -47.121883, -25.014282 ], [ -47.121902854867542, -25.014277291084827 ], [ -47.121948, -25.014448 ], [ -47.125265487430845, -25.013661056253117 ], [ -47.125412, -25.014215 ], [ -47.125476328598133, -25.014199740153646 ], [ -47.125492, -25.014259 ], [ -47.125570399900866, -25.014240402934689 ], [ -47.125629, -25.014462 ], [ -47.125829640143827, -25.014414408062649 ], [ -47.125893, -25.014654 ], [ -47.126124729522054, -25.01459903347935 ], [ -47.126171, -25.014774 ], [ -47.126962531908774, -25.014586243027285 ], [ -47.126995, -25.014709 ], [ -47.127598302304534, -25.014565877350879 ], [ -47.127647, -25.01475 ], [ -47.148278919160887, -25.009855624599084 ], [ -47.176765, -25.117323 ], [ -47.17688710990074, -25.117294035778222 ], [ -47.177101, -25.118101 ], [ -47.178486540608901, -25.117772369408573 ], [ -47.178505, -25.117842 ], [ -47.179338981574709, -25.117644156992487 ], [ -47.185307, -25.140148 ], [ -49.618248, -24.562958 ], [ -49.611881987584589, -24.540742496096954 ], [ -49.613022, -24.540472 ], [ -49.612815075387147, -24.539749741673884 ], [ -49.612873, -24.539736 ], [ -49.582150501667591, -24.432484168772884 ], [ -49.603123, -24.427509 ], [ -49.603062505995183, -24.427297551871124 ], [ -49.603714, -24.427143 ], [ -49.143326, -22.817945 ], [ -49.143009538373775, -22.81801986255164 ], [ -49.142902, -22.817644 ], [ -49.142813352156601, -22.817664970809126 ], [ -48.745392869740854, -21.389936893780714 ], [ -48.346531402243116, -19.919089615266522 ], [ -48.347542, -19.918852 ], [ -48.347486800774774, -19.918643412792566 ], [ -48.348118, -19.918495 ], [ -47.939041675830865, -18.372701402489724 ], [ -47.56718907921357, -16.934387559735786 ], [ -47.161041, -15.328098 ], [ -47.160651316786918, -15.328188462033783 ], [ -47.160545, -15.327768 ], [ -47.159963513919237, -15.327902987728509 ], [ -47.159962, -15.327897 ], [ -47.15968984107085, -15.327960174169458 ], [ -47.159641, -15.327767 ], [ -47.159509902743864, -15.327797432589749 ], [ -47.159439, -15.327517 ], [ -47.159278896198003, -15.327554166010856 ], [ -46.736259, -13.616026 ], [ -46.735842421825588, -13.616122140496438 ], [ -46.735767, -13.615817 ], [ -46.73522288354809, -13.615942574989445 ], [ -46.735222, -13.615939 ], [ -46.734977131041916, -13.61599550758408 ], [ -46.734913, -13.615736 ], [ -46.734882193588277, -13.615743108938732 ], [ -46.73481, -13.615451 ], [ -46.730568839572136, -13.616429776429559 ], [ -46.730408, -13.615779 ], [ -46.693124172037059, -13.624383493688624 ], [ -46.671936652836116, -13.538013292148364 ], [ -46.672363, -13.537915 ], [ -46.312944817823812, -12.046711041480691 ], [ -46.313198, -12.046653 ], [ -46.313197093243843, -12.046649164614228 ], [ -46.313538, -12.046571 ], [ -46.313497161845028, -12.04639828435749 ], [ -46.313904, -12.046305 ], [ -45.917171, -10.368483 ], [ -45.916920011933669, -10.368540163488481 ], [ -45.916889, -10.368409 ], [ -45.916345571560122, -10.368532759771737 ], [ -45.916313, -10.368395 ], [ -45.916113434993854, -10.368440449198189 ], [ -45.882523, -10.226101 ], [ -45.88149797821562, -10.226334265875151 ], [ -45.567978, -8.876041 ], [ -45.567755341322361, -8.876091380833588 ], [ -45.567749363825619, -8.876065634174612 ], [ -45.297223222193232, -7.691091846857049 ], [ -45.226749, -7.382371 ], [ -45.22674341820403, -7.38237225414583 ], [ -45.226734, -7.382331 ], [ -45.226333290891759, -7.382421037664305 ], [ -45.193775, -7.239549 ], [ -45.192936247573215, -7.239737297433571 ], [ -45.04434610676072, -6.57832415469549 ], [ -44.857506, -5.745299 ], [ -44.857424248045362, -5.745317215390996 ], [ -44.558304, -4.393602 ], [ -44.558242018294152, -4.393615712600847 ], [ -44.558208, -4.393462 ], [ -44.55818127086016, -4.393467913747209 ], [ -44.526562, -4.250359 ], [ -44.526461751338239, -4.250381157946369 ], [ -44.219139, -2.841331 ], [ -44.219084098911615, -2.841343039332551 ], [ -44.187901, -2.698162 ], [ -44.187824103233602, -2.698178846234449 ], [ -43.861027, -1.178283 ], [ -43.860907744556016, -1.178308889356689 ], [ -43.860851, -1.178045 ], [ -43.860713348797717, -1.178074884449682 ], [ -43.860645, -1.177757 ], [ -43.857983976117247, -1.178334680289512 ], [ -43.8578, -1.177479 ], [ -41.632763, -1.660478 ], [ -41.632854361854335, -1.660908303369821 ], [ -41.632736, -1.660934 ], [ -41.632783433602981, -1.66115739359744 ], [ -41.632145, -1.661296 ], [ -41.6321758853746, -1.661441456914838 ], [ -41.630985, -1.6617 ], [ -41.63105434938003, -1.662026613524547 ], [ -41.630638, -1.662117 ], [ -42.013638, -3.466003 ], [ -42.014414443418133, -3.465832598525417 ], [ -42.014492, -3.466198 ], [ -42.015079617629468, -3.46606907495845 ] ] ] } },
{ "type": "Feature", "properties": { "orbit_key": "SENTINEL-1__Sentinel-1A__DESCENDING__PATH_53__FRAME_600__IW", "dataset": "SENTINEL-1", "platform": "Sentinel-1A", "processing_level": "SLC", "flight_direction": "DESCENDING", "path_number": 53, "frame_number": 600, "beam_mode": "IW", "scene_count": 37, "unique_footprints": 37, "first_start_time": "2025-01-08T08:25:27Z", "last_stop_time": "2026-03-28T08:25:44Z", "example_scene": "S1A_IW_SLC__1SDV_20250120T082526_20250120T082556_057525_0715BB_F3A7" }, "geometry": { "type": "Polygon", "coordinates": [ [ [ -40.057588920091092, -3.921089337558691 ], [ -40.057598, -3.921132 ], [ -40.057653149555392, -3.92111986484941 ], [ -40.05769, -3.921293 ], [ -40.057908367493305, -3.921244950990793 ], [ -40.057922, -3.921309 ], [ -40.057992339549784, -3.921293522111339 ], [ -40.058025, -3.921447 ], [ -40.058294700114679, -3.921387662276556 ], [ -40.058372, -3.921751 ], [ -40.05899935823556, -3.921613004723398 ], [ -40.05901, -3.921663 ], [ -40.059173983049611, -3.921626914144546 ], [ -40.059227, -3.921876 ], [ -40.059442459725211, -3.921828592105068 ], [ -40.392254, -5.471616 ], [ -40.392440913636143, -5.471574524491367 ], [ -40.392464, -5.471682 ], [ -40.392685452579862, -5.471632852118964 ], [ -40.392757, -5.471966 ], [ -40.392953942309219, -5.471922296472162 ], [ -40.392979, -5.472039 ], [ -40.393755277679944, -5.471866775973568 ], [ -40.393768, -5.471926 ], [ -40.394041858373981, -5.471865215794788 ], [ -40.691439741741483, -6.843332318864765 ], [ -40.691383, -6.843345 ], [ -40.691409694698393, -6.843466817804178 ], [ -40.691212, -6.843511 ], [ -40.716758627829108, -6.960091789249564 ], [ -40.719242, -6.971544 ], [ -40.71926695529686, -6.97153841922525 ], [ -41.047935, -8.471399 ], [ -41.048138618523282, -8.47135313243896 ], [ -41.048141, -8.471364 ], [ -41.048178243399107, -8.471355610390047 ], [ -41.048218, -8.471537 ], [ -41.04842770363026, -8.471489753126638 ], [ -41.048458, -8.471628 ], [ -41.048922687238381, -8.471523317133551 ], [ -41.048927, -8.471543 ], [ -41.049589913127164, -8.471393685106424 ], [ -41.049629, -8.471572 ], [ -41.050627858486109, -8.471346936658243 ], [ -41.050682, -8.471594 ], [ -41.05276828329108, -8.471124024649953 ], [ -41.356623564244451, -9.841828991524299 ], [ -41.356575, -9.84184 ], [ -41.360699472277844, -9.860215597701957 ], [ -41.385056, -9.970089 ], [ -41.385346198969565, -9.970023181278263 ], [ -41.692931111268976, -11.340394037683653 ], [ -41.692791, -11.340426 ], [ -41.692813374950894, -11.340524325202985 ], [ -41.6926, -11.340573 ], [ -41.719815281658271, -11.460170015395649 ], [ -41.721676, -11.46846 ], [ -41.721700464992146, -11.468454416161251 ], [ -42.075836, -13.024696 ], [ -42.076053287193986, -13.024646106597491 ], [ -42.076061, -13.02468 ], [ -42.076181655754269, -13.024652294781964 ], [ -42.076309, -13.025212 ], [ -42.077031500344582, -13.025046127068221 ], [ -42.422749, -14.521951 ], [ -42.423022202876297, -14.521887930285038 ], [ -42.423161, -14.522489 ], [ -42.424110686267781, -14.522269797701929 ], [ -42.424156, -14.522466 ], [ -42.424407047759182, -14.522408032605515 ], [ -42.593273, -15.245239 ], [ -42.593530732174116, -15.245179356315262 ], [ -42.593643, -15.24566 ], [ -42.594377792383156, -15.24548998353646 ], [ -42.594425, -15.245692 ], [ -42.596460876471966, -15.245220765802269 ], [ -42.596485, -15.245324 ], [ -42.596981074794598, -15.245209174030885 ], [ -42.597046, -15.245487 ], [ -42.625079357302575, -15.238997875776748 ], [ -42.84089031079111, -16.156239980255016 ], [ -42.837162, -16.157106 ], [ -43.226044, -17.780344 ], [ -43.228636633099015, -17.779738860029383 ], [ -43.593342, -19.274668 ], [ -43.59596047054233, -19.274054344881961 ], [ -43.596077, -19.274532 ], [ -43.596381744610454, -19.274460571736206 ], [ -43.596416, -19.274601 ], [ -43.596512256710511, -19.274578440751508 ], [ -43.596649, -19.275139 ], [ -43.596919875632949, -19.275075514556164 ], [ -43.968189, -20.767731 ], [ -43.969438488004826, -20.767437095608333 ], [ -44.348457, -22.260336 ], [ -44.351095212233481, -22.259713420922672 ], [ -44.351219, -22.260201 ], [ -44.351449507862007, -22.260146595024683 ], [ -44.351574, -22.260637 ], [ -44.35200421352085, -22.260535469759848 ], [ -44.352047, -22.260704 ], [ -44.352702064116322, -22.260549395890852 ], [ -44.352737, -22.260687 ], [ -44.352944908660163, -22.260637928270839 ], [ -44.352966, -22.260721 ], [ -46.761059, -21.692356 ], [ -46.76105689310203, -21.692348266544872 ], [ -46.761147, -21.692327 ], [ -46.761130197374875, -21.692265321940056 ], [ -46.764877, -21.691381 ], [ -46.764863541075172, -21.691331600671663 ], [ -46.765438, -21.691196 ], [ -46.765335330995697, -21.690819204887454 ], [ -46.765476, -21.690786 ], [ -46.32629, -20.079016 ], [ -46.326120851052679, -20.079055786350796 ], [ -45.931026, -18.592842 ], [ -45.929697628563325, -18.593153302506863 ], [ -45.543449, -17.105553 ], [ -45.542468486192611, -17.1057818360086 ], [ -45.196967422854812, -15.744867067945558 ], [ -45.19791, -15.744648 ], [ -45.197905111228962, -15.744628295977069 ], [ -45.198513, -15.744487 ], [ -45.198435008715443, -15.744172684800406 ], [ -45.198524, -15.744152 ], [ -44.742085, -13.904687 ], [ -44.74163247387115, -13.904791543964199 ], [ -44.741611, -13.904705 ], [ -44.737850826843363, -13.905573672117947 ], [ -44.737839, -13.905526 ], [ -44.737760904188875, -13.905544038935517 ], [ -44.737747, -13.905488 ], [ -44.737557284932144, -13.905531826497452 ], [ -44.737503, -13.905313 ], [ -44.737427512485489, -13.905330436550702 ], [ -44.737415, -13.90528 ], [ -44.736317971713007, -13.905533408580846 ], [ -44.736301, -13.905465 ], [ -44.722769631134412, -13.908590791042593 ], [ -44.722698, -13.908302 ], [ -44.707753816211607, -13.911753827244612 ], [ -44.695839, -13.863332 ], [ -44.695343968914216, -13.863446261706773 ], [ -44.333752, -12.372046 ], [ -44.33355755999272, -12.372090638204339 ], [ -43.985376844224909, -10.907790804288593 ], [ -43.627543682178562, -9.374836127057776 ], [ -43.274536, -7.836368 ], [ -43.274012816584587, -7.836485818496884 ], [ -43.273975, -7.836321 ], [ -43.273741320348982, -7.836373621397474 ], [ -43.273651, -7.83598 ], [ -43.272877321787988, -7.836154232655338 ], [ -43.272671, -7.835255 ], [ -43.272614460691244, -7.835267731431808 ], [ -43.272545, -7.834965 ], [ -43.272337502803815, -7.835011725459125 ], [ -43.272316, -7.834918 ], [ -43.272202952232334, -7.834943453356725 ], [ -43.27219, -7.834887 ], [ -43.27191218773558, -7.834949555960635 ], [ -43.271896, -7.834879 ], [ -43.271727921221157, -7.834916847500581 ], [ -42.953487209924724, -6.425203584670442 ], [ -42.60273, -4.847419 ], [ -42.602050108038505, -4.847569803450965 ], [ -42.262085, -3.295597 ], [ -42.261613509757716, -3.295700676355152 ], [ -42.2616, -3.295639 ], [ -42.261399215387996, -3.295683148638079 ], [ -41.90237, -1.632629 ], [ -41.900866606106185, -1.6329563236542 ], [ -41.900658, -1.63199 ], [ -41.900322244366386, -1.632063096103943 ], [ -41.900311, -1.632011 ], [ -39.674469, -2.116502 ], [ -39.674520343799422, -2.116743257154107 ], [ -39.673759, -2.116909 ], [ -39.673821457943028, -2.117202462344116 ], [ -39.673672, -2.117235 ], [ -39.841065274818149, -2.903741322220008 ], [ -40.057545, -3.921099 ], [ -40.057588920091092, -3.921089337558691 ] ] ] } },
{ "type": "Feature", "properties": { "orbit_key": "SENTINEL-1__Sentinel-1A__DESCENDING__PATH_155__FRAME_640__IW", "dataset": "SENTINEL-1", "platform": "Sentinel-1A", "processing_level": "SLC", "flight_direction": "DESCENDING", "path_number": 155, "frame_number": 640, "beam_mode": "IW", "scene_count": 1, "unique_footprints": 1, "first_start_time": "2025-09-12T08:20:25Z", "last_stop_time": "2025-09-12T08:20:52Z", "example_scene": "S1A_IW_SLC__1SDV_20250912T082025_20250912T082052_060952_0797BB_C9C6" }, "geometry": { "type": "Polygon", "coordinates": [ [ [ -40.578938, -15.45279 ], [ -40.737204839519379, -16.117402670920733 ], [ -40.736988, -16.117453 ], [ -40.797299297693428, -16.369758366377074 ], [ -41.098316, -17.633823 ], [ -41.102917994319661, -17.632750055978892 ], [ -41.208542, -18.072689 ], [ -41.209135348681073, -18.072550495739137 ], [ -41.209171, -18.072699 ], [ -41.209597225396074, -18.072599514375217 ], [ -41.209648, -18.072811 ], [ -41.2103014973735, -18.072658454351362 ], [ -41.210384, -18.073002 ], [ -41.211711763990316, -18.072692017323877 ], [ -41.211712, -18.072693 ], [ -41.211801612649644, -18.072672076322572 ], [ -41.591431, -19.624596 ], [ -41.591767654848198, -19.624517092276417 ], [ -41.591785, -19.624588 ], [ -41.592021043603197, -19.624532675435599 ], [ -41.592072, -19.624741 ], [ -41.592528602134628, -19.624633985310634 ], [ -41.592613, -19.624979 ], [ -41.593361145518195, -19.62480364247762 ], [ -41.593418, -19.625036 ], [ -41.593688722626098, -19.624972536408318 ], [ -41.593716, -19.625084 ], [ -43.978397, -19.065954 ], [ -43.978377933240935, -19.065880891499056 ], [ -43.979431, -19.065634 ], [ -43.862781615933315, -18.618327313109461 ], [ -43.863918, -18.618061 ], [ -43.863812853120798, -18.617654546991155 ], [ -43.863892, -18.617636 ], [ -43.863825249864853, -18.617377962733059 ], [ -43.864239, -18.617281 ], [ -43.389137, -16.7808 ], [ -43.388563403307536, -16.780933742514577 ], [ -43.388542, -16.780851 ], [ -43.388256918655024, -16.780917463527814 ], [ -43.388233, -16.780825 ], [ -43.387806907569178, -16.780924341640254 ], [ -42.929543, -14.960771 ], [ -42.928783064465982, -14.960947172565117 ], [ -42.92878, -14.960935 ], [ -42.927485414125307, -14.961235095742913 ], [ -42.791294, -14.415144 ], [ -42.791176845751821, -14.415171095543402 ], [ -42.791004, -14.414478 ], [ -42.789656146048017, -14.414789730969499 ], [ -42.789642, -14.414733 ], [ -42.788966272827722, -14.414889263817402 ], [ -42.78886, -14.414463 ], [ -42.778127607438094, -14.416944492922427 ], [ -42.534153, -13.424829 ], [ -40.233341, -13.955077 ], [ -40.466058887058303, -14.951530060184767 ], [ -40.465618, -14.951632 ], [ -40.465776458643603, -14.952303411676183 ], [ -40.465389, -14.952393 ], [ -40.548735858906433, -15.305536890713595 ], [ -40.582911341473789, -15.451869708607402 ], [ -40.578938, -15.45279 ] ] ] } },
{ "type": "Feature", "properties": { "orbit_key": "SENTINEL-1__Sentinel-1A__DESCENDING__PATH_112__FRAME_629__IW", "dataset": "SENTINEL-1", "platform": "Sentinel-1A", "processing_level": "SLC", "flight_direction": "DESCENDING", "path_number": 112, "frame_number": 629, "beam_mode": "IW", "scene_count": 16, "unique_footprints": 16, "first_start_time": "2025-01-12T09:33:41Z", "last_stop_time": "2025-08-16T09:34:03Z", "example_scene": "S1A_IW_SLC__1SDV_20250124T093340_20250124T093407_057584_071819_92C3" }, "geometry": { "type": "Polygon", "coordinates": [ [ [ -58.018150303694838, -10.83013434180198 ], [ -58.017708, -10.830235 ], [ -58.017739939598918, -10.830376153524659 ], [ -58.017288, -10.830479 ], [ -58.017288018240293, -10.830479080614618 ], [ -58.016827, -10.830584 ], [ -58.386528, -12.464414 ], [ -58.387662003218267, -12.464154228708539 ], [ -58.387764, -12.464605 ], [ -58.388441076863408, -12.464449903917778 ], [ -58.388454, -12.464507 ], [ -58.388631493823716, -12.46446633475119 ], [ -58.388645, -12.464526 ], [ -58.388835466151903, -12.464482355436907 ], [ -58.388863, -12.464604 ], [ -58.38921449526724, -12.464523461480795 ], [ -58.464672, -12.796921 ], [ -58.465325948894169, -12.796770963579588 ], [ -58.465328, -12.79678 ], [ -58.465483748108987, -12.796744267632365 ], [ -58.465488, -12.796763 ], [ -58.465513652199441, -12.796757115206374 ], [ -58.465542, -12.796882 ], [ -58.465799701716278, -12.796822879582027 ], [ -58.465839, -12.796996 ], [ -58.466095757996641, -12.796937099414496 ], [ -58.466103, -12.796969 ], [ -58.466108344590701, -12.79696777376031 ], [ -58.733418, -13.961659 ], [ -58.734536150739885, -13.96140143409524 ], [ -58.734615, -13.961745 ], [ -58.734654373345286, -13.961735930642051 ], [ -58.811214, -14.294099 ], [ -58.811829740334495, -14.293956961542813 ], [ -58.811859, -14.294084 ], [ -58.812010023143742, -14.294049163100176 ], [ -58.812042, -14.294188 ], [ -58.81208209995274, -14.294178750781686 ], [ -58.812084, -14.294187 ], [ -58.812349580518458, -14.294125740675215 ], [ -58.812363, -14.294184 ], [ -58.825056339130995, -14.291256298299949 ], [ -59.004597, -15.064461 ], [ -59.005015758137226, -15.064364141238338 ], [ -59.04377, -15.230951 ], [ -61.360992, -14.694636 ], [ -61.320478064544957, -14.529085587380845 ], [ -61.321583, -14.52883 ], [ -61.145379413057292, -13.807193780625214 ], [ -61.173103, -13.800794 ], [ -61.173044845132047, -13.80055366214696 ], [ -61.173195, -13.800519 ], [ -61.173188219404111, -13.800490977367149 ], [ -61.173565, -13.800404 ], [ -60.781788, -12.181301 ], [ -60.781626067131349, -12.18133815965289 ], [ -60.781559, -12.181061 ], [ -60.781431986865215, -12.181090147874746 ], [ -60.427341, -10.689551 ], [ -60.427160740959401, -10.689592118786246 ], [ -60.427094, -10.689311 ], [ -60.423065459659881, -10.690229993369508 ], [ -60.422928, -10.689651 ], [ -60.422780301919573, -10.689684692782023 ], [ -60.422745, -10.689536 ], [ -60.398700998561573, -10.695021049476884 ], [ -60.30769, -10.309667 ], [ -60.307650899133812, -10.309675900854067 ], [ -60.307594, -10.309435 ], [ -60.307250273424572, -10.309513250778428 ], [ -60.286354, -10.22092 ], [ -58.012371, -10.738352 ], [ -58.032396726996893, -10.826889967634004 ], [ -58.01815, -10.830133 ], [ -58.018150303694838, -10.83013434180198 ] ] ] } }
]
}
