{
"type": "FeatureCollection",
"name": "sentinel-1_unique_orbit_geometries_nov_2025_to_mar_2026",
"crs": { "type": "name", "properties": { "name": "urn:ogc:def:crs:OGC:1.3:CRS84" } },
"features": [
{ "type": "Feature", "properties": { "orbit_key": "SENTINEL-1__Sentinel-1A__DESCENDING__PATH_24__IW", "dataset": "SENTINEL-1", "platform": "Sentinel-1A", "processing_level": "SLC", "flight_direction": "DESCENDING", "path_number": 24, "frame_count": 13, "frame_numbers": "598,603,608,613,618,623,628,633,638,643,648,653,658", "beam_mode": "IW", "scene_count": 169, "unique_footprints": 169, "first_start_time": "2025-11-02T08:41:37Z", "last_stop_time": "2026-03-26T08:46:52Z", "example_scene": "S1A_IW_SLC__1SDV_20251126T084635_20251126T084659_062046_07C335_8407" }, "geometry": { "type": "Polygon", "coordinates": [ [ [ -50.474319, -20.314108 ], [ -50.112396107415513, -18.955393427997631 ], [ -49.734916034814148, -17.506278469533914 ], [ -49.735912, -17.506046 ], [ -49.735808397398436, -17.505639050662946 ], [ -49.73595, -17.505606 ], [ -49.73594487672645, -17.505585875360104 ], [ -49.736874, -17.505369 ], [ -49.318605280699821, -15.862484562574833 ], [ -48.939751, -14.341412 ], [ -48.939634128610543, -14.341439016971643 ], [ -48.939327, -14.340206 ], [ -48.939051180514667, -14.340269767108909 ], [ -48.93898, -14.339984 ], [ -48.938866590206992, -14.340010219981631 ], [ -48.93874, -14.339502 ], [ -48.937505211810475, -14.339787482705665 ], [ -48.574272, -12.851249 ], [ -48.574150590369953, -12.851276917764906 ], [ -48.573879, -12.850164 ], [ -48.573668810926009, -12.850212337201295 ], [ -48.573627, -12.850041 ], [ -48.573554056460559, -12.850057773943288 ], [ -48.573528, -12.849951 ], [ -48.573424861242941, -12.849974719349758 ], [ -48.57333, -12.849586 ], [ -48.573138180870338, -12.849630114332827 ], [ -48.573124, -12.849572 ], [ -48.572613169299011, -12.849689470350244 ], [ -48.24670141583178, -11.487828345694373 ], [ -48.247398, -11.487669 ], [ -47.883495326940789, -9.938731573505684 ], [ -47.522217, -8.373805 ], [ -47.522017153024564, -8.373850110272368 ], [ -47.521729, -8.372602 ], [ -47.521499510560638, -8.372653806543646 ], [ -47.521458, -8.372474 ], [ -47.520420151613635, -8.372708277280895 ], [ -47.520397, -8.372608 ], [ -47.519869858194987, -8.372727001343186 ], [ -47.197002546189161, -6.950279491663667 ], [ -47.19754, -6.950159 ], [ -46.834995, -5.327176 ], [ -46.834668865291114, -5.327248511885148 ], [ -46.834526, -5.326609 ], [ -46.83437638664153, -5.326642268056139 ], [ -46.834335, -5.326457 ], [ -46.834182530245769, -5.326490901130809 ], [ -46.834141, -5.326305 ], [ -46.834098775919706, -5.326314389189845 ], [ -46.505283, -3.832386 ], [ -46.505143318347443, -3.832416803289912 ], [ -46.180519, -2.336851 ], [ -46.180207104181711, -2.336919185140133 ], [ -46.179985, -2.335896 ], [ -46.179624075904663, -2.33597491178027 ], [ -46.1796, -2.335864 ], [ -46.179226764661138, -2.335945605665121 ], [ -45.858818, -0.840331 ], [ -45.858424304074312, -0.840416276993196 ], [ -45.858204, -0.839388 ], [ -45.85697019712552, -0.839655276790023 ], [ -45.856941, -0.839519 ], [ -43.613281, -1.325562 ], [ -43.95871, -2.95603 ], [ -43.958834948775404, -2.956002660518249 ], [ -43.959049, -2.957013 ], [ -43.959658101732217, -2.956879724467412 ], [ -43.959709, -2.95712 ], [ -43.959906210408022, -2.957076855830792 ], [ -43.959927, -2.957175 ], [ -43.961237845193352, -2.956888231332446 ], [ -44.281479, -4.456454 ], [ -44.281603743100177, -4.456426468182327 ], [ -44.281792, -4.457308 ], [ -44.282351672744092, -4.457184475384696 ], [ -44.60548, -5.956877 ], [ -44.605604060180035, -5.956849395316306 ], [ -44.605713, -5.957355 ], [ -44.606139702832735, -5.957260054213357 ], [ -44.606144, -5.95728 ], [ -44.606254260999961, -5.957255467277426 ], [ -44.606411, -5.957983 ], [ -44.607406757326309, -5.957761466865772 ], [ -44.905569260760089, -7.32801758033113 ], [ -44.905014, -7.328142 ], [ -44.905061011678761, -7.328355699504659 ], [ -44.904118, -7.328567 ], [ -45.275082, -9.01479 ], [ -45.275205732486967, -9.014762052263443 ], [ -45.275288, -9.015136 ], [ -45.275670727410173, -9.015049552223145 ], [ -45.27573, -9.015319 ], [ -45.275820237670864, -9.015298618925206 ], [ -45.275982, -9.016034 ], [ -45.279512426867221, -9.015236690615501 ], [ -45.584337985902337, -10.384189462714838 ], [ -45.584076, -10.384249 ], [ -45.605712297912859, -10.480180178753018 ], [ -45.613033, -10.513057 ], [ -45.613122727753954, -10.513036597747901 ], [ -45.922018560340931, -11.88262123978401 ], [ -45.920795, -11.882901 ], [ -45.920870326693162, -11.883230451265931 ], [ -45.92033, -11.883354 ], [ -45.920331344956402, -11.883359881780896 ], [ -45.920204, -11.883389 ], [ -46.292179, -13.510112 ], [ -46.292305670825144, -13.510082856908989 ], [ -46.292332, -13.510198 ], [ -46.292608179957988, -13.510134459354743 ], [ -46.292641, -13.510278 ], [ -46.292684546079215, -13.510267981932353 ], [ -46.292942, -13.511394 ], [ -46.295392420940189, -13.510830313845995 ], [ -46.642567, -15.006621 ], [ -46.642690749425796, -15.006592379409479 ], [ -46.642803, -15.007076 ], [ -46.643075863069299, -15.007012892457599 ], [ -46.643314, -15.008039 ], [ -46.646818275264501, -15.007228652463123 ], [ -46.969052573064928, -16.373487008423105 ], [ -46.969044, -16.373489 ], [ -46.969568287230921, -16.375673612373642 ], [ -46.999393, -16.502129 ], [ -46.99953031740047, -16.502097087957011 ], [ -46.999702, -16.502825 ], [ -46.9999766677048, -16.502761167964142 ], [ -47.000191, -16.50367 ], [ -47.000281231949884, -16.503649033300942 ], [ -47.340340137848017, -17.920614486161501 ], [ -47.336571, -17.921494 ], [ -47.336661207108499, -17.921863047239476 ], [ -47.3358, -17.922064 ], [ -47.70116369264619, -19.416766592332973 ], [ -47.700893, -19.41683 ], [ -47.700895837876061, -19.416841400895485 ], [ -47.700603, -19.41691 ], [ -47.733528718438201, -19.549171888551303 ], [ -47.734089, -19.551464 ], [ -47.734098755269329, -19.5514617139949 ], [ -48.06472, -20.87956 ], [ -48.064845870412675, -20.87953041202649 ], [ -48.065086, -20.880495 ], [ -48.06522054145919, -20.880463373598495 ], [ -48.065266, -20.880646 ], [ -50.473309, -20.314672 ], [ -50.473265348546661, -20.314508121342612 ], [ -50.473385, -20.31448 ], [ -50.47334678118483, -20.314336513135011 ], [ -50.474319, -20.314108 ] ] ] } },
{ "type": "Feature", "properties": { "orbit_key": "SENTINEL-1__Sentinel-1A__DESCENDING__PATH_39__IW", "dataset": "SENTINEL-1", "platform": "Sentinel-1A", "processing_level": "SLC", "flight_direction": "DESCENDING", "path_number": 39, "frame_count": 10, "frame_numbers": "601,606,611,616,621,626,631,636,641,646", "beam_mode": "IW", "scene_count": 120, "unique_footprints": 120, "first_start_time": "2025-11-03T09:22:59Z", "last_stop_time": "2026-03-27T09:27:09Z", "example_scene": "S1A_IW_SLC__1SDV_20251127T092643_20251127T092715_062061_07C3C4_D908" }, "geometry": { "type": "Polygon", "coordinates": [ [ [ -59.468739, -15.372024 ], [ -59.46863352869525, -15.371596869105421 ], [ -59.469517, -15.371392 ], [ -59.068279, -13.746599 ], [ -59.067785386776727, -13.746712849423009 ], [ -59.067638, -13.746116 ], [ -59.067626931838163, -13.746118552809543 ], [ -59.067509, -13.745641 ], [ -59.067300409459271, -13.745689113696891 ], [ -59.06723, -13.745404 ], [ -59.066550108713997, -13.745560827842333 ], [ -58.705967, -12.255807 ], [ -58.705471388274248, -12.255920688316374 ], [ -58.705326, -12.25532 ], [ -58.705299510253461, -12.255326076477907 ], [ -58.705246, -12.255105 ], [ -58.705033411432858, -12.255153769300488 ], [ -58.704964, -12.254867 ], [ -58.704586164461112, -12.254953679495202 ], [ -58.704586, -12.254953 ], [ -58.704210565172559, -12.255039123429624 ], [ -58.368518707390969, -10.84096848965782 ], [ -58.368591, -10.840952 ], [ -58.368553278227843, -10.840790138335496 ], [ -58.369492, -10.840576 ], [ -58.021589091490164, -9.347899811529478 ], [ -58.02195, -9.347818 ], [ -57.650311, -7.725806 ], [ -57.649837230605634, -7.725912601312443 ], [ -57.649498, -7.724432 ], [ -57.649148689621526, -7.724510596560604 ], [ -57.312611, -6.231707 ], [ -57.31212018176123, -6.231816627540614 ], [ -57.311813, -6.230454 ], [ -57.311726722979564, -6.230473270421545 ], [ -57.311657, -6.230164 ], [ -57.310685175284661, -6.230381078804922 ], [ -56.982980614495482, -4.754317950221731 ], [ -56.652004, -3.241838 ], [ -56.651716345583488, -3.241901214881962 ], [ -56.316372, -1.688134 ], [ -56.315909572323918, -1.688234687887139 ], [ -56.315639, -1.686981 ], [ -54.074539, -2.174947 ], [ -54.074555849854782, -2.175026195058766 ], [ -54.074047, -2.175137 ], [ -54.074122482085755, -2.175491741381179 ], [ -54.073933, -2.175533 ], [ -54.073966483543629, -2.175690378846279 ], [ -54.073013, -2.175898 ], [ -54.432152, -3.863758 ], [ -54.433088181678933, -3.863552101098932 ], [ -54.755161, -5.364164 ], [ -54.755528193349441, -5.364082566932012 ], [ -55.080544, -6.864201 ], [ -55.08141855081589, -6.864005529785661 ], [ -55.081444, -6.864123 ], [ -55.081691823002608, -6.864067610792816 ], [ -55.081779, -6.86447 ], [ -55.081857787781374, -6.864452390424427 ], [ -55.081924, -6.864758 ], [ -55.081956389554513, -6.864750760688874 ], [ -55.082008, -6.864989 ], [ -55.082784501982175, -6.864815470242728 ], [ -55.082787, -6.864827 ], [ -55.084001437198729, -6.864555577047073 ], [ -55.412125, -8.363291 ], [ -55.412970552605017, -8.363100622337654 ], [ -55.412998, -8.363226 ], [ -55.413262180895387, -8.36316652065547 ], [ -55.413296, -8.363321 ], [ -55.41338555353223, -8.363300837097775 ], [ -55.413506, -8.363851 ], [ -55.413515743024597, -8.363848806350983 ], [ -55.413597, -8.36422 ], [ -55.413685869169072, -8.364199993785395 ], [ -55.413692, -8.364228 ], [ -55.414413836458856, -8.36406550068029 ], [ -55.717622025540607, -9.733314439147664 ], [ -55.717571, -9.733326 ], [ -55.717617605153571, -9.733533879969679 ], [ -55.717339, -9.733597 ], [ -55.71736528345626, -9.733714247511703 ], [ -55.716541, -9.733901 ], [ -56.052469583519212, -11.232326422539089 ], [ -56.051125, -11.232633 ], [ -56.051171106016206, -11.232835880961643 ], [ -56.050789, -11.232923 ], [ -56.050813909009179, -11.233032619027112 ], [ -56.050014, -11.233215 ], [ -56.432957, -12.918321 ], [ -56.434009691478323, -12.918079398482147 ], [ -56.434078, -12.91838 ], [ -56.434092823171284, -12.918376597990362 ], [ -56.434334, -12.919438 ], [ -56.436624530369443, -12.918912378014772 ], [ -56.78175, -14.415408 ], [ -56.78279408970166, -14.415167072904929 ], [ -56.782997, -14.416047 ], [ -56.783093520908807, -14.416024730555138 ], [ -56.783154, -14.416287 ], [ -56.78528910087477, -14.41579438825385 ], [ -57.103923975864149, -15.776071763006106 ], [ -57.097706, -15.777513 ], [ -57.09772636950234, -15.777598385783321 ], [ -57.097275, -15.777703 ], [ -57.097356298505687, -15.778043807633852 ], [ -57.096622, -15.778214 ], [ -57.565037, -17.741652 ], [ -57.565969944130487, -17.74143450114369 ], [ -57.566216, -17.742466 ], [ -57.566313174801223, -17.742443348513898 ], [ -57.566315, -17.742451 ], [ -59.925091, -17.192621 ], [ -59.925014722384994, -17.192319234923396 ], [ -59.925938, -17.192104 ], [ -59.465996702296977, -15.372659856717211 ], [ -59.468739, -15.372024 ] ] ] } },
{ "type": "Feature", "properties": { "orbit_key": "SENTINEL-1__Sentinel-1A__DESCENDING__PATH_53__IW", "dataset": "SENTINEL-1", "platform": "Sentinel-1A", "processing_level": "SLC", "flight_direction": "DESCENDING", "path_number": 53, "frame_count": 11, "frame_numbers": "600,606,611,616,621,626,631,636,641,670,675", "beam_mode": "IW", "scene_count": 143, "unique_footprints": 143, "first_start_time": "2025-11-04T08:25:22Z", "last_stop_time": "2026-03-28T08:31:57Z", "example_scene": "S1A_IW_SLC__1SDV_20251128T083136_20251128T083204_062075_07C458_71D0" }, "geometry": { "type": "MultiPolygon", "coordinates": [ [ [ [ -47.922249, -25.814186 ], [ -47.921996517900695, -25.813325049196923 ], [ -47.922043, -25.813314 ], [ -47.473510887946901, -24.28390282484084 ], [ -47.479252, -24.282541 ], [ -47.479169206706565, -24.282250149204817 ], [ -47.480072, -24.282036 ], [ -47.479862059787386, -24.281298493149503 ], [ -47.479881, -24.281294 ], [ -47.08169022670058, -22.882545720073804 ], [ -46.973213, -22.501472 ], [ -46.973207838892272, -22.501473220347506 ], [ -46.973068, -22.500982 ], [ -46.973032081679918, -22.500990493690942 ], [ -46.972977, -22.500797 ], [ -46.972446819941965, -22.500922368581083 ], [ -46.972332, -22.500519 ], [ -44.595524, -23.062532 ], [ -44.595540024653211, -23.062592731141297 ], [ -44.595264, -23.062658 ], [ -44.595307978503087, -23.062824672711447 ], [ -44.595222, -23.062845 ], [ -44.595223087521489, -23.062849121858523 ], [ -44.594788, -23.062952 ], [ -45.031697791238493, -24.718816839197636 ], [ -45.019478, -24.721714 ], [ -45.019527103127203, -24.721895456365765 ], [ -45.019238, -24.721964 ], [ -45.01924994004127, -24.722008123142267 ], [ -45.018719, -24.722134 ], [ -45.471573, -26.395618 ], [ -45.471861291316763, -26.395549476152446 ], [ -45.471882, -26.395626 ], [ -45.472094833447855, -26.39557541183779 ], [ -45.472187, -26.395916 ], [ -45.472294596346622, -26.395890425816141 ], [ -45.472321, -26.395988 ], [ -45.473268683174247, -26.395762767890261 ], [ -45.4734, -26.396248 ], [ -47.922249, -25.814186 ] ] ], [ [ [ -44.694111, -13.862668 ], [ -44.694001586607165, -13.862693251189459 ], [ -44.693863, -13.86213 ], [ -44.693838024733182, -13.862135764303199 ], [ -44.693703, -13.861587 ], [ -44.69335671600443, -13.861666925080803 ], [ -44.332214, -12.371989 ], [ -44.332107488313696, -12.372013449091064 ], [ -44.331791, -12.370708 ], [ -44.331761809707473, -12.370714700784603 ], [ -44.331718, -12.370534 ], [ -44.33165773957176, -12.370547833600755 ], [ -43.98386306280014, -10.907742586772507 ], [ -43.626226397365961, -9.375510804831615 ], [ -43.273071, -7.836293 ], [ -43.272917111154705, -7.836327650587758 ], [ -43.272671, -7.835255 ], [ -43.272614460691244, -7.835267731431808 ], [ -43.272545, -7.834965 ], [ -43.272337502803815, -7.835011725459125 ], [ -43.272316, -7.834918 ], [ -43.272202952232334, -7.834943453356725 ], [ -43.27219, -7.834887 ], [ -43.27191218773558, -7.834949555960635 ], [ -43.271896, -7.834879 ], [ -43.270353644523247, -7.83522630321224 ], [ -42.952256975123817, -6.426058144667808 ], [ -42.601486, -4.848078 ], [ -42.601308937320916, -4.84811726830108 ], [ -42.601013, -4.846786 ], [ -42.600942701127657, -4.84680159145684 ], [ -42.600903, -4.846623 ], [ -42.600771917398262, -4.84665207349369 ], [ -42.600723, -4.846432 ], [ -42.600555494812575, -4.846469146713655 ], [ -42.600491, -4.846179 ], [ -42.60036620052027, -4.846206678288727 ], [ -42.260895, -3.296377 ], [ -42.260704174301189, -3.296418955366463 ], [ -42.260357, -3.294834 ], [ -42.260188671402361, -3.294871011079675 ], [ -42.260128, -3.294594 ], [ -42.259972104730302, -3.294628273627735 ], [ -42.259937, -3.294468 ], [ -42.259783635823034, -3.294501719942767 ], [ -41.90131, -1.633904 ], [ -41.901081906041632, -1.633953655056327 ], [ -41.900658, -1.63199 ], [ -41.900322244366386, -1.632063096103944 ], [ -41.900311, -1.632011 ], [ -39.674469, -2.116502 ], [ -39.674520343799422, -2.116743257154107 ], [ -39.673759, -2.116909 ], [ -40.057579, -3.92031 ], [ -40.057639438024644, -3.920296701572184 ], [ -40.057724, -3.920694 ], [ -40.058118693919738, -3.920607154538365 ], [ -40.058247, -3.92121 ], [ -40.059047743668536, -3.921033812428957 ], [ -40.059227, -3.921876 ], [ -40.059636314705891, -3.921785937931313 ], [ -40.392437, -5.471195 ], [ -40.392893381010161, -5.471093715276429 ], [ -40.392948, -5.471348 ], [ -40.393261869939614, -5.471278344330759 ], [ -40.393288, -5.4714 ], [ -40.393788119667903, -5.471289021285614 ], [ -40.393917, -5.471889 ], [ -40.394305489992853, -5.471802783716114 ], [ -40.691658524741541, -6.842780555483512 ], [ -40.691406, -6.842837 ], [ -40.716803004544374, -6.958711852170883 ], [ -40.71944, -6.97087 ], [ -40.71946648241623, -6.970864076820922 ], [ -41.048145, -8.470473 ], [ -41.048247876174813, -8.470449822387092 ], [ -41.048306, -8.470715 ], [ -41.048664450014385, -8.470634243166968 ], [ -41.048717, -8.470874 ], [ -41.048999611115995, -8.470810330046541 ], [ -41.04911, -8.471314 ], [ -41.049678449965143, -8.471185945012872 ], [ -41.049728, -8.471412 ], [ -41.053079189023762, -8.470657000603119 ], [ -41.356892083607185, -9.840899645423553 ], [ -41.356842, -9.840911 ], [ -41.361093257673886, -9.859847583339089 ], [ -41.38533, -9.969159 ], [ -41.38544800884759, -9.969132231007009 ], [ -41.385479, -9.969272 ], [ -41.385650285929351, -9.969233145869481 ], [ -41.693260832241329, -11.339437728385713 ], [ -41.692909, -11.339518 ], [ -41.720042917300013, -11.458734469400351 ], [ -41.721989, -11.467403 ], [ -41.722014564741492, -11.467397164295329 ], [ -42.076218, -13.023637 ], [ -42.076369298536605, -13.023602253687569 ], [ -42.076542, -13.024361 ], [ -42.07706050413455, -13.024241924082739 ], [ -42.077076, -13.02431 ], [ -42.077123038334229, -13.024299197200824 ], [ -42.077255, -13.024879 ], [ -42.077623424272922, -13.024794399018797 ], [ -42.423164, -14.520638 ], [ -42.423309904261195, -14.520604312510731 ], [ -42.423542, -14.521609 ], [ -42.423854941366592, -14.521536746180363 ], [ -42.423855, -14.521537 ], [ -42.424070913356843, -14.521487149193312 ], [ -42.424194, -14.52202 ], [ -42.424958520536805, -14.521843500300061 ], [ -42.593624, -15.243685 ], [ -42.593808067720374, -15.243642397136471 ], [ -42.594101, -15.244896 ], [ -42.59440586862442, -15.24482543776595 ], [ -42.594406, -15.244826 ], [ -42.594635496916702, -15.24477288327623 ], [ -42.594761, -15.24531 ], [ -44.902092, -14.711329 ], [ -44.901992827587506, -14.710925898084467 ], [ -44.902122, -14.710896 ], [ -44.902080444432784, -14.710727107418695 ], [ -44.902729, -14.710577 ], [ -44.694111, -13.862668 ] ] ] ] } },
{ "type": "Feature", "properties": { "orbit_key": "SENTINEL-1__Sentinel-1A__DESCENDING__PATH_68__IW", "dataset": "SENTINEL-1", "platform": "Sentinel-1A", "processing_level": "SLC", "flight_direction": "DESCENDING", "path_number": 68, "frame_count": 11, "frame_numbers": "600,605,610,615,620,625,630,635,640,645,650", "beam_mode": "IW", "scene_count": 69, "unique_footprints": 69, "first_start_time": "2025-11-05T09:06:29Z", "last_stop_time": "2026-03-29T09:07:50Z", "example_scene": "S1A_IW_SLC__1SDV_20251129T091038_20251129T091059_062090_07C4F3_B5FC" }, "geometry": { "type": "Polygon", "coordinates": [ [ [ -55.659100904328739, -16.574164582543688 ], [ -55.318430547187468, -15.2204822642152 ], [ -55.318958, -15.22036 ], [ -55.318680732488588, -15.21923503652912 ], [ -55.318806, -15.219206 ], [ -54.918442, -13.594688 ], [ -54.917818899440029, -13.594831649423305 ], [ -54.555906426664357, -12.096254254880893 ], [ -54.222375590565903, -10.688304701264045 ], [ -54.222462, -10.688285 ], [ -53.845169, -9.066764 ], [ -53.844047255966984, -9.067017986204684 ], [ -53.502346, -7.573228 ], [ -53.501949224980464, -7.573317218074611 ], [ -53.175994225974655, -6.125223228842711 ], [ -52.834343, -4.584129 ], [ -52.83421388848663, -4.584157590728827 ], [ -52.494877, -3.030973 ], [ -52.493962298225398, -3.031173786604613 ], [ -52.171616, -1.535338 ], [ -49.928738, -2.023276 ], [ -49.928835793775114, -2.02373604542347 ], [ -49.928574, -2.023793 ], [ -49.928645287616263, -2.02412834993944 ], [ -49.928509, -2.024158 ], [ -50.274841, -3.653256 ], [ -50.274895201153882, -3.653244093261356 ], [ -50.275024, -3.65385 ], [ -50.276158814634996, -3.653600732855697 ], [ -50.276367, -3.65458 ], [ -50.277205748577494, -3.65439575805877 ], [ -50.611134, -5.211736 ], [ -50.611156898582465, -5.211730925662367 ], [ -50.611313, -5.212459 ], [ -50.611940359387503, -5.212319993651906 ], [ -50.849786360129158, -6.311055488299492 ], [ -50.908653353876311, -6.583019546462011 ], [ -50.908611, -6.583029 ], [ -50.90882415668765, -6.584003600325781 ], [ -50.908791, -6.584011 ], [ -50.919075709847768, -6.631170573806565 ], [ -50.936672, -6.712465 ], [ -50.936798496273568, -6.712436751158886 ], [ -51.094913, -7.437456 ], [ -51.095208397020194, -7.43738979412801 ], [ -51.095261, -7.437631 ], [ -51.095510401292088, -7.437575105957412 ], [ -51.264866, -8.211907 ], [ -51.266104428295428, -8.211628356298037 ], [ -51.597805, -9.711246 ], [ -51.600362500055986, -9.710666602807567 ], [ -51.907151775485552, -11.080692480401858 ], [ -51.906364, -11.080872 ], [ -51.906409947545413, -11.081074505256272 ], [ -51.906399, -11.081077 ], [ -52.063073420940711, -11.771539611603018 ], [ -52.24635444127469, -12.579316602969282 ], [ -52.246296, -12.57933 ], [ -52.250546604280338, -12.597792781320145 ], [ -52.275578, -12.708114 ], [ -52.275592844981027, -12.708110595291398 ], [ -52.275639, -12.708314 ], [ -52.275973739388064, -12.708237227363671 ], [ -52.634064, -14.263626 ], [ -52.634105991955074, -14.263616314693683 ], [ -52.634239, -14.264194 ], [ -52.636080779331635, -14.263769200514542 ], [ -52.954410824468198, -15.624938913230967 ], [ -52.952602, -15.625358 ], [ -52.952646354764461, -15.625544578851953 ], [ -52.952446, -15.625591 ], [ -53.340137, -17.256374 ], [ -53.340219154523872, -17.256354870655088 ], [ -53.340446, -17.257309 ], [ -53.342655401194094, -17.256794551048998 ], [ -53.623272, -18.418894 ], [ -53.623379617039099, -18.418868859875008 ], [ -53.623611, -18.419827 ], [ -55.991562, -17.866653 ], [ -55.991305305267282, -17.865652784935641 ], [ -55.99139, -17.865633 ], [ -55.659924, -16.573973 ], [ -55.659100904328739, -16.574164582543688 ] ] ] } },
{ "type": "Feature", "properties": { "orbit_key": "SENTINEL-1__Sentinel-1A__DESCENDING__PATH_97__IW", "dataset": "SENTINEL-1", "platform": "Sentinel-1A", "processing_level": "SLC", "flight_direction": "DESCENDING", "path_number": 97, "frame_count": 14, "frame_numbers": "596,601,606,611,616,621,626,631,636,641,646,651,656,675", "beam_mode": "IW", "scene_count": 157, "unique_footprints": 157, "first_start_time": "2025-11-07T08:49:42Z", "last_stop_time": "2026-03-31T08:54:58Z", "example_scene": "S1A_IW_SLC__1SDV_20251119T085616_20251119T085651_061944_07BF36_C672" }, "geometry": { "type": "MultiPolygon", "coordinates": [ [ [ [ -53.574631, -24.012743 ], [ -51.176548, -24.581367 ], [ -51.751328, -26.700583 ], [ -54.193649, -26.119585 ], [ -53.574631, -24.012743 ] ] ], [ [ [ -52.058222129232995, -18.541709354683974 ], [ -52.058903, -18.54155 ], [ -51.63937, -16.919605 ], [ -51.638791362442838, -16.919739832753997 ], [ -51.249199, -15.37903 ], [ -51.248619043248603, -15.379164510844358 ], [ -50.879868, -13.889016 ], [ -50.879617230980472, -13.88907387415439 ], [ -50.518009, -12.398059 ], [ -50.517299443607953, -12.398221876336709 ], [ -50.172595306255943, -10.949431244663771 ], [ -49.820568157506806, -9.442736866784649 ], [ -49.490324287047073, -8.004692204626631 ], [ -49.127486416726242, -6.398257920890953 ], [ -48.788536, -4.873837 ], [ -48.788528711686766, -4.873838616523503 ], [ -48.460831, -3.378473 ], [ -48.460210628809172, -3.378609454810058 ], [ -48.13678, -1.88239 ], [ -48.136616017400996, -1.882425750956274 ], [ -47.817322, -0.38628 ], [ -47.816392674858868, -0.386480716071713 ], [ -47.816311, -0.386098 ], [ -45.576378, -0.869858 ], [ -45.576484584683065, -0.870362279004145 ], [ -45.575722, -0.870527 ], [ -45.575735367330608, -0.870590239184885 ], [ -45.57563, -0.870613 ], [ -45.575639687945866, -0.870658830286299 ], [ -45.5755, -0.870689 ], [ -45.575588649044185, -0.871108445083696 ], [ -45.575512, -0.871125 ], [ -45.919994, -2.500931 ], [ -45.920409822718234, -2.500840272076173 ], [ -45.920429, -2.500931 ], [ -45.920589856601559, -2.500895903274637 ], [ -46.24025, -4.001692 ], [ -46.241765369704083, -4.001358437953161 ], [ -46.56414, -5.50192 ], [ -46.56457545094198, -5.501823351191378 ], [ -46.564651, -5.502175 ], [ -46.564692120236636, -5.502165873426838 ], [ -46.717300789519733, -6.20576866580822 ], [ -46.889874, -7.001482 ], [ -46.889887230002856, -7.001479040726889 ], [ -46.889946, -7.00175 ], [ -46.890255084045293, -7.001680863399065 ], [ -47.203466350097408, -8.430482657223926 ], [ -47.203194, -8.430544 ], [ -47.227772081490393, -8.541360126774286 ], [ -47.231701, -8.559283 ], [ -47.231741055928062, -8.559273972569207 ], [ -47.231827, -8.559666 ], [ -47.231831923538671, -8.559664890361361 ], [ -47.564266, -10.058523 ], [ -47.56432882100161, -10.058508746141177 ], [ -47.564442, -10.059019 ], [ -47.564768436825652, -10.058944931576725 ], [ -47.872324876099569, -11.42842058468687 ], [ -47.872288, -11.428429 ], [ -47.875181824384363, -11.441141895700408 ], [ -47.901203, -11.557008 ], [ -47.90128546936613, -11.556989170346815 ], [ -47.901455, -11.557744 ], [ -47.901710567945855, -11.557685647208745 ], [ -48.242546, -13.055014 ], [ -48.242655544531203, -13.054988843183136 ], [ -48.242855, -13.055865 ], [ -48.243122833771785, -13.055803491335636 ], [ -48.243153, -13.055936 ], [ -48.243375551146421, -13.055884890807523 ], [ -48.243519, -13.056515 ], [ -48.244855037527358, -13.056208176976352 ], [ -48.590332, -14.551977 ], [ -48.590484767836635, -14.551941728546311 ], [ -48.590744, -14.553064 ], [ -48.591027088462241, -14.552998638836952 ], [ -48.591087, -14.553258 ], [ -48.591320007109573, -14.553204202066985 ], [ -48.591438, -14.553715 ], [ -48.592051935008378, -14.55357325219962 ], [ -48.942764, -16.048468 ], [ -48.942927114557968, -16.048430154559881 ], [ -48.943161, -16.049427 ], [ -48.943451790692272, -16.049359530500876 ], [ -48.943542, -16.049744 ], [ -48.943769417916215, -16.049691234543637 ], [ -48.94392, -16.050333 ], [ -48.944992952780524, -16.050084054165168 ], [ -49.315437, -17.602364 ], [ -49.315620241070739, -17.602321287033771 ], [ -49.315887, -17.603439 ], [ -49.316192734267069, -17.603367733176967 ], [ -49.316315, -17.60388 ], [ -49.316537514088736, -17.603828131877489 ], [ -49.316574, -17.603981 ], [ -49.317821807550786, -17.603690137642754 ], [ -49.648020529933333, -18.962365860358034 ], [ -49.646648, -18.962687 ], [ -49.646649841780508, -18.962694443319702 ], [ -49.645908, -18.962868 ], [ -50.007793, -20.425577 ], [ -50.008020517850326, -20.425523580811522 ], [ -50.008297, -20.426641 ], [ -50.008615260166515, -20.42656627460342 ], [ -50.008682, -20.426836 ], [ -50.008903900358668, -20.426783899249305 ], [ -50.008945, -20.42695 ], [ -52.406345, -19.864058 ], [ -52.40633971138174, -19.864037998829374 ], [ -52.407051, -19.863871 ], [ -52.40691040400128, -19.863339251646586 ], [ -52.407627, -19.863171 ], [ -52.058222129232995, -18.541709354683974 ] ] ] ] } },
{ "type": "Feature", "properties": { "orbit_key": "SENTINEL-1__Sentinel-1A__DESCENDING__PATH_112__IW", "dataset": "SENTINEL-1", "platform": "Sentinel-1A", "processing_level": "SLC", "flight_direction": "DESCENDING", "path_number": 112, "frame_count": 10, "frame_numbers": "600,605,610,615,620,625,630,635,640,645", "beam_mode": "IW", "scene_count": 110, "unique_footprints": 110, "first_start_time": "2025-11-08T09:31:10Z", "last_stop_time": "2026-03-20T09:35:09Z", "example_scene": "S1A_IW_SLC__1SDV_20251120T093455_20251120T093517_061959_07BFCD_BDAF" }, "geometry": { "type": "Polygon", "coordinates": [ [ [ -61.784554, -16.408865 ], [ -61.78450437264231, -16.408667373094946 ], [ -61.784966, -16.40856 ], [ -61.494146415051397, -15.250451109244104 ], [ -61.494423, -15.250387 ], [ -61.494404303037498, -15.250311156796394 ], [ -61.494858, -15.250206 ], [ -61.494777157263506, -15.249878047603612 ], [ -61.495239, -15.249771 ], [ -61.118321920126583, -13.720749159506449 ], [ -60.734856, -12.133809 ], [ -60.734365443806944, -12.133921474278722 ], [ -60.368401, -10.589919 ], [ -60.367720101046174, -10.590074159599082 ], [ -60.020229, -9.096884 ], [ -60.019860472560353, -9.09696744083276 ], [ -59.697713744220422, -7.688899492532581 ], [ -59.342056, -6.109108 ], [ -59.341668064194316, -6.109194590222464 ], [ -59.010254, -4.614491 ], [ -59.009980554111301, -4.614551554957411 ], [ -58.69785072923213, -3.186473322060541 ], [ -58.348366, -1.56533 ], [ -58.347136792909538, -1.56559743413929 ], [ -58.34708, -1.565334 ], [ -58.346812488829919, -1.565392202179679 ], [ -58.346798, -1.565325 ], [ -56.106041, -2.052891 ], [ -56.106063954295834, -2.052998953088484 ], [ -56.105595, -2.053101 ], [ -56.105748592884908, -2.053823308961965 ], [ -56.105534, -2.05387 ], [ -56.437031707745483, -3.612985052177185 ], [ -56.436909, -3.613012 ], [ -56.451944531113966, -3.683123719326318 ], [ -56.464386, -3.741639 ], [ -56.464488369187599, -3.741616502030677 ], [ -56.786304, -5.242265 ], [ -56.786891920250561, -5.242134706447571 ], [ -56.786999, -5.242634 ], [ -56.787350241269223, -5.242556159728715 ], [ -57.11203, -6.742462 ], [ -57.112632472054145, -6.742327429262587 ], [ -57.112743, -6.742838 ], [ -57.113327069163603, -6.742707541600239 ], [ -57.413096632763427, -8.113298609130881 ], [ -57.413086, -8.113301 ], [ -57.413101120041226, -8.113369357789702 ], [ -57.412827, -8.113431 ], [ -57.439465988184878, -8.233863227376876 ], [ -57.441257, -8.242052 ], [ -57.441276339925771, -8.24204764830829 ], [ -57.77293, -9.741421 ], [ -57.773565365728366, -9.741277054491563 ], [ -57.773739, -9.742062 ], [ -57.774330383994403, -9.741928020018348 ], [ -58.109867, -11.240349 ], [ -58.110517750740421, -11.240200627035412 ], [ -58.110641, -11.240751 ], [ -58.111831132720233, -11.240479649550256 ], [ -58.465076, -12.796707 ], [ -58.465738878115722, -12.796554933856294 ], [ -58.465839, -12.796996 ], [ -58.466761139672556, -12.796784460077813 ], [ -58.780445229480449, -14.158695667550548 ], [ -58.779984, -14.158802 ], [ -59.129945467266502, -15.655022189094034 ], [ -59.128155, -15.655437 ], [ -59.128170784021144, -15.655503510475807 ], [ -59.12775, -15.655601 ], [ -59.127856451825501, -15.656049590029571 ], [ -59.127777, -15.656068 ], [ -59.127810989059341, -15.656211209745157 ], [ -59.127281, -15.656334 ], [ -59.435486, -16.955069 ], [ -59.435733870346432, -16.955011343593831 ], [ -59.435814, -16.955349 ], [ -59.436266933185848, -16.955243650453465 ], [ -59.436272, -16.955265 ], [ -59.436756253719921, -16.955152359731795 ], [ -59.436764, -16.955185 ], [ -61.784164, -16.409174 ], [ -61.784112206233019, -16.408967756851069 ], [ -61.784554, -16.408865 ] ] ] } },
{ "type": "Feature", "properties": { "orbit_key": "SENTINEL-1__Sentinel-1A__DESCENDING__PATH_126__IW", "dataset": "SENTINEL-1", "platform": "Sentinel-1A", "processing_level": "SLC", "flight_direction": "DESCENDING", "path_number": 126, "frame_count": 13, "frame_numbers": "599,604,610,614,619,624,629,635,639,661,666,671,676", "beam_mode": "IW", "scene_count": 130, "unique_footprints": 130, "first_start_time": "2025-11-09T08:33:28Z", "last_stop_time": "2026-03-21T08:40:16Z", "example_scene": "S1A_IW_SLC__1SDV_20251121T083955_20251121T084024_061973_07C062_C922" }, "geometry": { "type": "MultiPolygon", "coordinates": [ [ [ [ -50.078205, -26.136898 ], [ -49.607660762177915, -24.541473522276267 ], [ -49.61235, -24.540361 ], [ -49.612215629181456, -24.539891950553024 ], [ -49.612873, -24.539736 ], [ -49.152168, -22.931421 ], [ -49.151855843892271, -22.931494848184713 ], [ -49.151527, -22.930347 ], [ -49.151340524391117, -22.930391122919616 ], [ -48.750572433553934, -21.492350253325334 ], [ -48.275787, -19.741205 ], [ -48.275366254539442, -19.741303863011087 ], [ -48.275055, -19.740156 ], [ -48.274363879993182, -19.740318420821374 ], [ -48.274277, -19.739998 ], [ -45.928867, -20.291159 ], [ -45.929012347093142, -20.291733273343272 ], [ -45.929005, -20.291735 ], [ -45.929125870167312, -20.292212530795119 ], [ -45.928677, -20.292318 ], [ -46.34823944838444, -21.95014724654478 ], [ -46.347931, -21.95022 ], [ -46.348138363055675, -21.951020588978363 ], [ -46.347649, -21.951136 ], [ -46.781662, -23.626877 ], [ -46.782128179920811, -23.626766694474693 ], [ -46.782207, -23.627071 ], [ -46.782422401816227, -23.627020026819231 ], [ -46.78249, -23.627281 ], [ -46.782820512224866, -23.627202788198495 ], [ -46.782833, -23.627251 ], [ -46.783885808432998, -23.6270018668279 ], [ -47.144965795094926, -24.98888472881621 ], [ -47.134777, -24.991301 ], [ -47.134972726960129, -24.992021073088953 ], [ -47.134914, -24.992035 ], [ -47.134934106762891, -24.992108970978805 ], [ -47.134449, -24.992224 ], [ -47.60519, -26.724167 ], [ -47.605952056697795, -26.723985837954956 ], [ -47.60601, -26.724199 ], [ -47.606327986795662, -26.724123398829615 ], [ -47.606373, -26.724289 ], [ -47.606374459268153, -26.724288653075899 ], [ -47.606377, -26.724298 ], [ -47.606828644253831, -26.724190622356424 ], [ -47.606888, -26.724409 ], [ -50.078205, -26.136898 ] ] ], [ [ [ -46.310963, -12.046728 ], [ -46.310959555554156, -12.046713430708138 ], [ -46.311703, -12.046543 ], [ -45.915047, -10.368708 ], [ -45.914305152998359, -10.368876925067401 ], [ -45.914112, -10.36806 ], [ -45.913869510409263, -10.368115226907916 ], [ -45.91386, -10.368075 ], [ -45.913482924093465, -10.368160871736757 ], [ -45.913456, -10.368047 ], [ -45.912282852232885, -10.368314184363788 ], [ -45.565945, -8.87638 ], [ -45.565722148748833, -8.876430414503623 ], [ -45.224792, -7.382782 ], [ -45.223957378792953, -7.382969499955257 ], [ -45.223713, -7.381899 ], [ -45.222867942630508, -7.382088877876234 ], [ -44.887386, -5.888612 ], [ -44.887129990005022, -5.888669084014553 ], [ -44.556385, -4.393895 ], [ -44.555810607360392, -4.394022058451784 ], [ -44.217281, -2.841751 ], [ -44.216768835263977, -2.841863297816275 ], [ -43.8592, -1.178709 ], [ -43.858368265816367, -1.178889538277081 ], [ -43.85828, -1.178479 ], [ -43.858026821694622, -1.178533956785821 ], [ -43.8578, -1.177479 ], [ -41.632763, -1.660478 ], [ -41.632854361854335, -1.660908303369821 ], [ -41.632736, -1.660934 ], [ -41.632783433602981, -1.66115739359744 ], [ -41.632145, -1.661296 ], [ -42.015091, -3.464808 ], [ -42.015162362495126, -3.464792337827402 ], [ -42.015247, -3.465191 ], [ -42.015390839972298, -3.465159437443585 ], [ -42.015564, -3.465975 ], [ -42.016716867872013, -3.465721995871915 ], [ -42.34869, -5.015377 ], [ -42.348712584710057, -5.015371999755982 ], [ -42.348743, -5.015514 ], [ -42.348911480894039, -5.015476706321851 ], [ -42.349033, -5.016044 ], [ -42.349140147386365, -5.016020279556661 ], [ -42.34919, -5.016253 ], [ -42.350360329967529, -5.01599391788794 ], [ -42.514297062617025, -5.774076423452415 ], [ -42.674633, -6.515613 ], [ -42.674823557725311, -6.51557048349471 ], [ -42.674892, -6.515887 ], [ -42.674931344269766, -6.515878220558114 ], [ -42.674938, -6.515909 ], [ -42.675014511778052, -6.515891926694344 ], [ -42.675114, -6.516352 ], [ -42.675743063567751, -6.516211632066624 ], [ -43.003254, -8.015535 ], [ -43.003468533343643, -8.015486777473821 ], [ -43.003483, -8.015553 ], [ -43.00360153924909, -8.015526351599556 ], [ -43.003738, -8.016151 ], [ -43.006879884452083, -8.015444704652616 ], [ -43.338009, -9.51441 ], [ -43.33837346345036, -9.514327504230298 ], [ -43.338528, -9.515027 ], [ -43.339121827540467, -9.514892575360401 ], [ -43.674149, -11.013187 ], [ -43.674548190509121, -11.013096059683889 ], [ -43.674679, -11.013681 ], [ -43.679350524440757, -11.01261667088505 ], [ -44.002741472001127, -12.439436308874523 ], [ -44.000465, -12.439958 ], [ -44.000692006522279, -12.440945090920629 ], [ -44.000496, -12.44099 ], [ -44.374367, -14.066916 ], [ -44.374673384609416, -14.066845380554067 ], [ -44.374714, -14.067022 ], [ -44.374879023654252, -14.066983958685814 ], [ -44.374977, -14.06741 ], [ -44.375044022360079, -14.067394550339369 ], [ -44.543167, -14.790409 ], [ -44.543489419785296, -14.790334498848852 ], [ -44.54353, -14.790509 ], [ -44.543693737251992, -14.790471160918635 ], [ -44.543823, -14.791027 ], [ -44.544200614043355, -14.790939736920501 ], [ -44.544243, -14.791122 ], [ -46.845909, -14.259233 ], [ -46.845819428607264, -14.258866691357094 ], [ -46.846649, -14.258675 ], [ -46.643026101658052, -13.425885498675138 ], [ -46.310698450858595, -12.046788648210855 ], [ -46.310963, -12.046728 ] ] ] ] } },
{ "type": "Feature", "properties": { "orbit_key": "SENTINEL-1__Sentinel-1A__DESCENDING__PATH_141__IW", "dataset": "SENTINEL-1", "platform": "Sentinel-1A", "processing_level": "SLC", "flight_direction": "DESCENDING", "path_number": 141, "frame_count": 13, "frame_numbers": "597,602,607,612,617,622,627,632,637,642,647,652,657", "beam_mode": "IW", "scene_count": 156, "unique_footprints": 156, "first_start_time": "2025-11-10T09:14:27Z", "last_stop_time": "2026-03-22T09:19:40Z", "example_scene": "S1A_IW_SLC__1SDV_20251122T091926_20251122T091948_061988_07C0EF_DC4C" }, "geometry": { "type": "Polygon", "coordinates": [ [ [ -58.582935, -19.893496 ], [ -58.276671990404687, -18.73704970734676 ], [ -58.277115, -18.736946 ], [ -57.882236987980804, -17.214601081781819 ], [ -57.494406592884367, -15.685575307286914 ], [ -57.143179958428263, -14.271005129425554 ], [ -57.14357, -14.270915 ], [ -57.143505917356812, -14.270651646079116 ], [ -57.144608, -14.270397 ], [ -56.781877976202765, -12.779604871254179 ], [ -56.782108, -12.779552 ], [ -56.381737, -11.101465 ], [ -56.381700480169478, -11.101473340061538 ], [ -56.381458, -11.100457 ], [ -56.380751970807168, -11.10061823815019 ], [ -56.061464229626161, -9.737136051112214 ], [ -56.062561, -9.736887 ], [ -55.689342, -8.11523 ], [ -55.689312209472462, -8.115236715611655 ], [ -55.689159, -8.114571 ], [ -55.68831073688753, -8.114762224546102 ], [ -55.688278, -8.11462 ], [ -55.687727808992854, -8.11474405100558 ], [ -55.687679, -8.114532 ], [ -55.687266774573168, -8.114624941703299 ], [ -55.349228, -6.621433 ], [ -55.34919797246021, -6.621439720117979 ], [ -55.349045, -6.620764 ], [ -55.348768717720631, -6.620825832440599 ], [ -55.015755, -5.126782 ], [ -55.015731109438534, -5.126787305506268 ], [ -55.015606, -5.126226 ], [ -55.015585098948833, -5.126230641655669 ], [ -54.687325, -3.631763 ], [ -54.687306143009707, -3.63176715331796 ], [ -54.687126, -3.630947 ], [ -54.686546515467704, -3.631074634671384 ], [ -54.378027706988398, -2.206568971899221 ], [ -54.378696, -2.206423 ], [ -54.031563, -0.582333 ], [ -54.031521465496724, -0.582341981157059 ], [ -54.031315, -0.581376 ], [ -54.030273197880113, -0.581601273738604 ], [ -54.030243, -0.58146 ], [ -54.030187397621845, -0.581472024494037 ], [ -54.030113, -0.581124 ], [ -53.737294613583337, -0.644452576758924 ], [ -51.786282, -1.066355 ], [ -51.786334878933303, -1.066604953494559 ], [ -51.785789, -1.066723 ], [ -51.785821749571468, -1.066877809895467 ], [ -51.78577, -1.066889 ], [ -52.103214334519585, -2.567534777591531 ], [ -52.102375, -2.567718 ], [ -52.102392273574488, -2.567799001658603 ], [ -52.102264, -2.567827 ], [ -52.102315618736654, -2.568069068872512 ], [ -52.101757, -2.568191 ], [ -52.101791251959774, -2.5683516312552 ], [ -52.10173, -2.568365 ], [ -52.461578, -4.256025 ], [ -52.46165603140382, -4.256007800680562 ], [ -52.4617, -4.256214 ], [ -52.461912716850392, -4.256167110739304 ], [ -52.461937, -4.256281 ], [ -52.462146114120394, -4.256234911114795 ], [ -52.462334, -4.257116 ], [ -52.463336301806549, -4.256895065234201 ], [ -52.785866, -5.756102 ], [ -52.785952534576765, -5.756082769437693 ], [ -52.786129, -5.756903 ], [ -52.786565558231572, -5.756805977405926 ], [ -52.786674, -5.75731 ], [ -52.786710320968886, -5.757301927972342 ], [ -53.112297, -7.256122 ], [ -53.112397883826453, -7.25609940779123 ], [ -53.112602, -7.257039 ], [ -53.113055422723008, -7.256937451866666 ], [ -53.11322, -7.257695 ], [ -53.113720162667001, -7.257582985864552 ], [ -53.442589, -8.755464 ], [ -53.442708595416136, -8.75543702435707 ], [ -53.442886, -8.756245 ], [ -53.44302476947572, -8.756213697330406 ], [ -53.44313, -8.756693 ], [ -53.443463898240559, -8.756617691175833 ], [ -53.443581, -8.757151 ], [ -53.446794932460172, -8.756426032065034 ], [ -53.750788823576848, -10.124920501541009 ], [ -53.748253, -10.125496 ], [ -54.114449, -11.753428 ], [ -54.114577454613858, -11.753398649856436 ], [ -54.114616, -11.75357 ], [ -54.11470570194146, -11.753549503049005 ], [ -54.114841, -11.754151 ], [ -54.115253210051151, -11.754056821597063 ], [ -54.115433, -11.754856 ], [ -54.116772025726846, -11.754550033753887 ], [ -54.440594169990931, -13.174174384605408 ], [ -54.439438, -13.17444 ], [ -54.7861274214955, -14.671816682277287 ], [ -54.782688, -14.672611 ], [ -55.13465636808877, -16.169154791755926 ], [ -55.134621, -16.169163 ], [ -55.134674519154736, -16.16938674866935 ], [ -55.134514, -16.169424 ], [ -55.146820162640417, -16.220874357691098 ], [ -55.166454, -16.304356 ], [ -55.166634699896534, -16.304314048045406 ], [ -55.16684, -16.305187 ], [ -55.166978789967821, -16.305154780180452 ], [ -55.492236069199549, -17.66501031330581 ], [ -55.491817, -17.665108 ], [ -55.491903354041654, -17.665462592783815 ], [ -55.49173, -17.665503 ], [ -55.855659945499376, -19.159936606739375 ], [ -55.854214, -19.160275 ], [ -55.854273115242748, -19.160513680176376 ], [ -55.854088, -19.160557 ], [ -56.175232, -20.457214 ], [ -56.175370951919575, -20.45718138115771 ], [ -56.175674, -20.458405 ], [ -56.176322948460424, -20.458252669943079 ], [ -56.17638, -20.458483 ], [ -56.176420127764821, -20.458473579534676 ], [ -56.176472, -20.458683 ], [ -58.582184, -19.893888 ], [ -58.582130212032055, -19.893684919722467 ], [ -58.582935, -19.893496 ] ] ] } },
{ "type": "Feature", "properties": { "orbit_key": "SENTINEL-1__Sentinel-1A__DESCENDING__PATH_155__IW", "dataset": "SENTINEL-1", "platform": "Sentinel-1A", "processing_level": "SLC", "flight_direction": "DESCENDING", "path_number": 155, "frame_count": 8, "frame_numbers": "618,623,628,633,638,643,648,662", "beam_mode": "IW", "scene_count": 85, "unique_footprints": 85, "first_start_time": "2025-11-11T08:18:38Z", "last_stop_time": "2026-03-23T08:21:14Z", "example_scene": "S1A_IW_SLC__1SDV_20251123T082108_20251123T082122_062002_07C182_66C0" }, "geometry": { "type": "MultiPolygon", "coordinates": [ [ [ [ -44.823673, -22.200829 ], [ -44.245811, -20.087902 ], [ -41.917667, -20.635546 ], [ -42.459511, -22.759489 ], [ -44.823673, -22.200829 ] ] ], [ [ [ -43.221458, -16.20126 ], [ -43.221397764274037, -16.201018962154354 ], [ -43.222305, -16.200808 ], [ -42.850148728554302, -14.711448816410421 ], [ -42.851025, -14.711246 ], [ -42.486167320091894, -13.220750902964369 ], [ -42.487309, -13.220488 ], [ -42.09853, -11.600902 ], [ -42.098182337911396, -11.600981572404269 ], [ -42.097958, -11.600047 ], [ -42.097505544600395, -11.600150558974232 ], [ -42.097473, -11.600015 ], [ -42.097419555699446, -11.600027234256695 ], [ -42.097347, -11.599725 ], [ -42.096066668442077, -11.600018075631386 ], [ -42.096016, -11.599807 ], [ -42.092517455839896, -11.600607762726941 ], [ -41.757828483029961, -10.179513263895958 ], [ -41.758045, -10.179464 ], [ -41.412640865739732, -8.686288386586575 ], [ -41.412647, -8.686287 ], [ -41.412633361804367, -8.686227048882888 ], [ -41.413567, -8.686016 ], [ -41.044666, -7.064446 ], [ -41.044265041515274, -7.064535944818298 ], [ -41.044018, -7.06345 ], [ -41.043050715856808, -7.063666988079862 ], [ -41.043015, -7.06351 ], [ -41.042164049737366, -7.063700901135482 ], [ -41.042137, -7.063582 ], [ -38.794331, -7.567833 ], [ -39.124792778415433, -9.067305150560768 ], [ -39.122536, -9.067815 ], [ -39.456889023138942, -10.56702154177319 ], [ -39.455902, -10.567246 ], [ -39.836647, -12.252124 ], [ -39.837040861270943, -12.252033818354196 ], [ -39.837322, -12.253278 ], [ -39.837764381029828, -12.253176718432091 ], [ -39.837891, -12.253737 ], [ -39.847664373382003, -12.251499183753257 ], [ -40.16124606214543, -13.619179862395265 ], [ -40.158504, -13.619811 ], [ -40.506937869071663, -15.116907641842493 ], [ -40.505791, -15.117173 ], [ -40.505791780042181, -15.117176298079942 ], [ -40.504639, -15.117443 ], [ -40.858498135644417, -16.61363509297469 ], [ -40.857208, -16.613935 ], [ -40.857263655488509, -16.614167380480797 ], [ -40.856663, -16.614307 ], [ -40.856669245537702, -16.614333078285398 ], [ -40.856106, -16.614464 ], [ -41.060001, -17.465815 ], [ -41.060279203556703, -17.465750172391282 ], [ -41.060482, -17.466597 ], [ -41.061037180451763, -17.466467643340014 ], [ -41.061089, -17.466684 ], [ -41.061252929656781, -17.466645800307322 ], [ -41.061321, -17.46693 ], [ -43.403095, -16.921198 ], [ -43.403034336580113, -16.920959071618569 ], [ -43.403923, -16.920752 ], [ -43.22127618582126, -16.201302282639212 ], [ -43.221458, -16.20126 ] ] ] ] } },
{ "type": "Feature", "properties": { "orbit_key": "SENTINEL-1__Sentinel-1A__DESCENDING__PATH_170__IW", "dataset": "SENTINEL-1", "platform": "Sentinel-1A", "processing_level": "SLC", "flight_direction": "DESCENDING", "path_number": 170, "frame_count": 12, "frame_numbers": "600,605,610,615,620,625,630,635,640,645,650,655", "beam_mode": "IW", "scene_count": 144, "unique_footprints": 144, "first_start_time": "2025-11-12T08:58:13Z", "last_stop_time": "2026-03-24T09:03:05Z", "example_scene": "S1A_IW_SLC__1SDV_20251124T090247_20251124T090312_062017_07C20F_563D" }, "geometry": { "type": "Polygon", "coordinates": [ [ [ -54.344337, -19.412313 ], [ -53.997382189560604, -18.090661214812133 ], [ -53.997875, -18.090546 ], [ -53.997803802915627, -18.090268878255117 ], [ -53.998569, -18.09009 ], [ -53.581802, -16.46776 ], [ -53.581314293518325, -16.467873493908424 ], [ -53.581047, -16.466833 ], [ -53.58104357246976, -16.466833797631597 ], [ -53.581039, -16.466816 ], [ -53.580867844535511, -16.46685583475027 ], [ -53.580807, -16.466619 ], [ -53.580274877704959, -16.466742843777844 ], [ -53.204691977335898, -14.971705188683728 ], [ -52.827282, -13.437108 ], [ -52.826787699073861, -13.437221897119723 ], [ -52.826469, -13.435926 ], [ -52.826372439052221, -13.435948249991354 ], [ -52.467102, -11.945836 ], [ -52.466767325985884, -11.945912690150978 ], [ -52.144031581321521, -10.581840745803499 ], [ -52.144772, -10.581672 ], [ -51.76799, -8.960477 ], [ -51.767495608135327, -8.960588890286816 ], [ -51.76722, -8.959403 ], [ -51.767143843378356, -8.959420235990901 ], [ -51.426075, -7.466781 ], [ -51.425578920095283, -7.466892493855308 ], [ -51.425335, -7.465825 ], [ -51.424887663232219, -7.465925540586656 ], [ -51.079047731754329, -5.927437016218382 ], [ -50.745285, -4.419589 ], [ -50.744789611754015, -4.41969860134409 ], [ -50.74477, -4.41961 ], [ -50.744505472752955, -4.419668526122532 ], [ -50.744396, -4.419174 ], [ -50.744326647877926, -4.419189345847743 ], [ -50.418194, -2.924634 ], [ -50.417864584024265, -2.924706264992546 ], [ -50.095795, -1.428854 ], [ -50.095297040342658, -1.428962258903964 ], [ -50.095089, -1.427996 ], [ -50.094624842256259, -1.428096911756668 ], [ -50.094624, -1.428093 ], [ -49.31514646551679, -1.597561998447934 ], [ -47.852024, -1.915657 ], [ -47.852025560978518, -1.915664346920016 ], [ -47.851604, -1.915756 ], [ -47.851623002186379, -1.915845429920416 ], [ -47.851349, -1.915905 ], [ -47.851415637733311, -1.916218641272151 ], [ -47.851322, -1.916239 ], [ -47.851326092000306, -1.916258258755132 ], [ -47.850182, -1.916507 ], [ -48.196434, -3.546132 ], [ -48.197431149888587, -3.54591308091628 ], [ -48.518955, -5.046596 ], [ -48.519954262121715, -5.046374758052855 ], [ -48.520115, -5.047125 ], [ -48.520376594084127, -5.047067084323464 ], [ -48.520428, -5.047307 ], [ -48.521077874229015, -5.047163104206222 ], [ -48.845329, -6.546618 ], [ -48.845758044103775, -6.54652225046988 ], [ -49.186226, -8.104669 ], [ -49.187175158585895, -8.10445554077616 ], [ -49.187366, -8.105329 ], [ -49.187407635716461, -8.105319637544342 ], [ -49.187489, -8.105692 ], [ -49.188695956582613, -8.105420575651488 ], [ -49.519794, -9.603459 ], [ -49.520718747272106, -9.603249587000699 ], [ -49.520992, -9.604486 ], [ -49.521056826684777, -9.60447132141787 ], [ -49.521114, -9.60473 ], [ -49.52146488986206, -9.60465054292178 ], [ -49.521484, -9.604737 ], [ -49.521765461048311, -9.604673257683494 ], [ -49.827916399021795, -10.973037458593204 ], [ -49.827835, -10.973056 ], [ -49.827845908811746, -10.973104122712739 ], [ -49.827526, -10.973177 ], [ -49.827531580663674, -10.973201616840619 ], [ -49.825989, -10.973553 ], [ -50.194862, -12.600722 ], [ -50.195727175837341, -12.600523644479436 ], [ -50.195946, -12.601489 ], [ -50.196067020228774, -12.601461257397165 ], [ -50.196159, -12.601867 ], [ -50.196525427693643, -12.601782993858732 ], [ -50.540554, -14.097912 ], [ -50.541307467598209, -14.097738304132752 ], [ -50.541584, -14.098941 ], [ -50.541727089617858, -14.098908017673716 ], [ -50.541794, -14.099199 ], [ -50.542189322447094, -14.099107871027243 ], [ -50.542202, -14.099163 ], [ -50.542612991919782, -14.099068248690036 ], [ -50.861722193884972, -15.465735795189607 ], [ -50.861622, -15.465759 ], [ -50.868005265763173, -15.492644672700449 ], [ -50.891769, -15.594419 ], [ -50.892147943639095, -15.594331201127424 ], [ -51.261208, -17.148775 ], [ -51.2619997854624, -17.148590673197596 ], [ -51.26228, -17.149771 ], [ -51.262481891231644, -17.149724005554912 ], [ -51.262527, -17.149914 ], [ -51.262981365759352, -17.14980822887868 ], [ -51.263077, -17.150211 ], [ -51.264704143900374, -17.149832180376819 ], [ -51.593129116039997, -18.508599235007885 ], [ -51.591564, -18.508965 ], [ -51.591566013833599, -18.508973187185699 ], [ -51.591049, -18.509094 ], [ -51.591061194093079, -18.509143578539948 ], [ -51.589981, -18.509396 ], [ -51.949837, -19.972404 ], [ -51.950531478731335, -19.972241113512396 ], [ -51.950756, -19.973154 ], [ -51.951039489288597, -19.973087517019049 ], [ -51.951153, -19.973549 ], [ -51.951639736834544, -19.973434842712045 ], [ -51.951672, -19.973566 ], [ -54.343609, -19.412516 ], [ -54.343601022291359, -19.412485613380124 ], [ -54.344337, -19.412313 ] ] ] } },
{ "type": "Feature", "properties": { "orbit_key": "SENTINEL-1__Sentinel-1C__DESCENDING__PATH_24__IW", "dataset": "SENTINEL-1", "platform": "Sentinel-1C", "processing_level": "SLC", "flight_direction": "DESCENDING", "path_number": 24, "frame_count": 4, "frame_numbers": "661,667,672,677", "beam_mode": "IW", "scene_count": 48, "unique_footprints": 48, "first_start_time": "2025-11-08T08:45:50Z", "last_stop_time": "2026-03-20T08:47:31Z", "example_scene": "S1C_IW_SLC__1SDV_20251120T084708_20251120T084734_005095_00A189_6E67" }, "geometry": { "type": "Polygon", "coordinates": [ [ [ -49.678062889014434, -26.710349075992376 ], [ -49.678089, -26.710445 ], [ -52.170902, -26.117245 ], [ -51.696026, -24.510542 ], [ -51.695407562232077, -24.510688808881142 ], [ -51.695248, -24.510149 ], [ -51.695058122882045, -24.510194078125 ], [ -51.695038, -24.510126 ], [ -51.694522001381351, -24.510248501100325 ], [ -51.694492, -24.510147 ], [ -51.694115395974677, -24.51023640378089 ], [ -51.694107, -24.510208 ], [ -51.693958686386495, -24.510243211260693 ], [ -51.268574, -23.029484 ], [ -51.2679101085536, -23.029641176738703 ], [ -51.267719, -23.028976 ], [ -51.267533114504651, -23.029020012024588 ], [ -51.267513, -23.02895 ], [ -51.266693606313851, -23.029144006743273 ], [ -50.852188, -21.546541 ], [ -50.852116245386789, -21.546557936656725 ], [ -50.387997, -19.839809 ], [ -50.387266349059175, -19.83998079592449 ], [ -50.387184, -19.839678 ], [ -50.387009151042754, -19.839719115364396 ], [ -50.386955, -19.83952 ], [ -50.386437834854235, -19.839641609308078 ], [ -50.386417, -19.839565 ], [ -50.386015521112249, -19.839659410816424 ], [ -50.385967, -19.839481 ], [ -48.010502, -20.398075 ], [ -48.010547347176299, -20.398253829817509 ], [ -48.010368, -20.398296 ], [ -48.01038205119778, -20.398351418066881 ], [ -48.010269, -20.398378 ], [ -48.477692, -22.24198 ], [ -48.478408868166682, -22.241810749611606 ], [ -48.478485, -22.242111 ], [ -48.479017252082272, -22.241985326488674 ], [ -48.866013, -23.733191 ], [ -48.866161882967816, -23.733155746256433 ], [ -48.866211, -23.733345 ], [ -48.866810672996202, -23.733203004689141 ], [ -48.86684, -23.733316 ], [ -48.868240279179375, -23.73298440332556 ], [ -48.868324, -23.733307 ], [ -48.870293136034412, -23.732840737804775 ], [ -49.265987, -25.222641 ], [ -49.266156160956122, -25.222600838711841 ], [ -49.266174, -25.222668 ], [ -49.267444694228956, -25.222366318660061 ], [ -49.267464, -25.222439 ], [ -49.268179124581827, -25.222269216260674 ], [ -49.268246, -25.222521 ], [ -49.270626732981299, -25.221955785587827 ], [ -49.675858, -26.710678 ], [ -49.676676943191659, -26.710483118329776 ], [ -49.676727, -26.710667 ], [ -49.678062889014434, -26.710349075992376 ] ] ] } },
{ "type": "Feature", "properties": { "orbit_key": "SENTINEL-1__Sentinel-1C__DESCENDING__PATH_53__IW", "dataset": "SENTINEL-1", "platform": "Sentinel-1C", "processing_level": "SLC", "flight_direction": "DESCENDING", "path_number": 53, "frame_count": 8, "frame_numbers": "641,647,652,657,662,667,672,677", "beam_mode": "IW", "scene_count": 96, "unique_footprints": 96, "first_start_time": "2025-11-10T08:27:43Z", "last_stop_time": "2026-03-22T08:31:05Z", "example_scene": "S1C_IW_SLC__1SDV_20251122T083041_20251122T083108_005124_00A28C_FBCA" }, "geometry": { "type": "Polygon", "coordinates": [ [ [ -45.54294037483676, -26.792838524781594 ], [ -45.542965, -26.792929 ], [ -45.543321567381497, -26.792844226300403 ], [ -45.543346, -26.792934 ], [ -48.049469, -26.197147 ], [ -48.049402470856343, -26.196922054761302 ], [ -48.05294, -26.196081 ], [ -48.05286477755913, -26.195826685059764 ], [ -48.053406, -26.195698 ], [ -48.053310106534191, -26.195373821763891 ], [ -48.053486, -26.195332 ], [ -47.615805808746551, -24.715738348678773 ], [ -47.619381, -24.71489 ], [ -47.619336375667885, -24.714734809461412 ], [ -47.620132, -24.714546 ], [ -47.619998062771543, -24.714080242904956 ], [ -47.620155, -24.714043 ], [ -47.194300156546049, -23.233196652427655 ], [ -47.197395, -23.232464 ], [ -47.197378437797454, -23.232404794698734 ], [ -47.19799, -23.23226 ], [ -47.197889185757816, -23.231899654101959 ], [ -47.198044, -23.231863 ], [ -46.731308, -21.563625 ], [ -46.730855413774023, -21.563731808241975 ], [ -46.32629, -20.079016 ], [ -46.326120851052679, -20.079055786350796 ], [ -45.931026, -18.592842 ], [ -45.929697628563325, -18.59315330250686 ], [ -45.543449, -17.105553 ], [ -45.542468486192611, -17.1057818360086 ], [ -45.196967422854812, -15.744867067945558 ], [ -45.19791, -15.744648 ], [ -45.197905111228962, -15.744628295977069 ], [ -45.198513, -15.744487 ], [ -45.198435008715443, -15.744172684800406 ], [ -45.198524, -15.744152 ], [ -44.742085, -13.904687 ], [ -44.74163247387115, -13.904791543964199 ], [ -44.741611, -13.904705 ], [ -44.737850826843363, -13.905573672117947 ], [ -44.737839, -13.905526 ], [ -44.737760904188875, -13.905544038935517 ], [ -44.737747, -13.905488 ], [ -42.586099849049724, -14.402544767519538 ], [ -42.440613, -14.43615 ], [ -42.440641937430428, -14.436272985210753 ], [ -42.440525, -14.4363 ], [ -42.440538920273838, -14.436359158786876 ], [ -42.440479, -14.436373 ], [ -42.440499972920477, -14.436462140158039 ], [ -42.440414, -14.436482 ], [ -42.844997339631782, -16.156018185915745 ], [ -42.84211, -16.156689 ], [ -42.84214693743349, -16.156843158596576 ], [ -42.841644, -16.15696 ], [ -42.84166705795792, -16.157056232547731 ], [ -42.841526, -16.157089 ], [ -42.84152819155922, -16.15709814736536 ], [ -42.841503, -16.157104 ], [ -42.841519208396605, -16.157171650764084 ], [ -42.841423, -16.157194 ], [ -42.841442915801878, -16.157277131884889 ], [ -42.841366, -16.157295 ], [ -43.230343, -17.780912 ], [ -43.230411275969047, -17.780896061935763 ], [ -43.230423, -17.780945 ], [ -43.232943196124936, -17.780356711434109 ], [ -43.597614, -19.275126 ], [ -43.598214243813182, -19.274985308804428 ], [ -43.598221, -19.275013 ], [ -43.600618094216195, -19.274451089500822 ], [ -43.972145, -20.768143 ], [ -43.972199141746323, -20.768130262844437 ], [ -43.972214, -20.76819 ], [ -43.97249528704333, -20.768123827555616 ], [ -43.972511, -20.768187 ], [ -43.973079831553214, -20.768053182531133 ], [ -43.973087, -20.768082 ], [ -43.973744816968086, -20.767927228972443 ], [ -44.352737, -22.260687 ], [ -44.353071010792625, -22.260608164961866 ], [ -44.353073, -22.260616 ], [ -44.353408868485673, -22.260536728177975 ], [ -44.353413, -22.260553 ], [ -44.354643454878612, -22.260262551891742 ], [ -44.723599927198386, -23.681568360232905 ], [ -44.71616, -23.683329 ], [ -44.716198183138602, -23.683472700583891 ], [ -44.715656, -23.683601 ], [ -44.715670110050965, -23.683654111350243 ], [ -44.715641, -23.683661 ], [ -45.111383779469669, -25.173223021995121 ], [ -45.102825, -25.175253 ], [ -45.102870831399855, -25.175421403118765 ], [ -45.102375, -25.175539 ], [ -45.10239127715252, -25.175598810431186 ], [ -45.102264, -25.175629 ], [ -45.102284696679909, -25.175705052690301 ], [ -45.10215, -25.175737 ], [ -45.102364064095738, -25.176523632002482 ], [ -45.102333, -25.176531 ], [ -45.542206, -26.792891 ], [ -45.542368785618386, -26.79285229862241 ], [ -45.5424, -26.792967 ], [ -45.54294037483676, -26.792838524781594 ] ] ] } },
{ "type": "Feature", "properties": { "orbit_key": "SENTINEL-1__Sentinel-1C__DESCENDING__PATH_68__IW", "dataset": "SENTINEL-1", "platform": "Sentinel-1C", "processing_level": "SLC", "flight_direction": "DESCENDING", "path_number": 68, "frame_count": 5, "frame_numbers": "653,659,663,668,673", "beam_mode": "IW", "scene_count": 60, "unique_footprints": 60, "first_start_time": "2025-11-11T09:09:50Z", "last_stop_time": "2026-03-23T09:11:56Z", "example_scene": "S1C_IW_SLC__1SDV_20251123T091132_20251123T091159_005139_00A30B_617E" }, "geometry": { "type": "Polygon", "coordinates": [ [ [ -58.060748416323563, -25.158633510044229 ], [ -58.06086, -25.158607 ], [ -57.631054914797495, -23.677489750553864 ], [ -57.631172, -23.677462 ], [ -57.212562081077216, -22.194652479029518 ], [ -57.213516, -22.194427 ], [ -57.213465683598201, -22.194244022369183 ], [ -57.213745, -22.194178 ], [ -56.770519, -20.582413 ], [ -56.770460537693843, -20.582426771476797 ], [ -56.770432, -20.582323 ], [ -56.77012052751099, -20.582396373998492 ], [ -56.770058, -20.582169 ], [ -56.768939288217645, -20.582432528697407 ], [ -56.394684268901379, -19.186795859956803 ], [ -55.924541, -17.387985 ], [ -55.924442012095078, -17.388008127195857 ], [ -55.924408, -17.387878 ], [ -55.923469790216643, -17.388097208937943 ], [ -55.923424, -17.387922 ], [ -55.922513907033732, -17.388134618402898 ], [ -55.922462, -17.387936 ], [ -53.563858, -17.938951 ], [ -53.985064310162628, -19.656571458513785 ], [ -53.984474, -19.65671 ], [ -54.014404728570902, -19.776217583710597 ], [ -54.016541, -19.784929 ], [ -54.016583979627143, -19.784918909754602 ], [ -54.390629, -21.278408 ], [ -54.391581440453827, -21.278183608739884 ], [ -54.391697, -21.278645 ], [ -54.39199588484486, -21.278574582968023 ], [ -54.392002, -21.278599 ], [ -54.392281018549745, -21.27853326490083 ], [ -54.392307, -21.278637 ], [ -54.392487810172099, -21.278594398824193 ], [ -54.392509, -21.278679 ], [ -54.394449621309292, -21.278221786575351 ], [ -54.743171575356321, -22.641654926770496 ], [ -54.739887, -22.642431 ], [ -55.129792351351107, -24.133616808835942 ], [ -55.128365, -24.133955 ], [ -55.56144, -25.751883 ], [ -55.562425036591037, -25.751648989611329 ], [ -55.562485, -25.751873 ], [ -55.5627299743119, -25.751814801842698 ], [ -55.562794, -25.752054 ], [ -55.563124758992593, -25.751975424274931 ], [ -55.563183, -25.752193 ], [ -58.060623, -25.15885 ], [ -58.060591902768373, -25.15874283468666 ], [ -58.060768, -25.158701 ], [ -58.060748416323563, -25.158633510044229 ] ] ] } },
{ "type": "Feature", "properties": { "orbit_key": "SENTINEL-1__Sentinel-1C__DESCENDING__PATH_97__IW", "dataset": "SENTINEL-1", "platform": "Sentinel-1C", "processing_level": "SLC", "flight_direction": "DESCENDING", "path_number": 97, "frame_count": 4, "frame_numbers": "659,665,670,675", "beam_mode": "IW", "scene_count": 52, "unique_footprints": 52, "first_start_time": "2025-11-01T08:53:53Z", "last_stop_time": "2026-03-25T08:55:34Z", "example_scene": "S1C_IW_SLC__1SDV_20251125T085510_20251125T085537_005168_00A40A_F14D" }, "geometry": { "type": "Polygon", "coordinates": [ [ [ -51.555763380486908, -26.094671992805811 ], [ -51.555866, -26.095053 ], [ -51.556575291353674, -26.094884369079356 ], [ -51.556576, -26.094887 ], [ -51.55668294548385, -26.094861572381127 ], [ -51.556717, -26.094988 ], [ -51.556832201052018, -26.094960608845799 ], [ -51.556835, -26.094971 ], [ -54.048103, -25.502647 ], [ -54.048017460621466, -25.502354170133451 ], [ -54.048035, -25.50235 ], [ -54.048003361289574, -25.502241690845825 ], [ -54.048103, -25.502218 ], [ -53.578384, -23.894264 ], [ -53.577033051823221, -23.894584384811921 ], [ -53.185687213597568, -22.517031902205989 ], [ -52.770510627894929, -21.016232403309051 ], [ -52.287178, -19.220896 ], [ -52.286351770360874, -19.221090013853136 ], [ -52.28632, -19.220972 ], [ -52.284798959381888, -19.221329155699937 ], [ -52.284744, -19.221125 ], [ -49.910297, -19.778664 ], [ -50.341760689880495, -21.495060807594768 ], [ -50.341183, -21.495197 ], [ -50.368440030450657, -21.601193342168067 ], [ -50.37397, -21.623192 ], [ -50.374089738894661, -21.623163762990828 ], [ -50.72483182255224, -22.987119311245024 ], [ -50.723869, -22.987347 ], [ -51.149597, -24.606148 ], [ -51.150861516331013, -24.605848084374411 ], [ -51.150963, -24.606234 ], [ -51.151716252154564, -24.606055353821901 ], [ -51.151718, -24.606062 ], [ -51.15182093228141, -24.606037586070823 ], [ -51.151886, -24.606285 ], [ -51.153442233703281, -24.605915877736251 ], [ -51.554531, -26.094965 ], [ -51.555763380486908, -26.094671992805811 ] ] ] } },
{ "type": "Feature", "properties": { "orbit_key": "SENTINEL-1__Sentinel-1C__DESCENDING__PATH_126__IW", "dataset": "SENTINEL-1", "platform": "Sentinel-1C", "processing_level": "SLC", "flight_direction": "DESCENDING", "path_number": 126, "frame_count": 8, "frame_numbers": "640,646,651,656,661,666,671,676", "beam_mode": "IW", "scene_count": 88, "unique_footprints": 88, "first_start_time": "2025-11-03T08:35:52Z", "last_stop_time": "2026-03-27T08:39:14Z", "example_scene": "S1C_IW_SLC__1SDV_20251115T083850_20251115T083917_005022_009F14_A2CF" }, "geometry": { "type": "Polygon", "coordinates": [ [ [ -49.569031, -24.299534 ], [ -49.568733305278158, -24.299604613267771 ], [ -49.568626, -24.29924 ], [ -49.567856289537573, -24.299422576557475 ], [ -49.567852, -24.299408 ], [ -49.567851011785976, -24.299408234385577 ], [ -49.567848, -24.299398 ], [ -49.567209748436852, -24.299549386337368 ], [ -49.143326, -22.817945 ], [ -49.143009538373775, -22.81801986255164 ], [ -49.142902, -22.817644 ], [ -49.142813352156601, -22.817664970809126 ], [ -48.745392869740854, -21.389936893780714 ], [ -48.346474921032566, -19.91888133434297 ], [ -48.348118, -19.918495 ], [ -47.939041675830858, -18.372701402489707 ], [ -47.567189079213577, -16.934387559735828 ], [ -47.161041, -15.328098 ], [ -47.160651316786918, -15.328188462033783 ], [ -47.160545, -15.327768 ], [ -47.159963513919237, -15.327902987728509 ], [ -47.159962, -15.327897 ], [ -47.159619992634831, -15.327976387552379 ], [ -47.159607, -15.327925 ], [ -47.159397818204788, -15.327973557437348 ], [ -47.159382, -15.327911 ], [ -47.159367900013279, -15.327914273273157 ], [ -46.736259, -13.616026 ], [ -46.735842421825588, -13.616122140496438 ], [ -46.735767, -13.615817 ], [ -46.73522288354809, -13.615942574989443 ], [ -46.735222, -13.615939 ], [ -46.734934903477907, -13.616005252296693 ], [ -46.734921, -13.615949 ], [ -46.734867518270363, -13.615961343143368 ], [ -46.73484, -13.61585 ], [ -46.733665415990352, -13.616121064037701 ], [ -46.733635, -13.615998 ], [ -44.427013, -14.148315 ], [ -44.860458, -15.996367 ], [ -44.861520050589341, -15.99612037486075 ], [ -44.861652, -15.996683 ], [ -44.86210704756413, -15.996577333550061 ], [ -44.862152, -15.996769 ], [ -44.863228898605115, -15.996518922566516 ], [ -44.863258, -15.996643 ], [ -44.864205256014195, -15.996423024328234 ], [ -45.190689666481724, -17.363563393262226 ], [ -45.189838, -17.363762 ], [ -45.553209823592276, -18.858437587381786 ], [ -45.552986, -18.85849 ], [ -45.565533189084299, -18.909127906111568 ], [ -45.584332, -18.986454 ], [ -45.584673427936252, -18.986374021669871 ], [ -45.923190125354949, -20.352558640863162 ], [ -45.919304, -20.353472 ], [ -46.296738917753082, -21.846408702024085 ], [ -46.295792, -21.846632 ], [ -46.729294, -23.524258 ], [ -46.730218995308604, -23.524039146595616 ], [ -46.730305, -23.524372 ], [ -46.730752106231748, -23.524266217582291 ], [ -46.730812, -23.524498 ], [ -46.731362342679667, -23.524367781466839 ], [ -47.125412, -25.014215 ], [ -47.126303232836428, -25.014003584291508 ], [ -47.126457, -25.014585 ], [ -47.126932377832816, -25.014472234998472 ], [ -47.126995, -25.014709 ], [ -47.12982483277402, -25.014037672938677 ], [ -47.533207, -26.502602 ], [ -47.534075058598134, -26.502395599800245 ], [ -47.534199, -26.502853 ], [ -47.534701438087637, -26.502733537622866 ], [ -47.534733, -26.50285 ], [ -47.534813112655904, -26.502830950284803 ], [ -47.534847, -26.502956 ], [ -50.040829, -25.907068 ], [ -50.040826211348396, -25.907058524292268 ], [ -50.042027, -25.906773 ], [ -49.569031, -24.299534 ] ] ] } },
{ "type": "Feature", "properties": { "orbit_key": "SENTINEL-1__Sentinel-1C__DESCENDING__PATH_141__IW", "dataset": "SENTINEL-1", "platform": "Sentinel-1C", "processing_level": "SLC", "flight_direction": "DESCENDING", "path_number": 141, "frame_count": 4, "frame_numbers": "660,666,671,676", "beam_mode": "IW", "scene_count": 52, "unique_footprints": 52, "first_start_time": "2025-11-04T09:18:40Z", "last_stop_time": "2026-03-28T09:20:22Z", "example_scene": "S1C_IW_SLC__1SDV_20251128T091958_20251128T092024_005212_00A57D_BED6" }, "geometry": { "type": "Polygon", "coordinates": [ [ [ -57.819305, -26.456121 ], [ -60.304371, -25.86528 ], [ -60.304351338440213, -25.865213108688504 ], [ -60.304928, -25.865076 ], [ -59.866315155242724, -24.372868203181515 ], [ -59.431906011724507, -22.852841971750994 ], [ -59.011518101679201, -21.341842104734056 ], [ -58.535976, -19.584967 ], [ -58.535766242879383, -19.585016280735019 ], [ -58.535728, -19.584875 ], [ -58.53536449254964, -19.584960403874753 ], [ -58.535343, -19.584881 ], [ -58.53529064098484, -19.584893300991709 ], [ -58.535244, -19.584721 ], [ -56.16983, -20.140476 ], [ -56.169832394223867, -20.140485478336448 ], [ -56.169247, -20.140623 ], [ -56.169268000848824, -20.140706153508937 ], [ -56.168694, -20.140841 ], [ -56.421521844834771, -21.141878837142325 ], [ -56.602087562473081, -21.856838198628378 ], [ -56.60194, -21.856873 ], [ -56.601941962637675, -21.856880593756511 ], [ -56.601936, -21.856882 ], [ -56.609073782769769, -21.884500501682659 ], [ -56.63435, -21.984583 ], [ -56.634815912512117, -21.984473088566453 ], [ -56.634876, -21.984711 ], [ -56.634966852125956, -21.984689566361386 ], [ -56.987473856292802, -23.34865868699157 ], [ -56.986961, -23.34878 ], [ -56.986963116570294, -23.348788004965602 ], [ -56.986942, -23.348793 ], [ -57.012100750316108, -23.44394848999621 ], [ -57.020462, -23.476301 ], [ -57.020643290197995, -23.476258106255372 ], [ -57.380973452309185, -24.839099769903243 ], [ -57.380749, -24.839153 ], [ -57.380821190930206, -24.839419533942223 ], [ -57.379997, -24.839615 ], [ -57.379998523928016, -24.83962062640148 ], [ -57.379959, -24.83963 ], [ -57.817802, -26.456232 ], [ -57.818290306076506, -26.456115907356708 ], [ -57.818325, -26.456244 ], [ -57.818402586851725, -26.456225553071452 ], [ -57.818413, -26.456264 ], [ -57.81928742421335, -26.456056113213545 ], [ -57.819305, -26.456121 ] ] ] } },
{ "type": "Feature", "properties": { "orbit_key": "SENTINEL-1__Sentinel-1C__DESCENDING__PATH_155__IW", "dataset": "SENTINEL-1", "platform": "Sentinel-1C", "processing_level": "SLC", "flight_direction": "DESCENDING", "path_number": 155, "frame_count": 5, "frame_numbers": "651,656,661,666,671", "beam_mode": "IW", "scene_count": 65, "unique_footprints": 65, "first_start_time": "2025-11-05T08:20:18Z", "last_stop_time": "2026-03-29T08:22:28Z", "example_scene": "S1C_IW_SLC__1SDV_20251129T082200_20251129T082231_005226_00A5F9_9463" }, "geometry": { "type": "Polygon", "coordinates": [ [ [ -42.617554, -23.518936 ], [ -43.121902, -25.417803 ], [ -43.121917233799358, -25.417799385669753 ], [ -43.121983, -25.418047 ], [ -43.123182797329491, -25.417762354684392 ], [ -43.123192, -25.417797 ], [ -43.123692692596897, -25.41767820557623 ], [ -43.123894, -25.418436 ], [ -45.575367, -24.836761 ], [ -45.069137887077304, -23.074608113416552 ], [ -45.075523, -23.073097 ], [ -45.075486481556858, -23.072966097628974 ], [ -45.076763, -23.072664 ], [ -44.662816443543235, -21.58880278975559 ], [ -44.663269, -21.588696 ], [ -44.663264333433276, -21.588678835091304 ], [ -44.663734, -21.588568 ], [ -44.22554, -19.976883 ], [ -44.224777094374161, -19.977062393984621 ], [ -43.864068260803478, -18.617321012891182 ], [ -43.864239, -18.617281 ], [ -43.389137, -16.7808 ], [ -43.388563403307543, -16.780933742514577 ], [ -43.388542, -16.780851 ], [ -43.388256918655024, -16.78091746352781 ], [ -43.388233, -16.780825 ], [ -43.387772778855918, -16.780932298604778 ], [ -43.387737, -16.780794 ], [ -41.080643, -17.318733 ], [ -41.080686083998408, -17.318909954266392 ], [ -41.080643, -17.31892 ], [ -41.080676347802324, -17.319056972005985 ], [ -41.080406, -17.31912 ], [ -41.080410290337895, -17.319137624795047 ], [ -41.08028, -17.319168 ], [ -41.080309731562267, -17.319290141115946 ], [ -41.080246, -17.319305 ], [ -41.498337843407739, -19.03682374614808 ], [ -41.497372, -19.03705 ], [ -41.497453567475979, -19.037378276733701 ], [ -41.497284, -19.037418 ], [ -41.497291642753446, -19.037448756827729 ], [ -41.497154, -19.037481 ], [ -41.899963, -20.65859 ], [ -41.900004972872857, -20.658580128468046 ], [ -41.900036, -20.658705 ], [ -41.902362007254197, -20.658157979032886 ], [ -42.248603543467645, -22.023365331084243 ], [ -42.246494, -22.023863 ], [ -42.246521449534342, -22.023968906740134 ], [ -42.246059, -22.024078 ], [ -42.246097496800473, -22.024226545046897 ], [ -42.245926, -22.024267 ], [ -42.632277742982062, -23.515134889893805 ], [ -42.618214, -23.518461 ], [ -42.618257425572963, -23.518624483669328 ], [ -42.617714, -23.518753 ], [ -42.617750276450117, -23.518889580135706 ], [ -42.617554, -23.518936 ] ] ] } },
{ "type": "Feature", "properties": { "orbit_key": "SENTINEL-1__Sentinel-1C__DESCENDING__PATH_170__IW", "dataset": "SENTINEL-1", "platform": "Sentinel-1C", "processing_level": "SLC", "flight_direction": "DESCENDING", "path_number": 170, "frame_count": 4, "frame_numbers": "657,663,668,673", "beam_mode": "IW", "scene_count": 52, "unique_footprints": 52, "first_start_time": "2025-11-06T09:01:59Z", "last_stop_time": "2026-03-30T09:03:41Z", "example_scene": "S1C_IW_SLC__1SDV_20251130T090317_20251130T090344_005241_00A678_D875" }, "geometry": { "type": "Polygon", "coordinates": [ [ [ -55.974298402328309, -25.052398061674893 ], [ -55.974728, -25.052296 ], [ -55.974717071634906, -25.052258265516109 ], [ -55.974815, -25.052235 ], [ -55.974809779266927, -25.052216973494961 ], [ -55.975159, -25.052134 ], [ -55.54617623601299, -23.571034879451027 ], [ -55.546585, -23.570938 ], [ -55.546545470107873, -23.570797714061708 ], [ -55.546886, -23.570717 ], [ -55.10903472073516, -22.016968579950312 ], [ -54.721097320299542, -20.603785587094166 ], [ -54.721329, -20.603731 ], [ -54.230862, -18.76852 ], [ -54.23065777180183, -18.768567905104348 ], [ -54.230564, -18.768217 ], [ -54.230092493984827, -18.768327590270715 ], [ -54.230091, -18.768322 ], [ -54.229872985189196, -18.768373138215068 ], [ -54.229866, -18.768347 ], [ -54.229571956409941, -18.768415972089898 ], [ -54.229557, -18.76836 ], [ -54.228700557945857, -18.768560865922741 ], [ -54.228672, -18.768454 ], [ -51.857853, -19.324554 ], [ -52.286650129759003, -21.040926139250292 ], [ -52.285152, -21.041279 ], [ -52.666390929927658, -22.533660475286599 ], [ -52.666084, -22.533733 ], [ -52.680980645467251, -22.590772746599285 ], [ -52.699135, -22.661839 ], [ -52.699516914956781, -22.661748733569169 ], [ -53.055495130154974, -24.02480105527512 ], [ -53.054626, -24.025007 ], [ -53.054651529020695, -24.02510248943447 ], [ -53.054489, -24.025141 ], [ -53.054502417144697, -24.025191187519717 ], [ -53.053043, -24.025537 ], [ -53.485561, -25.643509 ], [ -53.48616625588366, -25.643365198037404 ], [ -53.486221, -25.64357 ], [ -53.486487893273171, -25.643506594223101 ], [ -53.486515, -25.643608 ], [ -53.486881495673693, -25.643520933567491 ], [ -53.486916, -25.64365 ], [ -55.974308, -25.052702 ], [ -55.974249621848259, -25.052500431853108 ], [ -55.974323, -25.052483 ], [ -55.974298402328309, -25.052398061674893 ] ] ] } }
]
}
