{
"type": "FeatureCollection",
"name": "ENL_samples_sbsr",
"crs": { "type": "name", "properties": { "name": "urn:ogc:def:crs:EPSG::32722" } },
"features": [
{ "type": "Feature", "properties": { }, "geometry": { "type": "Polygon", "coordinates": [ [ [ 822962.29373501194641, 8265097.35937547404319 ], [ 822962.157985849771649, 8264942.537197832018137 ], [ 822768.38861641229596, 8264942.35667010769248 ], [ 822768.52281732740812, 8265097.179969768971205 ], [ 822962.29373501194641, 8265097.35937547404319 ] ] ] } },
{ "type": "Feature", "properties": { }, "geometry": { "type": "Polygon", "coordinates": [ [ [ 838946.526538980426267, 8253178.641851124353707 ], [ 838946.264277965412475, 8253023.798111006617546 ], [ 838752.569285284727812, 8253023.7729885969311 ], [ 838752.829990013269708, 8253178.617840435355902 ], [ 838946.526538980426267, 8253178.641851124353707 ] ] ] } },
{ "type": "Feature", "properties": { }, "geometry": { "type": "Polygon", "coordinates": [ [ [ 799472.648802657378837, 8256711.247821708209813 ], [ 799472.661687174811959, 8256556.45246435329318 ], [ 799279.001893137348816, 8256556.083948448300362 ], [ 799278.987453415989876, 8256710.880443658679724 ], [ 799472.648802657378837, 8256711.247821708209813 ] ] ] } },
{ "type": "Feature", "properties": { }, "geometry": { "type": "Polygon", "coordinates": [ [ [ 792568.992212294368073, 8437605.611528152599931 ], [ 792569.285117635270581, 8437450.846089344471693 ], [ 792374.167747137602419, 8437450.164606539532542 ], [ 792373.873417655006051, 8437604.931183870881796 ], [ 792568.992212294368073, 8437605.611528152599931 ] ] ] } },
{ "type": "Feature", "properties": { }, "geometry": { "type": "Polygon", "coordinates": [ [ [ 800031.433030266780406, 8409481.603698596358299 ], [ 800031.643728266004473, 8409326.826422292739153 ], [ 799836.732760280137882, 8409326.242899291217327 ], [ 799836.520617925794795, 8409481.021309608593583 ], [ 800031.433030266780406, 8409481.603698596358299 ] ] ] } },
{ "type": "Feature", "properties": { }, "geometry": { "type": "Polygon", "coordinates": [ [ [ 710846.486329095205292, 8385705.248771519400179 ], [ 710847.228374996571802, 8385550.557416543364525 ], [ 710652.624930824385956, 8385549.300529470667243 ], [ 710651.881419368786737, 8385703.993079480715096 ], [ 710846.486329095205292, 8385705.248771519400179 ] ] ] } },
{ "type": "Feature", "properties": { }, "geometry": { "type": "Polygon", "coordinates": [ [ [ 898900.819946683361195, 8369274.671790550462902 ], [ 898900.347822880372405, 8369119.758259985595942 ], [ 898705.576856591273099, 8369120.025005392730236 ], [ 898706.04750994592905, 8369274.93960399646312 ], [ 898900.819946683361195, 8369274.671790550462902 ] ] ] } },
{ "type": "Feature", "properties": { }, "geometry": { "type": "Polygon", "coordinates": [ [ [ 790725.491733604110777, 8443900.341517576947808 ], [ 790725.803839868633077, 8443745.578892102465034 ], [ 790530.641020006849431, 8443744.874429007992148 ], [ 790530.327494122902863, 8443899.638194143772125 ], [ 790725.491733604110777, 8443900.341517576947808 ] ] ] } },
{ "type": "Feature", "properties": { }, "geometry": { "type": "Polygon", "coordinates": [ [ [ 804942.381612224737182, 8443796.709499152377248 ], [ 804942.607302061049268, 8443641.930524311959743 ], [ 804747.423208544147201, 8443641.335021583363414 ], [ 804747.196099546505138, 8443796.115126367658377 ], [ 804942.381612224737182, 8443796.709499152377248 ] ] ] } },
{ "type": "Feature", "properties": { }, "geometry": { "type": "Polygon", "coordinates": [ [ [ 754120.440186535473913, 8431986.920830877497792 ], [ 754120.961151581723243, 8431832.195521466434002 ], [ 753925.942156720091589, 8431831.225467307493091 ], [ 753925.419761870522052, 8431985.951941609382629 ], [ 754120.440186535473913, 8431986.920830877497792 ] ] ] } },
{ "type": "Feature", "properties": { }, "geometry": { "type": "Polygon", "coordinates": [ [ [ 711796.589353026356548, 8396026.128554241731763 ], [ 711797.335211607045494, 8395871.437667472288013 ], [ 711602.649062381358817, 8395870.177822656929493 ], [ 711601.901745818089694, 8396024.869903683662415 ], [ 711796.589353026356548, 8396026.128554241731763 ] ] ] } },
{ "type": "Feature", "properties": { }, "geometry": { "type": "Polygon", "coordinates": [ [ [ 844767.016839325078763, 8356314.630318499170244 ], [ 844766.870287940953858, 8356159.791545698419213 ], [ 844572.306925591081381, 8356159.64595290645957 ], [ 844572.451995540875942, 8356314.485830683261156 ], [ 844767.016839325078763, 8356314.630318499170244 ] ] ] } },
{ "type": "Feature", "properties": { }, "geometry": { "type": "Polygon", "coordinates": [ [ [ 842395.402119840844534, 8354784.687512010335922 ], [ 842395.268529339227825, 8354629.851658824831247 ], [ 842200.721729732700624, 8354629.689428850077093 ], [ 842200.853837613016367, 8354784.526388653554022 ], [ 842395.402119840844534, 8354784.687512010335922 ] ] ] } },
{ "type": "Feature", "properties": { }, "geometry": { "type": "Polygon", "coordinates": [ [ [ 899396.128338782815263, 8371275.133151412010193 ], [ 899395.656501427525654, 8371120.219101926311851 ], [ 899200.868510358035564, 8371120.485975971445441 ], [ 899201.338878728798591, 8371275.401093098334968 ], [ 899396.128338782815263, 8371275.133151412010193 ] ] ] } },
{ "type": "Feature", "properties": { }, "geometry": { "type": "Polygon", "coordinates": [ [ [ 837370.16518676688429, 8255623.221872504800558 ], [ 837369.917360250488855, 8255468.380455701611936 ], [ 837176.204194483114406, 8255468.337879780679941 ], [ 837176.450466423062608, 8255623.180409282445908 ], [ 837370.16518676688429, 8255623.221872504800558 ] ] ] } },
{ "type": "Feature", "properties": { }, "geometry": { "type": "Polygon", "coordinates": [ [ [ 840119.810058457776904, 8256536.186297246254981 ], [ 840119.544789033592679, 8256381.341464951634407 ], [ 839925.818998859031126, 8256381.320940400473773 ], [ 839926.082714461022988, 8256536.166883540339768 ], [ 840119.810058457776904, 8256536.186297246254981 ] ] ] } },
{ "type": "Feature", "properties": { }, "geometry": { "type": "Polygon", "coordinates": [ [ [ 820214.368370447074994, 8264539.080127810128033 ], [ 820214.250523183727637, 8264384.261242565698922 ], [ 820020.490491891978309, 8264384.058173635974526 ], [ 820020.606790403835475, 8264538.878182744607329 ], [ 820214.368370447074994, 8264539.080127810128033 ] ] ] } },
{ "type": "Feature", "properties": { }, "geometry": { "type": "Polygon", "coordinates": [ [ [ 799397.688901307061315, 8259710.35656999796629 ], [ 799397.706284361775033, 8259555.56167837139219 ], [ 799204.020984215661883, 8259555.188230043277144 ], [ 799204.002048121299595, 8259709.984259503893554 ], [ 799397.688901307061315, 8259710.35656999796629 ] ] ] } },
{ "type": "Feature", "properties": { }, "geometry": { "type": "Polygon", "coordinates": [ [ [ 715667.893375903135166, 8385894.132623485289514 ], [ 715668.605191539158113, 8385739.437219125218689 ], [ 715473.99472456111107, 8385738.218397298827767 ], [ 715473.281443744315766, 8385892.914993417449296 ], [ 715667.893375903135166, 8385894.132623485289514 ] ] ] } },
{ "type": "Feature", "properties": { }, "geometry": { "type": "Polygon", "coordinates": [ [ [ 718378.38690791092813, 8405722.843188866972923 ], [ 718379.100988985272124, 8405568.147878529503942 ], [ 718184.331023304839619, 8405566.929762374609709 ], [ 718183.615491638192907, 8405721.626262363046408 ], [ 718378.38690791092813, 8405722.843188866972923 ] ] ] } },
{ "type": "Feature", "properties": { }, "geometry": { "type": "Polygon", "coordinates": [ [ [ 805630.680394478025846, 8439495.733688805252314 ], [ 805630.906084314337932, 8439340.954713964834809 ], [ 805435.721990797435865, 8439340.35921123623848 ], [ 805435.494881799793802, 8439495.139316020533442 ], [ 805630.680394478025846, 8439495.733688805252314 ] ] ] } },
{ "type": "Feature", "properties": { }, "geometry": { "type": "Polygon", "coordinates": [ [ [ 804942.381612224737182, 8443796.709499152377248 ], [ 804942.607302061049268, 8443641.930524311959743 ], [ 804747.423208544147201, 8443641.335021583363414 ], [ 804747.196099546505138, 8443796.115126367658377 ], [ 804942.381612224737182, 8443796.709499152377248 ] ] ] } },
{ "type": "Feature", "properties": { }, "geometry": { "type": "Polygon", "coordinates": [ [ [ 809264.755312177236192, 8434930.850573342293501 ], [ 809264.981002013548277, 8434776.071598501875997 ], [ 809069.796908496646211, 8434775.476095773279667 ], [ 809069.569799499004148, 8434930.25620055757463 ], [ 809264.755312177236192, 8434930.850573342293501 ] ] ] } },
{ "type": "Feature", "properties": { }, "geometry": { "type": "Polygon", "coordinates": [ [ [ 801773.710793406120501, 8257415.741578314453363 ], [ 801773.936483242432587, 8257260.962603474035859 ], [ 801578.75238972553052, 8257260.367100745439529 ], [ 801578.525280727888457, 8257415.147205529734492 ], [ 801773.710793406120501, 8257415.741578314453363 ] ] ] } },
{ "type": "Feature", "properties": { }, "geometry": { "type": "Polygon", "coordinates": [ [ [ 838515.670400466886349, 8247260.659803882241249 ], [ 838515.896090303198434, 8247105.880829041823745 ], [ 838320.711996786296368, 8247105.285326313227415 ], [ 838320.484887788654305, 8247260.065431097522378 ], [ 838515.670400466886349, 8247260.659803882241249 ] ] ] } },
{ "type": "Feature", "properties": { }, "geometry": { "type": "Polygon", "coordinates": [ [ [ 825750.046094378340058, 8265342.76809776481241 ], [ 825750.271784214652143, 8265187.989122924394906 ], [ 825555.087690697750077, 8265187.393620195798576 ], [ 825554.860581700108014, 8265342.173724980093539 ], [ 825750.046094378340058, 8265342.76809776481241 ] ] ] } },
{ "type": "Feature", "properties": { }, "geometry": { "type": "Polygon", "coordinates": [ [ [ 748803.680868754396215, 8303260.720054297707975 ], [ 748803.9065585907083, 8303105.941079457290471 ], [ 748608.722465073806234, 8303105.345576728694141 ], [ 748608.495356076164171, 8303260.125681512989104 ], [ 748803.680868754396215, 8303260.720054297707975 ] ] ] } },
{ "type": "Feature", "properties": { }, "geometry": { "type": "Polygon", "coordinates": [ [ [ 727573.408066926174797, 8395788.761015731841326 ], [ 727573.633756762486883, 8395633.982040889561176 ], [ 727378.449663245584816, 8395633.386538162827492 ], [ 727378.222554247942753, 8395788.166642945259809 ], [ 727573.408066926174797, 8395788.761015731841326 ] ] ] } },
{ "type": "Feature", "properties": { }, "geometry": { "type": "Polygon", "coordinates": [ [ [ 731391.148203723947518, 8407124.293033303692937 ], [ 731391.373893560259603, 8406969.514058461412787 ], [ 731196.189800043357536, 8406968.918555734679103 ], [ 731195.962691045715474, 8407123.698660517111421 ], [ 731391.148203723947518, 8407124.293033303692937 ] ] ] } },
{ "type": "Feature", "properties": { }, "geometry": { "type": "Polygon", "coordinates": [ [ [ 766069.994621492223814, 8438201.161367781460285 ], [ 766070.2203113285359, 8438046.382392939180136 ], [ 765875.036217811633833, 8438045.786890212446451 ], [ 765874.80910881399177, 8438200.566994994878769 ], [ 766069.994621492223814, 8438201.161367781460285 ] ] ] } },
{ "type": "Feature", "properties": { }, "geometry": { "type": "Polygon", "coordinates": [ [ [ 772674.809879175038077, 8445993.559498472139239 ], [ 772675.035569011350162, 8445838.78052362985909 ], [ 772479.851475494448096, 8445838.185020903125405 ], [ 772479.624366496806033, 8445992.965125685557723 ], [ 772674.809879175038077, 8445993.559498472139239 ] ] ] } },
{ "type": "Feature", "properties": { }, "geometry": { "type": "Polygon", "coordinates": [ [ [ 800032.903316269395873, 8448267.085268868133426 ], [ 800033.129006105707958, 8448112.306294025853276 ], [ 799837.944912588805892, 8448111.710791299119592 ], [ 799837.717803591163829, 8448266.490896081551909 ], [ 800032.903316269395873, 8448267.085268868133426 ] ] ] } },
{ "type": "Feature", "properties": { }, "geometry": { "type": "Polygon", "coordinates": [ [ [ 846764.111053335247561, 8356609.225151316262782 ], [ 846764.336743171559647, 8356454.446176473982632 ], [ 846569.15264965465758, 8356453.850673747248948 ], [ 846568.925540657015517, 8356608.630778529681265 ], [ 846764.111053335247561, 8356609.225151316262782 ] ] ] } },
{ "type": "Feature", "properties": { }, "geometry": { "type": "Polygon", "coordinates": [ [ [ 882401.404609604156576, 8322670.389082340523601 ], [ 882401.630299440468661, 8322515.610107498243451 ], [ 882206.446205923566595, 8322515.014604771509767 ], [ 882206.219096925924532, 8322669.794709553942084 ], [ 882401.404609604156576, 8322670.389082340523601 ] ] ] } },
{ "type": "Feature", "properties": { }, "geometry": { "type": "Polygon", "coordinates": [ [ [ 919244.11261354922317, 8246485.877884477376938 ], [ 919244.338303385535255, 8246331.098909635096788 ], [ 919049.154209868633188, 8246330.503406908363104 ], [ 919048.927100870991126, 8246485.283511690795422 ], [ 919244.11261354922317, 8246485.877884477376938 ] ] ] } },
{ "type": "Feature", "properties": { }, "geometry": { "type": "Polygon", "coordinates": [ [ [ 902928.221790709998459, 8246286.164248178713024 ], [ 902928.447480546310544, 8246131.385273336432874 ], [ 902733.263387029408477, 8246130.78977060969919 ], [ 902733.036278031766415, 8246285.569875392131507 ], [ 902928.221790709998459, 8246286.164248178713024 ] ] ] } },
{ "type": "Feature", "properties": { }, "geometry": { "type": "Polygon", "coordinates": [ [ [ 854793.669127132860012, 8274782.803727936930954 ], [ 854793.894816969172098, 8274628.024753094650805 ], [ 854598.710723452270031, 8274627.42925036791712 ], [ 854598.483614454627968, 8274782.209355150349438 ], [ 854793.669127132860012, 8274782.803727936930954 ] ] ] } },
{ "type": "Feature", "properties": { }, "geometry": { "type": "Polygon", "coordinates": [ [ [ 776669.974183936952613, 8299069.40842816606164 ], [ 776670.199873773264699, 8298914.62945332378149 ], [ 776475.015780256362632, 8298914.033950597047806 ], [ 776474.788671258720569, 8299068.814055379480124 ], [ 776669.974183936952613, 8299069.40842816606164 ] ] ] } },
{ "type": "Feature", "properties": { }, "geometry": { "type": "Polygon", "coordinates": [ [ [ 746120.920459686545655, 8356504.910439494997263 ], [ 746121.146149522857741, 8356350.131464652717113 ], [ 745925.962056005955674, 8356349.535961925983429 ], [ 745925.734947008313611, 8356504.316066708415747 ], [ 746120.920459686545655, 8356504.910439494997263 ] ] ] } },
{ "type": "Feature", "properties": { }, "geometry": { "type": "Polygon", "coordinates": [ [ [ 844114.33905740652699, 8402981.126658782362938 ], [ 844114.564747242839076, 8402826.347683940082788 ], [ 843919.380653725937009, 8402825.752181213349104 ], [ 843919.153544728294946, 8402980.532285995781422 ], [ 844114.33905740652699, 8402981.126658782362938 ] ] ] } }
]
}
