{
"type": "FeatureCollection",
"name": "homogeneity_samples_sbsr",
"crs": { "type": "name", "properties": { "name": "urn:ogc:def:crs:OGC:1.3:CRS84" } },
"features": [
{ "type": "Feature", "properties": { "Class": "Forest", "Sample": "W" }, "geometry": { "type": "Polygon", "coordinates": [ [ [ -45.677948, -7.765833 ], [ -45.685214, -7.767115 ], [ -45.676879, -7.779368 ], [ -45.675027, -7.784283 ], [ -45.669969, -7.786278 ], [ -45.669043, -7.790409 ], [ -45.664627, -7.791051 ], [ -45.663843, -7.794114 ], [ -45.659996, -7.793758 ], [ -45.658358, -7.788344 ], [ -45.67118, -7.775236 ], [ -45.677948, -7.765833 ] ] ] } },
{ "type": "Feature", "properties": { "Class": "Forest", "Sample": "U" }, "geometry": { "type": "Polygon", "coordinates": [ [ [ -47.994998, -9.638787 ], [ -47.985504, -9.679107 ], [ -47.965512, -9.67799 ], [ -47.973219, -9.639681 ], [ -47.994998, -9.638787 ] ] ] } },
{ "type": "Feature", "properties": { "Class": "Forest", "Sample": "B" }, "geometry": { "type": "Polygon", "coordinates": [ [ [ -48.443426, -8.50895 ], [ -48.369041, -8.506716 ], [ -48.360106, -8.549157 ], [ -48.435831, -8.555635 ], [ -48.443426, -8.50895 ] ] ] } },
{ "type": "Feature", "properties": { "Class": "Forest", "Sample": "R" }, "geometry": { "type": "Polygon", "coordinates": [ [ [ -44.36944, -12.838084 ], [ -44.370949, -12.872033 ], [ -44.289094, -12.856379 ], [ -44.296261, -12.821109 ], [ -44.36944, -12.838084 ] ] ] } },
{ "type": "Feature", "properties": { "Class": "Forest", "Sample": "G" }, "geometry": { "type": "Polygon", "coordinates": [ [ [ -48.426205, -10.076739 ], [ -48.411772, -10.069223 ], [ -48.41254, -10.088951 ], [ -48.430731, -10.090318 ], [ -48.426205, -10.076739 ] ] ] } },
{ "type": "Feature", "properties": { "Class": "Savanna", "Sample": "W" }, "geometry": { "type": "Polygon", "coordinates": [ [ [ -45.205462633304961, -8.777853747000895 ], [ -45.245106401969807, -8.917650194397963 ], [ -45.144953723237577, -8.93503781223342 ], [ -45.072621233042078, -8.798023383690024 ], [ -45.205462633304961, -8.777853747000895 ] ] ] } },
{ "type": "Feature", "properties": { "Class": "Savanna", "Sample": "U" }, "geometry": { "type": "Polygon", "coordinates": [ [ [ -45.919789443030091, -10.674973259982973 ], [ -45.950043898063782, -10.71061787654566 ], [ -45.914181936278169, -10.733960753489763 ], [ -45.861540923281311, -10.64750082380295 ], [ -45.906053224940081, -10.641936786095604 ], [ -45.919789443030091, -10.674973259982973 ] ] ] } },
{ "type": "Feature", "properties": { "Class": "Savanna", "Sample": "B" }, "geometry": { "type": "Polygon", "coordinates": [ [ [ -44.789374, -14.766591 ], [ -44.810121, -14.831472 ], [ -44.760328, -14.910309 ], [ -44.727133, -14.854482 ], [ -44.68564, -14.788846 ], [ -44.730528, -14.750371 ], [ -44.789374, -14.766591 ] ] ] } },
{ "type": "Feature", "properties": { "Class": "Savanna", "Sample": "R" }, "geometry": { "type": "Polygon", "coordinates": [ [ [ -45.973430244052537, -9.46792482984554 ], [ -46.018638050424727, -9.510002865007346 ], [ -45.989426852461158, -9.568773013291192 ], [ -45.96369317806468, -9.605287010745652 ], [ -45.893447202009433, -9.587899392910195 ], [ -45.884405640734997, -9.525999473415967 ], [ -45.87710284124411, -9.482182676470615 ], [ -45.973430244052537, -9.46792482984554 ] ] ] } },
{ "type": "Feature", "properties": { "Class": "Savanna", "Sample": "G" }, "geometry": { "type": "Polygon", "coordinates": [ [ [ -45.476705, -6.569871 ], [ -45.472933, -6.642673 ], [ -45.265465, -6.637769 ], [ -45.256789, -6.57402 ], [ -45.476705, -6.569871 ] ] ] } },
{ "type": "Feature", "properties": { "Class": "Grasslands", "Sample": "W" }, "geometry": { "type": "Polygon", "coordinates": [ [ [ -45.763246, -6.482357 ], [ -45.771686, -6.482357 ], [ -45.779608, -6.50268 ], [ -45.765745, -6.503057 ], [ -45.762492, -6.497729 ], [ -45.757494, -6.491457 ], [ -45.763246, -6.482357 ] ] ] } },
{ "type": "Feature", "properties": { "Class": "Grasslands", "Sample": "U" }, "geometry": { "type": "Polygon", "coordinates": [ [ [ -47.061004, -7.209956 ], [ -47.059118, -7.225988 ], [ -47.007534, -7.221555 ], [ -47.009231, -7.206278 ], [ -47.061004, -7.209956 ] ] ] } },
{ "type": "Feature", "properties": { "Class": "Grasslands", "Sample": "B" }, "geometry": { "type": "Polygon", "coordinates": [ [ [ -46.050283514885272, -10.15856101026991 ], [ -46.020376812208283, -10.17264498071663 ], [ -46.014812774500939, -10.187424455876769 ], [ -46.014291145965871, -10.199595788361588 ], [ -46.02941837348272, -10.205159826068934 ], [ -46.038286058578805, -10.199943540718298 ], [ -46.064019732975282, -10.186033446449931 ], [ -46.050283514885272, -10.15856101026991 ] ] ] } },
{ "type": "Feature", "properties": { "Class": "Grasslands", "Sample": "R" }, "geometry": { "type": "Polygon", "coordinates": [ [ [ -44.837931861307993, -13.972621920566604 ], [ -44.841757137231795, -13.985141005408135 ], [ -44.83358495684913, -13.99200911445314 ], [ -44.824456457485518, -13.991748300185607 ], [ -44.817936100797219, -13.98557569585402 ], [ -44.815675710478608, -13.980881039038447 ], [ -44.815762648567784, -13.974534558528505 ], [ -44.822630757612792, -13.96992683980211 ], [ -44.837931861307993, -13.972621920566604 ] ] ] } },
{ "type": "Feature", "properties": { "Class": "Grasslands", "Sample": "G" }, "geometry": { "type": "Polygon", "coordinates": [ [ [ -44.969824, -15.40901 ], [ -44.969022, -15.42721 ], [ -44.951246, -15.42655 ], [ -44.950444, -15.410047 ], [ -44.969824, -15.40901 ] ] ] } }
]
}
