{
"type": "FeatureCollection",
"name": "homogeneity_samples_paper_01",
"crs": { "type": "name", "properties": { "name": "urn:ogc:def:crs:OGC:1.3:CRS84" } },
"features": [
{ "type": "Feature", "properties": { "class": "Fo", "domain": "05", "sample": "W" }, "geometry": { "type": "Polygon", "coordinates": [ [ [ -43.035000613991414, -16.80843386328441 ], [ -43.034935338978116, -16.810170178638078 ], [ -43.032977088579251, -16.810196288643397 ], [ -43.03301625358722, -16.808407753279091 ], [ -43.035000613991414, -16.80843386328441 ] ] ] } },
{ "type": "Feature", "properties": { "class": "Fo", "domain": "05", "sample": "U" }, "geometry": { "type": "Polygon", "coordinates": [ [ [ -43.418255324535693, -16.660625739139221 ], [ -43.420795415287088, -16.660721591620405 ], [ -43.420811390700614, -16.663022051168838 ], [ -43.418415078671003, -16.663229731544735 ], [ -43.418255324535693, -16.660625739139221 ] ] ] } },
{ "type": "Feature", "properties": { "class": "Fo", "domain": "05", "sample": "B" }, "geometry": { "type": "Polygon", "coordinates": [ [ [ -43.134252910135572, -17.115403152841562 ], [ -43.129048425489728, -17.115637589086869 ], [ -43.129095312738791, -17.111417736671317 ], [ -43.134393571882761, -17.11146462392038 ], [ -43.134252910135572, -17.115403152841562 ] ] ] } },
{ "type": "Feature", "properties": { "class": "Fo", "domain": "05", "sample": "R" }, "geometry": { "type": "Polygon", "coordinates": [ [ [ -43.693491156620162, -18.4336405763184 ], [ -43.693461794700099, -18.435259228065284 ], [ -43.691639778595913, -18.43523994747159 ], [ -43.691678339783302, -18.43358181641381 ], [ -43.693491156620162, -18.4336405763184 ] ] ] } },
{ "type": "Feature", "properties": { "class": "Fo", "domain": "05", "sample": "G" }, "geometry": { "type": "Polygon", "coordinates": [ [ [ -43.886115334036241, -17.510003155665167 ], [ -43.884604763397626, -17.510018768911937 ], [ -43.884635141477837, -17.508815796935494 ], [ -43.8861115161762, -17.508827948167578 ], [ -43.886115334036241, -17.510003155665167 ] ] ] } },
{ "type": "Feature", "properties": { "class": "Sv", "domain": "05", "sample": "W" }, "geometry": { "type": "Polygon", "coordinates": [ [ [ -43.272027584772211, -17.840270561596189 ], [ -43.277529202157787, -17.839680349769385 ], [ -43.278372361910364, -17.845076572185889 ], [ -43.272997218487674, -17.846088363888985 ], [ -43.272027584772211, -17.840270561596189 ] ] ] } },
{ "type": "Feature", "properties": { "class": "Sv", "domain": "05", "sample": "U" }, "geometry": { "type": "Polygon", "coordinates": [ [ [ -44.183401999648417, -17.540355923877904 ], [ -44.183245653640427, -17.543328349974011 ], [ -44.180465947962603, -17.543387716379563 ], [ -44.180625515989007, -17.540308053469985 ], [ -44.183401999648417, -17.540355923877904 ] ] ] } },
{ "type": "Feature", "properties": { "class": "Sv", "domain": "05", "sample": "B" }, "geometry": { "type": "Polygon", "coordinates": [ [ [ -44.225625622988694, -17.355755211973388 ], [ -44.228707492850518, -17.358619857527771 ], [ -44.225036007949647, -17.360340777853825 ], [ -44.221783468050823, -17.357235052567834 ], [ -44.225625622988694, -17.355755211973388 ] ] ] } },
{ "type": "Feature", "properties": { "class": "Sv", "domain": "05", "sample": "R" }, "geometry": { "type": "Polygon", "coordinates": [ [ [ -43.932223833794936, -17.598532254597018 ], [ -43.932209443328006, -17.600662043702823 ], [ -43.929791844883574, -17.600676434169756 ], [ -43.929835016284372, -17.598474692729294 ], [ -43.932223833794936, -17.598532254597018 ] ] ] } },
{ "type": "Feature", "properties": { "class": "Sv", "domain": "05", "sample": "G" }, "geometry": { "type": "Polygon", "coordinates": [ [ [ -43.535671363028989, -17.05820587095759 ], [ -43.541973982179542, -17.057751355153464 ], [ -43.542640605358926, -17.064872102751444 ], [ -43.536307685154767, -17.065417521716395 ], [ -43.535671363028989, -17.05820587095759 ] ] ] } },
{ "type": "Feature", "properties": { "class": "Gl", "domain": "05", "sample": "W" }, "geometry": { "type": "Polygon", "coordinates": [ [ [ -44.012997434999782, -18.245175229368026 ], [ -44.013126341154262, -18.247914485150734 ], [ -44.010685180853791, -18.247930598420044 ], [ -44.010556274699312, -18.245102719656131 ], [ -44.012997434999782, -18.245175229368026 ] ] ] } },
{ "type": "Feature", "properties": { "class": "Gl", "domain": "05", "sample": "U" }, "geometry": { "type": "Polygon", "coordinates": [ [ [ -43.823709212646094, -18.345311968312195 ], [ -43.825558945023985, -18.345305761156563 ], [ -43.8256023951134, -18.347068593355626 ], [ -43.823703005490465, -18.347149286378823 ], [ -43.823709212646094, -18.345311968312195 ] ] ] } },
{ "type": "Feature", "properties": { "class": "Gl", "domain": "05", "sample": "B" }, "geometry": { "type": "Polygon", "coordinates": [ [ [ -43.541479993128739, -17.042477520901656 ], [ -43.543179385663734, -17.042270277909584 ], [ -43.544174152025683, -17.044619031819742 ], [ -43.542405678493331, -17.044840091011284 ], [ -43.541479993128739, -17.042477520901656 ] ] ] } },
{ "type": "Feature", "properties": { "class": "Gl", "domain": "05", "sample": "R" }, "geometry": { "type": "Polygon", "coordinates": [ [ [ -42.803818751381762, -15.718775101212071 ], [ -42.805794741878991, -15.718838501505655 ], [ -42.805685968866037, -15.721666599842441 ], [ -42.803853009725721, -15.721729883378719 ], [ -42.803818751381762, -15.718775101212071 ] ] ] } },
{ "type": "Feature", "properties": { "class": "Gl", "domain": "05", "sample": "G" }, "geometry": { "type": "Polygon", "coordinates": [ [ [ -43.33923826057346, -16.492286278346963 ], [ -43.340498676306154, -16.492243309628805 ], [ -43.341787737850964, -16.49487872434263 ], [ -43.340455707587999, -16.495122213745539 ], [ -43.33923826057346, -16.492286278346963 ] ] ] } },
{ "type": "Feature", "properties": { "class": "Fo", "domain": "08", "sample": "W" }, "geometry": { "type": "Polygon", "coordinates": [ [ [ -45.619249079078322, -20.315888468387616 ], [ -45.621508470859027, -20.316027035747599 ], [ -45.621399858705303, -20.318525115283176 ], [ -45.619055179359577, -20.318564284506262 ], [ -45.619249079078322, -20.315888468387616 ] ] ] } },
{ "type": "Feature", "properties": { "class": "Fo", "domain": "08", "sample": "U" }, "geometry": { "type": "Polygon", "coordinates": [ [ [ -45.657834226317739, -20.262329560141545 ], [ -45.657834226317739, -20.265038616211967 ], [ -45.654530499402597, -20.265154246653996 ], [ -45.654580055306319, -20.262280004237816 ], [ -45.657834226317739, -20.262329560141545 ] ] ] } },
{ "type": "Feature", "properties": { "class": "Fo", "domain": "08", "sample": "B" }, "geometry": { "type": "Polygon", "coordinates": [ [ [ -46.116724235335049, -20.332686500972734 ], [ -46.116671132485244, -20.334545100715808 ], [ -46.114493915643358, -20.334744236402564 ], [ -46.114639948480317, -20.332805982384791 ], [ -46.116724235335049, -20.332686500972734 ] ] ] } },
{ "type": "Feature", "properties": { "class": "Fo", "domain": "08", "sample": "R" }, "geometry": { "type": "Polygon", "coordinates": [ [ [ -45.714835024278081, -20.117610737215156 ], [ -45.714874209587094, -20.121117822371918 ], [ -45.710838122758638, -20.121431304844034 ], [ -45.710975271340189, -20.117551959251635 ], [ -45.714835024278081, -20.117610737215156 ] ] ] } },
{ "type": "Feature", "properties": { "class": "Fo", "domain": "08", "sample": "G" }, "geometry": { "type": "Polygon", "coordinates": [ [ [ -46.242965641616948, -17.362598184631562 ], [ -46.243317025741391, -17.369324680728219 ], [ -46.235737168199634, -17.369123889799962 ], [ -46.235686970467569, -17.362397393703304 ], [ -46.242965641616948, -17.362598184631562 ] ] ] } },
{ "type": "Feature", "properties": { "class": "Sv", "domain": "08", "sample": "W" }, "geometry": { "type": "Polygon", "coordinates": [ [ [ -44.221131565099576, -19.182008099344699 ], [ -44.22131837092617, -19.184770156923619 ], [ -44.218676402807205, -19.184743470376965 ], [ -44.218422880613964, -19.181934711341391 ], [ -44.221131565099576, -19.182008099344699 ] ] ] } },
{ "type": "Feature", "properties": { "class": "Sv", "domain": "08", "sample": "U" }, "geometry": { "type": "Polygon", "coordinates": [ [ [ -44.479897020510073, -18.253142291168004 ], [ -44.479788011034046, -18.256552730489354 ], [ -44.477304152258903, -18.256513798533625 ], [ -44.477475452864084, -18.253118931994567 ], [ -44.479897020510073, -18.253142291168004 ] ] ] } },
{ "type": "Feature", "properties": { "class": "Sv", "domain": "08", "sample": "B" }, "geometry": { "type": "Polygon", "coordinates": [ [ [ -44.667604966590332, -18.776970081682098 ], [ -44.670960884283431, -18.777101318686857 ], [ -44.670848395422212, -18.780138517939829 ], [ -44.667454981442035, -18.780269754944587 ], [ -44.667604966590332, -18.776970081682098 ] ] ] } },
{ "type": "Feature", "properties": { "class": "Sv", "domain": "08", "sample": "R" }, "geometry": { "type": "Polygon", "coordinates": [ [ [ -45.000765684799561, -18.949414564908309 ], [ -45.00285666018118, -18.949414564908309 ], [ -45.00285666018118, -18.951742814092096 ], [ -45.000795344024837, -18.951713154866823 ], [ -45.000765684799561, -18.949414564908309 ] ] ] } },
{ "type": "Feature", "properties": { "class": "Sv", "domain": "08", "sample": "G" }, "geometry": { "type": "Polygon", "coordinates": [ [ [ -44.372479247394303, -18.996217702286074 ], [ -44.372565792878525, -18.999881461118008 ], [ -44.368728943078153, -18.999823764128529 ], [ -44.368873185551848, -18.996188853791335 ], [ -44.372479247394303, -18.996217702286074 ] ] ] } },
{ "type": "Feature", "properties": { "class": "Gl", "domain": "08", "sample": "W" }, "geometry": { "type": "Polygon", "coordinates": [ [ [ -45.957240002970792, -15.826079593449705 ], [ -45.951825057472156, -15.825902469064236 ], [ -45.951470808701224, -15.831241504111958 ], [ -45.95721469948716, -15.831418628497428 ], [ -45.957240002970792, -15.826079593449705 ] ] ] } },
{ "type": "Feature", "properties": { "class": "Gl", "domain": "08", "sample": "U" }, "geometry": { "type": "Polygon", "coordinates": [ [ [ -46.375933119327058, -17.498831401544798 ], [ -46.375839378609371, -17.503080980746503 ], [ -46.370589898419034, -17.503080980746503 ], [ -46.370652392230824, -17.498737660827114 ], [ -46.375933119327058, -17.498831401544798 ] ] ] } },
{ "type": "Feature", "properties": { "class": "Gl", "domain": "08", "sample": "B" }, "geometry": { "type": "Polygon", "coordinates": [ [ [ -46.436957820637559, -17.738427980465897 ], [ -46.436957820637559, -17.743102112222505 ], [ -46.432817149570567, -17.743330738232338 ], [ -46.432791746680586, -17.738453383355875 ], [ -46.436957820637559, -17.738427980465897 ] ] ] } },
{ "type": "Feature", "properties": { "class": "Gl", "domain": "08", "sample": "R" }, "geometry": { "type": "Polygon", "coordinates": [ [ [ -46.264391928101332, -17.386742565062292 ], [ -46.264306497371592, -17.382328644025804 ], [ -46.268492603128784, -17.382414074755541 ], [ -46.268691941498169, -17.386571703602815 ], [ -46.264391928101332, -17.386742565062292 ] ] ] } },
{ "type": "Feature", "properties": { "class": "Gl", "domain": "08", "sample": "G" }, "geometry": { "type": "Polygon", "coordinates": [ [ [ -45.610379310252796, -18.645836899493567 ], [ -45.610379310252796, -18.644562785792935 ], [ -45.611861258103175, -18.64460796712984 ], [ -45.611852221835797, -18.645854972028328 ], [ -45.610379310252796, -18.645836899493567 ] ] ] } },
{ "type": "Feature", "properties": { "class": "Fo", "domain": "01", "sample": "W" }, "geometry": { "type": "Polygon", "coordinates": [ [ [ -51.883356502550953, -14.298113399901714 ], [ -51.883003159161049, -14.286523736712878 ], [ -51.893391454824211, -14.286311730678936 ], [ -51.893391454824211, -14.297689387833829 ], [ -51.883356502550953, -14.298113399901714 ] ] ] } },
{ "type": "Feature", "properties": { "class": "Fo", "domain": "01", "sample": "U" }, "geometry": { "type": "Polygon", "coordinates": [ [ [ -51.186337145451787, -15.408775023207754 ], [ -51.186091632439705, -15.428069496172901 ], [ -51.166934340227954, -15.428717675232697 ], [ -51.167078380019021, -15.408336044796888 ], [ -51.186337145451787, -15.408775023207754 ] ] ] } },
{ "type": "Feature", "properties": { "class": "Fo", "domain": "01", "sample": "B" }, "geometry": { "type": "Polygon", "coordinates": [ [ [ -50.184549993842431, -13.844671260374691 ], [ -50.184687547789245, -13.851514569228742 ], [ -50.176124814600001, -13.85196161955589 ], [ -50.175849706706373, -13.844740037348098 ], [ -50.184549993842431, -13.844671260374691 ] ] ] } },
{ "type": "Feature", "properties": { "class": "Fo", "domain": "01", "sample": "R" }, "geometry": { "type": "Polygon", "coordinates": [ [ [ -46.738081239853202, -14.378799728136597 ], [ -46.741493064172538, -14.380983295700972 ], [ -46.737699115529431, -14.386087384882698 ], [ -46.734341880399207, -14.383821933534659 ], [ -46.738081239853202, -14.378799728136597 ] ] ] } },
{ "type": "Feature", "properties": { "class": "Fo", "domain": "01", "sample": "G" }, "geometry": { "type": "Polygon", "coordinates": [ [ [ -49.743821346054176, -9.346124272881665 ], [ -49.760079736129413, -9.339423179674981 ], [ -49.771174988815886, -9.356889963607159 ], [ -49.755246160701638, -9.366117698514726 ], [ -49.743821346054176, -9.346124272881665 ] ] ] } },
{ "type": "Feature", "properties": { "class": "Sv", "domain": "01", "sample": "W" }, "geometry": { "type": "Polygon", "coordinates": [ [ [ -51.849920031013454, -14.361075830097274 ], [ -51.849893868335769, -14.36565429869303 ], [ -51.845367725095386, -14.36565429869303 ], [ -51.84542005045077, -14.360971179386514 ], [ -51.849920031013454, -14.361075830097274 ] ] ] } },
{ "type": "Feature", "properties": { "class": "Sv", "domain": "01", "sample": "U" }, "geometry": { "type": "Polygon", "coordinates": [ [ [ -52.464843970179146, -14.449497870712158 ], [ -52.464965062161674, -14.447603137338486 ], [ -52.466781441899599, -14.447610260396281 ], [ -52.466792126486283, -14.449451570836485 ], [ -52.464843970179146, -14.449497870712158 ] ] ] } },
{ "type": "Feature", "properties": { "class": "Sv", "domain": "01", "sample": "B" }, "geometry": { "type": "Polygon", "coordinates": [ [ [ -47.466645599332317, -12.85613407276921 ], [ -47.466706843195809, -12.853884257439219 ], [ -47.46462790231682, -12.853764778078357 ], [ -47.464604006444652, -12.856162330586304 ], [ -47.466645599332317, -12.85613407276921 ] ] ] } },
{ "type": "Feature", "properties": { "class": "Sv", "domain": "01", "sample": "R" }, "geometry": { "type": "Polygon", "coordinates": [ [ [ -46.643850633973919, -14.435197337007082 ], [ -46.643875855870391, -14.438917566736666 ], [ -46.640306957519634, -14.438993232426082 ], [ -46.64026912467493, -14.435146893214139 ], [ -46.643850633973919, -14.435197337007082 ] ] ] } },
{ "type": "Feature", "properties": { "class": "Sv", "domain": "01", "sample": "G" }, "geometry": { "type": "Polygon", "coordinates": [ [ [ -49.412954939602344, -10.624844744999399 ], [ -49.415160716788421, -10.624901272173851 ], [ -49.415274456401079, -10.627978503260968 ], [ -49.413040649230012, -10.627919577891946 ], [ -49.412954939602344, -10.624844744999399 ] ] ] } },
{ "type": "Feature", "properties": { "class": "Gl", "domain": "01", "sample": "W" }, "geometry": { "type": "Polygon", "coordinates": [ [ [ -49.25834775885874, -9.000688397586186 ], [ -49.261069528521517, -9.000735324649337 ], [ -49.260966288982587, -9.003851281642586 ], [ -49.258206977669289, -9.003841896229956 ], [ -49.25834775885874, -9.000688397586186 ] ] ] } },
{ "type": "Feature", "properties": { "class": "Gl", "domain": "01", "sample": "U" }, "geometry": { "type": "Polygon", "coordinates": [ [ [ -49.160481082795982, -9.219805422615009 ], [ -49.164215303712943, -9.221637944963978 ], [ -49.165084549292679, -9.218915533180702 ], [ -49.161901483239205, -9.216690809594938 ], [ -49.160481082795982, -9.219805422615009 ] ] ] } },
{ "type": "Feature", "properties": { "class": "Gl", "domain": "01", "sample": "B" }, "geometry": { "type": "Polygon", "coordinates": [ [ [ -49.112054135455161, -10.071834819156201 ], [ -49.112152245496496, -10.073561555883737 ], [ -49.109091212206771, -10.072639321495167 ], [ -49.109248188272907, -10.071128426858573 ], [ -49.112054135455161, -10.071834819156201 ] ] ] } },
{ "type": "Feature", "properties": { "class": "Gl", "domain": "01", "sample": "R" }, "geometry": { "type": "Polygon", "coordinates": [ [ [ -49.19037076021386, -10.247755114294906 ], [ -49.193085026026438, -10.248165922093566 ], [ -49.192967652369681, -10.250102587430108 ], [ -49.190091997779056, -10.249867840116588 ], [ -49.19037076021386, -10.247755114294906 ] ] ] } },
{ "type": "Feature", "properties": { "class": "Gl", "domain": "01", "sample": "G" }, "geometry": { "type": "Polygon", "coordinates": [ [ [ -47.195578333451998, -11.400678161148432 ], [ -47.191963852011277, -11.400518228341321 ], [ -47.194162928109058, -11.404772441010488 ], [ -47.196258047882225, -11.404956363738666 ], [ -47.195578333451998, -11.400678161148432 ] ] ] } },
{ "type": "Feature", "properties": { "class": "Fo", "domain": "07", "sample": "W" }, "geometry": { "type": "Polygon", "coordinates": [ [ [ -50.16061884624488, -10.990445683269318 ], [ -50.16061884624488, -10.997987612702731 ], [ -50.148307156034662, -10.997661475213718 ], [ -50.148429457593039, -10.990241847338686 ], [ -50.16061884624488, -10.990445683269318 ] ] ] } },
{ "type": "Feature", "properties": { "class": "Fo", "domain": "07", "sample": "U" }, "geometry": { "type": "Polygon", "coordinates": [ [ [ -49.609914805797565, -11.114252587596408 ], [ -49.609842847234127, -11.121506010789544 ], [ -49.603409751664032, -11.121563577640286 ], [ -49.603697585917729, -11.114079887044191 ], [ -49.609914805797565, -11.114252587596408 ] ] ] } },
{ "type": "Feature", "properties": { "class": "Fo", "domain": "07", "sample": "B" }, "geometry": { "type": "Polygon", "coordinates": [ [ [ -50.541943169511278, -12.557289346905463 ], [ -50.54211161414846, -12.570175361649909 ], [ -50.531078490413016, -12.569838472375544 ], [ -50.530910045775833, -12.557247235746168 ], [ -50.541943169511278, -12.557289346905463 ] ] ] } },
{ "type": "Feature", "properties": { "class": "Fo", "domain": "07", "sample": "R" }, "geometry": { "type": "Polygon", "coordinates": [ [ [ -50.911714488220866, -13.708974804866036 ], [ -50.900356302174941, -13.708239382747955 ], [ -50.900601442880969, -13.719597568793874 ], [ -50.911714488220866, -13.719597568793874 ], [ -50.911714488220866, -13.708974804866036 ] ] ] } },
{ "type": "Feature", "properties": { "class": "Fo", "domain": "07", "sample": "G" }, "geometry": { "type": "Polygon", "coordinates": [ [ [ -50.912183082599292, -13.488237818578057 ], [ -50.907966590777058, -13.488237818578057 ], [ -50.907836852567144, -13.492065095770545 ], [ -50.912345255361686, -13.492000226665589 ], [ -50.912183082599292, -13.488237818578057 ] ] ] } },
{ "type": "Feature", "properties": { "class": "Sv", "domain": "07", "sample": "W" }, "geometry": { "type": "Polygon", "coordinates": [ [ [ -50.937230271092261, -13.632964695660183 ], [ -50.931193681206338, -13.633041302130817 ], [ -50.931316251559352, -13.637959437545486 ], [ -50.937092379445126, -13.638158614369132 ], [ -50.937230271092261, -13.632964695660183 ] ] ] } },
{ "type": "Feature", "properties": { "class": "Sv", "domain": "07", "sample": "U" }, "geometry": { "type": "Polygon", "coordinates": [ [ [ -50.618371297571855, -12.903707987293155 ], [ -50.618458319834552, -12.907589180209277 ], [ -50.613776522101652, -12.907432540136428 ], [ -50.613828735459265, -12.90349913386269 ], [ -50.618371297571855, -12.903707987293155 ] ] ] } },
{ "type": "Feature", "properties": { "class": "Sv", "domain": "07", "sample": "B" }, "geometry": { "type": "Polygon", "coordinates": [ [ [ -51.461429211885651, -11.804219811536132 ], [ -51.461329489076512, -11.806570420608724 ], [ -51.458366297033493, -11.8064422055684 ], [ -51.458480265958222, -11.803920643108711 ], [ -51.461429211885651, -11.804219811536132 ] ] ] } },
{ "type": "Feature", "properties": { "class": "Sv", "domain": "07", "sample": "R" }, "geometry": { "type": "Polygon", "coordinates": [ [ [ -51.17569229222601, -11.722594687301495 ], [ -51.172564345520428, -11.722317332421197 ], [ -51.17251811970705, -11.725583956566926 ], [ -51.175491980368015, -11.725614773775847 ], [ -51.17569229222601, -11.722594687301495 ] ] ] } },
{ "type": "Feature", "properties": { "class": "Sv", "domain": "07", "sample": "G" }, "geometry": { "type": "Polygon", "coordinates": [ [ [ -50.860479519605896, -11.316879379701797 ], [ -50.851709870682598, -11.316692791426833 ], [ -50.851629904279037, -11.323383313857684 ], [ -50.860159653991673, -11.323809801343318 ], [ -50.860479519605896, -11.316879379701797 ] ] ] } },
{ "type": "Feature", "properties": { "class": "Gl", "domain": "07", "sample": "W" }, "geometry": { "type": "Polygon", "coordinates": [ [ [ -51.074454253695095, -12.039168200508627 ], [ -51.068659493647942, -12.038689575397205 ], [ -51.069027563099823, -12.032120951332789 ], [ -51.075086552538551, -12.032687212027998 ], [ -51.074454253695095, -12.039168200508627 ] ] ] } },
{ "type": "Feature", "properties": { "class": "Gl", "domain": "07", "sample": "U" }, "geometry": { "type": "Polygon", "coordinates": [ [ [ -51.075565749371926, -11.92392518921252 ], [ -51.075388344913613, -11.926704525726027 ], [ -51.072325161266818, -11.926822795364901 ], [ -51.072443430905686, -11.923901535284745 ], [ -51.075565749371926, -11.92392518921252 ] ] ] } },
{ "type": "Feature", "properties": { "class": "Gl", "domain": "07", "sample": "B" }, "geometry": { "type": "Polygon", "coordinates": [ [ [ -51.367908047469513, -13.993792107592151 ], [ -51.358866512774114, -13.994048000083531 ], [ -51.358567971534171, -14.002918939784674 ], [ -51.367950696218074, -14.002151262310536 ], [ -51.367908047469513, -13.993792107592151 ] ] ] } },
{ "type": "Feature", "properties": { "class": "Gl", "domain": "07", "sample": "R" }, "geometry": { "type": "Polygon", "coordinates": [ [ [ -51.469550346822693, -12.932158919033988 ], [ -51.469400045823292, -12.935110284113128 ], [ -51.466161742472565, -12.935137611567564 ], [ -51.466216397381437, -12.932186246488424 ], [ -51.469550346822693, -12.932158919033988 ] ] ] } },
{ "type": "Feature", "properties": { "class": "Gl", "domain": "07", "sample": "G" }, "geometry": { "type": "Polygon", "coordinates": [ [ [ -51.841191391405332, -10.830700874004211 ], [ -51.838620908322284, -10.830744889125496 ], [ -51.838620908322284, -10.832866417971431 ], [ -51.841138573259776, -10.832782789240987 ], [ -51.841191391405332, -10.830700874004211 ] ] ] } },
{ "type": "Feature", "properties": { "class": "Fo", "domain": "06", "sample": "W" }, "geometry": { "type": "Polygon", "coordinates": [ [ [ -53.458616047714969, -14.069948986335802 ], [ -53.453887486942008, -14.070027795682018 ], [ -53.453848082268898, -14.07649016207173 ], [ -53.459010094446043, -14.076726590110377 ], [ -53.458616047714969, -14.069948986335802 ] ] ] } },
{ "type": "Feature", "properties": { "class": "Fo", "domain": "06", "sample": "U" }, "geometry": { "type": "Polygon", "coordinates": [ [ [ -54.84396287012941, -14.929623420530953 ], [ -54.837197297284192, -14.929175099438799 ], [ -54.837238053747114, -14.935044030099714 ], [ -54.843596061963105, -14.935451594728944 ], [ -54.84396287012941, -14.929623420530953 ] ] ] } },
{ "type": "Feature", "properties": { "class": "Fo", "domain": "06", "sample": "B" }, "geometry": { "type": "Polygon", "coordinates": [ [ [ -55.120115227070805, -14.822272268292751 ], [ -55.123918426562959, -14.822384692145709 ], [ -55.123716665495998, -14.826855917197545 ], [ -55.119951525324204, -14.826996232980344 ], [ -55.120115227070805, -14.822272268292751 ] ] ] } },
{ "type": "Feature", "properties": { "class": "Fo", "domain": "06", "sample": "R" }, "geometry": { "type": "Polygon", "coordinates": [ [ [ -56.754675052282934, -21.317413651768696 ], [ -56.754423619377341, -21.334511089349146 ], [ -56.741097675380814, -21.334133939990753 ], [ -56.740971958928014, -21.316785069504707 ], [ -56.754675052282934, -21.317413651768696 ] ] ] } },
{ "type": "Feature", "properties": { "class": "Fo", "domain": "06", "sample": "G" }, "geometry": { "type": "Polygon", "coordinates": [ [ [ -56.859886031574732, -20.054141415555318 ], [ -56.859166905141528, -20.069580400145561 ], [ -56.845111509612416, -20.069289031506578 ], [ -56.845932316388101, -20.053619083970791 ], [ -56.859886031574732, -20.054141415555318 ] ] ] } },
{ "type": "Feature", "properties": { "class": "Sv", "domain": "06", "sample": "W" }, "geometry": { "type": "Polygon", "coordinates": [ [ [ -57.024302271509001, -20.836262995386065 ], [ -57.02446813611931, -20.831287057076942 ], [ -57.029471718530147, -20.831425277585527 ], [ -57.029195277512976, -20.836235351284348 ], [ -57.024302271509001, -20.836262995386065 ] ] ] } },
{ "type": "Feature", "properties": { "class": "Sv", "domain": "06", "sample": "U" }, "geometry": { "type": "Polygon", "coordinates": [ [ [ -57.415648593228028, -21.940271913055877 ], [ -57.418903703102607, -21.940393979676177 ], [ -57.418720603172162, -21.943872878354629 ], [ -57.415567215481168, -21.943771156171049 ], [ -57.415648593228028, -21.940271913055877 ] ] ] } },
{ "type": "Feature", "properties": { "class": "Sv", "domain": "06", "sample": "B" }, "geometry": { "type": "Polygon", "coordinates": [ [ [ -55.212667998256407, -17.555859031652584 ], [ -55.211529250516229, -17.562735316083661 ], [ -55.204477774125124, -17.562866710053683 ], [ -55.205791713825327, -17.555683839692556 ], [ -55.212667998256407, -17.555859031652584 ] ] ] } },
{ "type": "Feature", "properties": { "class": "Sv", "domain": "06", "sample": "R" }, "geometry": { "type": "Polygon", "coordinates": [ [ [ -53.791381298543364, -13.967367341227773 ], [ -53.794223605603186, -13.967430503606879 ], [ -53.794076226718602, -13.971114975721463 ], [ -53.791233919658779, -13.970967596836878 ], [ -53.791381298543364, -13.967367341227773 ] ] ] } },
{ "type": "Feature", "properties": { "class": "Sv", "domain": "06", "sample": "G" }, "geometry": { "type": "Polygon", "coordinates": [ [ [ -55.271642239627923, -14.590157340347416 ], [ -55.268784420779973, -14.590135441352411 ], [ -55.268554481332437, -14.592774270250329 ], [ -55.27159844163792, -14.592763320752827 ], [ -55.271642239627923, -14.590157340347416 ] ] ] } },
{ "type": "Feature", "properties": { "class": "Gl", "domain": "06", "sample": "W" }, "geometry": { "type": "Polygon", "coordinates": [ [ [ -54.039790136006104, -14.024944071734518 ], [ -54.036935253024602, -14.024971367638241 ], [ -54.036834940578409, -14.027436187744581 ], [ -54.039801322915693, -14.027393196696215 ], [ -54.039790136006104, -14.024944071734518 ] ] ] } },
{ "type": "Feature", "properties": { "class": "Gl", "domain": "06", "sample": "U" }, "geometry": { "type": "Polygon", "coordinates": [ [ [ -53.227800489767766, -14.290364334544893 ], [ -53.224990951198194, -14.290568664622681 ], [ -53.225025006211155, -14.287043970780852 ], [ -53.227987792339071, -14.287163163326227 ], [ -53.227800489767766, -14.290364334544893 ] ] ] } },
{ "type": "Feature", "properties": { "class": "Gl", "domain": "06", "sample": "B" }, "geometry": { "type": "Polygon", "coordinates": [ [ [ -54.562354885140664, -14.364069830678076 ], [ -54.562293790447406, -14.366635807794932 ], [ -54.559495653496171, -14.36655027522437 ], [ -54.559495653496171, -14.364020954923468 ], [ -54.562354885140664, -14.364069830678076 ] ] ] } },
{ "type": "Feature", "properties": { "class": "Gl", "domain": "06", "sample": "R" }, "geometry": { "type": "Polygon", "coordinates": [ [ [ -56.558551756025842, -21.371538968597921 ], [ -56.55840834355525, -21.374970624144321 ], [ -56.554874250529849, -21.374919405404821 ], [ -56.554997175504646, -21.371497993606322 ], [ -56.558551756025842, -21.371538968597921 ] ] ] } },
{ "type": "Feature", "properties": { "class": "Gl", "domain": "06", "sample": "G" }, "geometry": { "type": "Polygon", "coordinates": [ [ [ -57.195288121807074, -20.710751485376584 ], [ -57.195235377403002, -20.712248107842328 ], [ -57.193890395098983, -20.712327224448448 ], [ -57.194068407462751, -20.710725113174544 ], [ -57.195288121807074, -20.710751485376584 ] ] ] } },
{ "type": "Feature", "properties": { "class": "Fo", "domain": "09", "sample": "W" }, "geometry": { "type": "Polygon", "coordinates": [ [ [ -58.171277937111171, -12.548439512537552 ], [ -58.171425334257513, -12.554237133626934 ], [ -58.162188446420195, -12.553844074570026 ], [ -58.162090181655969, -12.5482429830091 ], [ -58.171277937111171, -12.548439512537552 ] ] ] } },
{ "type": "Feature", "properties": { "class": "Fo", "domain": "09", "sample": "U" }, "geometry": { "type": "Polygon", "coordinates": [ [ [ -58.188526368774369, -13.320076138835995 ], [ -58.18883349542034, -13.329673846522688 ], [ -58.178237626134234, -13.329597064861193 ], [ -58.178160844472742, -13.320229702158983 ], [ -58.188526368774369, -13.320076138835995 ] ] ] } },
{ "type": "Feature", "properties": { "class": "Fo", "domain": "09", "sample": "B" }, "geometry": { "type": "Polygon", "coordinates": [ [ [ -56.256330701230048, -14.196989143905542 ], [ -56.256453533864601, -14.215913248625951 ], [ -56.231915755022889, -14.217942967470306 ], [ -56.231541579602087, -14.19820521402314 ], [ -56.256330701230048, -14.196989143905542 ] ] ] } },
{ "type": "Feature", "properties": { "class": "Fo", "domain": "09", "sample": "R" }, "geometry": { "type": "Polygon", "coordinates": [ [ [ -55.874211690351238, -13.127283006409208 ], [ -55.874381475152006, -13.132100650130985 ], [ -55.869563831430227, -13.131909642230122 ], [ -55.869924624131862, -13.127431568109879 ], [ -55.874211690351238, -13.127283006409208 ] ] ] } },
{ "type": "Feature", "properties": { "class": "Fo", "domain": "09", "sample": "G" }, "geometry": { "type": "Polygon", "coordinates": [ [ [ -52.118749191049645, -13.064594790109547 ], [ -52.118957907397082, -13.075708935610736 ], [ -52.107791582809035, -13.074717532960396 ], [ -52.107895940982758, -13.064490431935827 ], [ -52.118749191049645, -13.064594790109547 ] ] ] } },
{ "type": "Feature", "properties": { "class": "Sv", "domain": "09", "sample": "W" }, "geometry": { "type": "Polygon", "coordinates": [ [ [ -51.479918752600092, -12.59450475800703 ], [ -51.479918752600092, -12.598423191143844 ], [ -51.474855826616384, -12.598481385695381 ], [ -51.475088604822531, -12.594349572536265 ], [ -51.479918752600092, -12.59450475800703 ] ] ] } },
{ "type": "Feature", "properties": { "class": "Sv", "domain": "09", "sample": "U" }, "geometry": { "type": "Polygon", "coordinates": [ [ [ -51.834814840443158, -13.332888013258522 ], [ -51.834986712874063, -13.336727659578946 ], [ -51.830753049996467, -13.336668293476237 ], [ -51.830954128731449, -13.332626610903041 ], [ -51.834814840443158, -13.332888013258522 ] ] ] } },
{ "type": "Feature", "properties": { "class": "Sv", "domain": "09", "sample": "B" }, "geometry": { "type": "Polygon", "coordinates": [ [ [ -58.400200262757799, -13.005317429726421 ], [ -58.399779483390112, -13.015889511339696 ], [ -58.38768207656895, -13.015521329392964 ], [ -58.387313894622217, -13.004370676149112 ], [ -58.400200262757799, -13.005317429726421 ] ] ] } },
{ "type": "Feature", "properties": { "class": "Sv", "domain": "09", "sample": "R" }, "geometry": { "type": "Polygon", "coordinates": [ [ [ -53.897939663872911, -13.785822715772444 ], [ -53.897912290129121, -13.790141008336544 ], [ -53.893333102130718, -13.790107213591169 ], [ -53.893417588994154, -13.785696999319647 ], [ -53.897939663872911, -13.785822715772444 ] ] ] } },
{ "type": "Feature", "properties": { "class": "Sv", "domain": "09", "sample": "G" }, "geometry": { "type": "Polygon", "coordinates": [ [ [ -58.523177959411136, -13.830479356232701 ], [ -58.523486370257437, -13.838840716954563 ], [ -58.514610991458412, -13.838635109723697 ], [ -58.51485086656109, -13.830273749001835 ], [ -58.523177959411136, -13.830479356232701 ] ] ] } },
{ "type": "Feature", "properties": { "class": "Gl", "domain": "09", "sample": "W" }, "geometry": { "type": "Polygon", "coordinates": [ [ [ -58.376867598396629, -14.263800190805224 ], [ -58.326740617207136, -14.26342887983345 ], [ -58.32655496172125, -14.305387019643913 ], [ -58.377424564854287, -14.303901775756817 ], [ -58.376867598396629, -14.263800190805224 ] ] ] } },
{ "type": "Feature", "properties": { "class": "Gl", "domain": "09", "sample": "U" }, "geometry": { "type": "Polygon", "coordinates": [ [ [ -58.451407119447232, -13.226610602219342 ], [ -58.451391027318436, -13.229901442557464 ], [ -58.448647319359267, -13.22984512010669 ], [ -58.448812263679407, -13.226678993766711 ], [ -58.451407119447232, -13.226610602219342 ] ] ] } },
{ "type": "Feature", "properties": { "class": "Gl", "domain": "09", "sample": "B" }, "geometry": { "type": "Polygon", "coordinates": [ [ [ -58.951030134685929, -14.240184736371196 ], [ -58.951733420314653, -14.299401386309535 ], [ -58.90475394031607, -14.299964014812511 ], [ -58.90489459744181, -14.238778165113754 ], [ -58.951030134685929, -14.240184736371196 ] ] ] } },
{ "type": "Feature", "properties": { "class": "Gl", "domain": "09", "sample": "R" }, "geometry": { "type": "Polygon", "coordinates": [ [ [ -58.083626624500603, -13.75339796810502 ], [ -58.083759235561949, -13.760558965417811 ], [ -58.077049115857747, -13.760877231965047 ], [ -58.0772612935559, -13.753212312619134 ], [ -58.083626624500603, -13.75339796810502 ] ] ] } },
{ "type": "Feature", "properties": { "class": "Gl", "domain": "09", "sample": "G" }, "geometry": { "type": "Polygon", "coordinates": [ [ [ -57.701986098935343, -14.174588139180702 ], [ -57.68975682605879, -14.174518257621408 ], [ -57.68989658917738, -14.187655990768787 ], [ -57.702195743613231, -14.186607767379369 ], [ -57.701986098935343, -14.174588139180702 ] ] ] } },
{ "type": "Feature", "properties": { "class": "Fo", "domain": "02", "sample": "W" }, "geometry": { "type": "Polygon", "coordinates": [ [ [ -48.426486221573711, -8.517143178774997 ], [ -48.426244948642001, -8.555023029053425 ], [ -48.37364744952928, -8.554781756121717 ], [ -48.374853814187823, -8.515212995321319 ], [ -48.426486221573711, -8.517143178774997 ] ] ] } },
{ "type": "Feature", "properties": { "class": "Fo", "domain": "02", "sample": "U" }, "geometry": { "type": "Polygon", "coordinates": [ [ [ -47.098829735298658, -8.638772156380712 ], [ -47.099076481273478, -8.64563477880546 ], [ -47.091427356053984, -8.645866103156857 ], [ -47.091519885794547, -8.63847914553561 ], [ -47.098829735298658, -8.638772156380712 ] ] ] } },
{ "type": "Feature", "properties": { "class": "Fo", "domain": "02", "sample": "B" }, "geometry": { "type": "Polygon", "coordinates": [ [ [ -48.084453851479807, -6.140060635508807 ], [ -48.084400764483526, -6.154961492672044 ], [ -48.07209564999998, -6.154850635784805 ], [ -48.072871648210658, -6.139663242233045 ], [ -48.084453851479807, -6.140060635508807 ] ] ] } },
{ "type": "Feature", "properties": { "class": "Fo", "domain": "02", "sample": "R" }, "geometry": { "type": "Polygon", "coordinates": [ [ [ -45.723620779797706, -7.77530810857086 ], [ -45.718384549657827, -7.775250567580312 ], [ -45.718537992299289, -7.782117125785719 ], [ -45.723486517486428, -7.782078765125354 ], [ -45.723620779797706, -7.77530810857086 ] ] ] } },
{ "type": "Feature", "properties": { "class": "Fo", "domain": "02", "sample": "G" }, "geometry": { "type": "Polygon", "coordinates": [ [ [ -46.788710536020837, -12.737446434782866 ], [ -46.789098386124984, -12.747469298000501 ], [ -46.779524612501618, -12.747857148104647 ], [ -46.779402133521366, -12.737221889985729 ], [ -46.788710536020837, -12.737446434782866 ] ] ] } },
{ "type": "Feature", "properties": { "class": "Sv", "domain": "02", "sample": "W" }, "geometry": { "type": "Polygon", "coordinates": [ [ [ -48.094000119305598, -9.578104628187335 ], [ -48.095216751292867, -9.584102410440364 ], [ -48.089837957243894, -9.584614676540266 ], [ -48.088834769464917, -9.577997906083189 ], [ -48.094000119305598, -9.578104628187335 ] ] ] } },
{ "type": "Feature", "properties": { "class": "Sv", "domain": "02", "sample": "U" }, "geometry": { "type": "Polygon", "coordinates": [ [ [ -47.50248386083075, -8.539321585500616 ], [ -47.502417250408058, -8.544770318076946 ], [ -47.496435634450179, -8.544677063485175 ], [ -47.496369024027487, -8.539215008824307 ], [ -47.50248386083075, -8.539321585500616 ] ] ] } },
{ "type": "Feature", "properties": { "class": "Sv", "domain": "02", "sample": "B" }, "geometry": { "type": "Polygon", "coordinates": [ [ [ -45.462842691057745, -6.585789671629737 ], [ -45.462353384100496, -6.602426108176299 ], [ -45.443718944145047, -6.602806543652576 ], [ -45.443781780884393, -6.586029134247261 ], [ -45.462842691057745, -6.585789671629737 ] ] ] } },
{ "type": "Feature", "properties": { "class": "Sv", "domain": "02", "sample": "R" }, "geometry": { "type": "Polygon", "coordinates": [ [ [ -45.277567518758943, -8.884797979816186 ], [ -45.211173147271616, -8.885387016272526 ], [ -45.209608756101055, -8.830828874199216 ], [ -45.278441967605737, -8.830046678613936 ], [ -45.277567518758943, -8.884797979816186 ] ] ] } },
{ "type": "Feature", "properties": { "class": "Sv", "domain": "02", "sample": "G" }, "geometry": { "type": "Polygon", "coordinates": [ [ [ -44.425076887024886, -14.912044779012206 ], [ -44.424795572773391, -14.932229076556519 ], [ -44.402923389720151, -14.932088419430773 ], [ -44.402009118402816, -14.912396421826568 ], [ -44.425076887024886, -14.912044779012206 ] ] ] } },
{ "type": "Feature", "properties": { "class": "Gl", "domain": "02", "sample": "W" }, "geometry": { "type": "Polygon", "coordinates": [ [ [ -46.724212173406414, -11.13957534180523 ], [ -46.725888933492968, -11.183769946943764 ], [ -46.688606734915702, -11.18581407301814 ], [ -46.6879868899548, -11.139325700950097 ], [ -46.724212173406414, -11.13957534180523 ] ] ] } },
{ "type": "Feature", "properties": { "class": "Gl", "domain": "02", "sample": "U" }, "geometry": { "type": "Polygon", "coordinates": [ [ [ -47.098170196598417, -10.422083482628489 ], [ -47.090536493002332, -10.435993786959123 ], [ -47.073346523423012, -10.434975959812979 ], [ -47.08314310970465, -10.419496505298708 ], [ -47.098170196598417, -10.422083482628489 ] ] ] } },
{ "type": "Feature", "properties": { "class": "Gl", "domain": "02", "sample": "B" }, "geometry": { "type": "Polygon", "coordinates": [ [ [ -46.011274158741649, -14.940976021276665 ], [ -46.021405030085674, -14.941969532847251 ], [ -46.020862534481878, -14.949714196212343 ], [ -46.011132458607555, -14.949336329188098 ], [ -46.011274158741649, -14.940976021276665 ] ] ] } },
{ "type": "Feature", "properties": { "class": "Gl", "domain": "02", "sample": "R" }, "geometry": { "type": "Polygon", "coordinates": [ [ [ -46.29988371083239, -13.474434813532506 ], [ -46.299608356628603, -13.482616767016488 ], [ -46.291072376311178, -13.482931457535104 ], [ -46.291426403144619, -13.474120123013892 ], [ -46.29988371083239, -13.474434813532506 ] ] ] } },
{ "type": "Feature", "properties": { "class": "Gl", "domain": "02", "sample": "G" }, "geometry": { "type": "Polygon", "coordinates": [ [ [ -47.097253403790589, -7.21709113500796 ], [ -47.096572681199639, -7.22541845689348 ], [ -47.088670935101106, -7.225597315086872 ], [ -47.089128666764545, -7.216671547649808 ], [ -47.097253403790589, -7.21709113500796 ] ] ] } },
{ "type": "Feature", "properties": { "class": "Fo", "domain": "03", "sample": "W" }, "geometry": { "type": "Polygon", "coordinates": [ [ [ -49.13665864785446, -16.536495683983674 ], [ -49.136679330238628, -16.545657980170926 ], [ -49.127951364118942, -16.546050945470153 ], [ -49.128220235113155, -16.536144083452786 ], [ -49.13665864785446, -16.536495683983674 ] ] ] } },
{ "type": "Feature", "properties": { "class": "Fo", "domain": "03", "sample": "U" }, "geometry": { "type": "Polygon", "coordinates": [ [ [ -46.121349562911966, -19.729377697507125 ], [ -46.121291342612061, -19.737068808653195 ], [ -46.113558564154168, -19.737099494281996 ], [ -46.113896106070982, -19.729550829596914 ], [ -46.121349562911966, -19.729377697507125 ] ] ] } },
{ "type": "Feature", "properties": { "class": "Fo", "domain": "03", "sample": "B" }, "geometry": { "type": "Polygon", "coordinates": [ [ [ -46.274942842526926, -17.954171486766075 ], [ -46.275090660743203, -17.951379364903151 ], [ -46.278868237381275, -17.951592880104435 ], [ -46.278802540396264, -17.95438500196736 ], [ -46.274942842526926, -17.954171486766075 ] ] ] } },
{ "type": "Feature", "properties": { "class": "Fo", "domain": "03", "sample": "R" }, "geometry": { "type": "Polygon", "coordinates": [ [ [ -48.209556939295105, -13.343715270339002 ], [ -48.20980364093635, -13.338460525380535 ], [ -48.214327284856822, -13.338540892503596 ], [ -48.214293610806962, -13.343789280831375 ], [ -48.209556939295105, -13.343715270339002 ] ] ] } },
{ "type": "Feature", "properties": { "class": "Fo", "domain": "03", "sample": "G" }, "geometry": { "type": "Polygon", "coordinates": [ [ [ -47.694033257946728, -14.034801189474981 ], [ -47.694083950064794, -14.043621618018017 ], [ -47.683314892364294, -14.043433493935423 ], [ -47.683109106504062, -14.035003957947236 ], [ -47.694033257946728, -14.034801189474981 ] ] ] } },
{ "type": "Feature", "properties": { "class": "Sv", "domain": "03", "sample": "W" }, "geometry": { "type": "Polygon", "coordinates": [ [ [ -48.569943846497296, -17.182942294535952 ], [ -48.569842124313716, -17.186531634442286 ], [ -48.566136530483291, -17.186313658334612 ], [ -48.566252784407382, -17.182884167573903 ], [ -48.569943846497296, -17.182942294535952 ] ] ] } },
{ "type": "Feature", "properties": { "class": "Sv", "domain": "03", "sample": "U" }, "geometry": { "type": "Polygon", "coordinates": [ [ [ -48.006380472735941, -15.691572559588577 ], [ -48.015730532528515, -15.691076723084427 ], [ -48.015943033887439, -15.700639284235919 ], [ -48.006309638949638, -15.700214281518075 ], [ -48.006380472735941, -15.691572559588577 ] ] ] } },
{ "type": "Feature", "properties": { "class": "Sv", "domain": "03", "sample": "B" }, "geometry": { "type": "Polygon", "coordinates": [ [ [ -45.816851591319676, -16.934162405194915 ], [ -45.822529108542795, -16.934446281056072 ], [ -45.822410826933982, -16.939082920121624 ], [ -45.816875247641434, -16.938799044260467 ], [ -45.816851591319676, -16.934162405194915 ] ] ] } },
{ "type": "Feature", "properties": { "class": "Sv", "domain": "03", "sample": "R" }, "geometry": { "type": "Polygon", "coordinates": [ [ [ -45.993794981728165, -18.1678439237348 ], [ -45.993672104033983, -18.171175274554958 ], [ -45.990026732439794, -18.171229886863486 ], [ -45.99013595705685, -18.167912189120461 ], [ -45.993794981728165, -18.1678439237348 ] ] ] } },
{ "type": "Feature", "properties": { "class": "Sv", "domain": "03", "sample": "G" }, "geometry": { "type": "Polygon", "coordinates": [ [ [ -47.071384642764869, -19.838535236819489 ], [ -47.0694752565485, -19.838568271183096 ], [ -47.069600787130199, -19.836989228602778 ], [ -47.071397856510309, -19.836956194239175 ], [ -47.071384642764869, -19.838535236819489 ] ] ] } },
{ "type": "Feature", "properties": { "class": "Gl", "domain": "03", "sample": "W" }, "geometry": { "type": "Polygon", "coordinates": [ [ [ -44.871491610158316, -18.40914649070664 ], [ -44.873809253796168, -18.409219487356651 ], [ -44.873699758821154, -18.411792619269544 ], [ -44.871436862670805, -18.411810868432045 ], [ -44.871491610158316, -18.40914649070664 ] ] ] } },
{ "type": "Feature", "properties": { "class": "Gl", "domain": "03", "sample": "U" }, "geometry": { "type": "Polygon", "coordinates": [ [ [ -45.297913444997015, -17.220279710077577 ], [ -45.298520111368624, -17.220290591985588 ], [ -45.298522831845631, -17.220793880231096 ], [ -45.29791888595102, -17.220802041662104 ], [ -45.297913444997015, -17.220279710077577 ] ] ] } },
{ "type": "Feature", "properties": { "class": "Gl", "domain": "03", "sample": "B" }, "geometry": { "type": "Polygon", "coordinates": [ [ [ -46.102683366813487, -15.26166809738192 ], [ -46.102792861788501, -15.26591650241259 ], [ -46.106559488929094, -15.265828906432576 ], [ -46.106537589934092, -15.261492905421893 ], [ -46.102683366813487, -15.26166809738192 ] ] ] } },
{ "type": "Feature", "properties": { "class": "Gl", "domain": "03", "sample": "R" }, "geometry": { "type": "Polygon", "coordinates": [ [ [ -47.215836650145, -15.708535217284789 ], [ -47.215705256174978, -15.714579339905738 ], [ -47.20972683053904, -15.714283703473193 ], [ -47.209792527524051, -15.708568065777294 ], [ -47.215836650145, -15.708535217284789 ] ] ] } },
{ "type": "Feature", "properties": { "class": "Gl", "domain": "03", "sample": "G" }, "geometry": { "type": "Polygon", "coordinates": [ [ [ -47.689239894945246, -14.243297150112012 ], [ -47.689294034127336, -14.246671825795735 ], [ -47.686298332718259, -14.246725964977827 ], [ -47.686532935840653, -14.243369335688135 ], [ -47.689239894945246, -14.243297150112012 ] ] ] } },
{ "type": "Feature", "properties": { "class": "Fo", "domain": "04", "sample": "W" }, "geometry": { "type": "Polygon", "coordinates": [ [ [ -53.810694602058135, -15.241342798150042 ], [ -53.810832082300905, -15.251797283095687 ], [ -53.80154934164112, -15.252018300730443 ], [ -53.801623014186042, -15.241483126807035 ], [ -53.810694602058135, -15.241342798150042 ] ] ] } },
{ "type": "Feature", "properties": { "class": "Fo", "domain": "04", "sample": "U" }, "geometry": { "type": "Polygon", "coordinates": [ [ [ -53.655983051100257, -17.871045048504456 ], [ -53.656134113612083, -17.876271811413744 ], [ -53.651572025754845, -17.876211386409011 ], [ -53.651632450759578, -17.871075261006823 ], [ -53.655983051100257, -17.871045048504456 ] ] ] } },
{ "type": "Feature", "properties": { "class": "Fo", "domain": "04", "sample": "B" }, "geometry": { "type": "Polygon", "coordinates": [ [ [ -55.734995630406985, -21.399692269989799 ], [ -55.734946965973641, -21.405629330857415 ], [ -55.729496549439439, -21.405750991940767 ], [ -55.729472217222771, -21.399521944473108 ], [ -55.734995630406985, -21.399692269989799 ] ] ] } },
{ "type": "Feature", "properties": { "class": "Fo", "domain": "04", "sample": "R" }, "geometry": { "type": "Polygon", "coordinates": [ [ [ -47.829913697668097, -21.574911845152027 ], [ -47.830040765910709, -21.585903248138013 ], [ -47.821590727776972, -21.585776179895401 ], [ -47.821717796019584, -21.574784776909414 ], [ -47.829913697668097, -21.574911845152027 ] ] ] } },
{ "type": "Feature", "properties": { "class": "Fo", "domain": "04", "sample": "G" }, "geometry": { "type": "Polygon", "coordinates": [ [ [ -47.49258476419228, -19.938858689684547 ], [ -47.492555261379565, -19.940668195530947 ], [ -47.490716252720453, -19.940638692718235 ], [ -47.490775258345884, -19.938770181246408 ], [ -47.49258476419228, -19.938858689684547 ] ] ] } },
{ "type": "Feature", "properties": { "class": "Sv", "domain": "04", "sample": "W" }, "geometry": { "type": "Polygon", "coordinates": [ [ [ -49.897525568125218, -19.290153194901066 ], [ -49.89755834902823, -19.291326751228972 ], [ -49.896574921937813, -19.291274301784149 ], [ -49.896620815202027, -19.290166307262272 ], [ -49.897525568125218, -19.290153194901066 ] ] ] } },
{ "type": "Feature", "properties": { "class": "Sv", "domain": "04", "sample": "U" }, "geometry": { "type": "Polygon", "coordinates": [ [ [ -49.739384223058522, -19.398369978621464 ], [ -49.739384223058522, -19.400986401603195 ], [ -49.737285772139167, -19.400959838933328 ], [ -49.737392022818625, -19.398277009276935 ], [ -49.739384223058522, -19.398369978621464 ] ] ] } },
{ "type": "Feature", "properties": { "class": "Sv", "domain": "04", "sample": "B" }, "geometry": { "type": "Polygon", "coordinates": [ [ [ -53.329823991464515, -20.662941947867811 ], [ -53.32962041191837, -20.667793927050869 ], [ -53.322189758484178, -20.668065366445724 ], [ -53.322732637273887, -20.662670508472956 ], [ -53.329823991464515, -20.662941947867811 ] ] ] } },
{ "type": "Feature", "properties": { "class": "Sv", "domain": "04", "sample": "R" }, "geometry": { "type": "Polygon", "coordinates": [ [ [ -52.651006350225813, -14.989716959967456 ], [ -52.650806014975224, -15.002605194421875 ], [ -52.637583888436495, -15.002538416005013 ], [ -52.638318451021981, -14.989249511049421 ], [ -52.651006350225813, -14.989716959967456 ] ] ] } },
{ "type": "Feature", "properties": { "class": "Sv", "domain": "04", "sample": "G" }, "geometry": { "type": "Polygon", "coordinates": [ [ [ -53.055272718519333, -20.58747994221434 ], [ -53.0553811320625, -20.597020334012864 ], [ -53.044702398060743, -20.596749300154951 ], [ -53.04524446577657, -20.587642562529091 ], [ -53.055272718519333, -20.58747994221434 ] ] ] } },
{ "type": "Feature", "properties": { "class": "Gl", "domain": "04", "sample": "W" }, "geometry": { "type": "Polygon", "coordinates": [ [ [ -50.179469152758692, -24.529011494604774 ], [ -50.179478513903156, -24.530874362354105 ], [ -50.177793507898741, -24.530818195487289 ], [ -50.17787775819896, -24.52903957803818 ], [ -50.179469152758692, -24.529011494604774 ] ] ] } },
{ "type": "Feature", "properties": { "class": "Gl", "domain": "04", "sample": "U" }, "geometry": { "type": "Polygon", "coordinates": [ [ [ -47.900278977365488, -22.232486790974157 ], [ -47.900278977365481, -22.235400320459856 ], [ -47.897672692807362, -22.235368536501831 ], [ -47.89777863933412, -22.232486790974153 ], [ -47.900278977365488, -22.232486790974157 ] ] ] } },
{ "type": "Feature", "properties": { "class": "Gl", "domain": "04", "sample": "B" }, "geometry": { "type": "Polygon", "coordinates": [ [ [ -53.049582043875454, -18.066760145426382 ], [ -53.050482335892262, -18.09286861391378 ], [ -53.018371920626151, -18.095419441294734 ], [ -53.019122163973492, -18.067060242765319 ], [ -53.049582043875454, -18.066760145426382 ] ] ] } },
{ "type": "Feature", "properties": { "class": "Gl", "domain": "04", "sample": "R" }, "geometry": { "type": "Polygon", "coordinates": [ [ [ -52.590055685722589, -15.38761002821424 ], [ -52.590663964691281, -15.389074403509237 ], [ -52.587600040997124, -15.389209576613391 ], [ -52.587675137166102, -15.387767730169085 ], [ -52.590055685722589, -15.38761002821424 ] ] ] } },
{ "type": "Feature", "properties": { "class": "Gl", "domain": "04", "sample": "G" }, "geometry": { "type": "Polygon", "coordinates": [ [ [ -54.9246417402817, -21.525338546889945 ], [ -54.924652389568045, -21.527915674186037 ], [ -54.922607726589327, -21.5278624277543 ], [ -54.92269292088011, -21.525317248317247 ], [ -54.9246417402817, -21.525338546889945 ] ] ] } },
{ "type": "Feature", "properties": { "class": "Fo", "domain": "11", "sample": "W" }, "geometry": { "type": "Polygon", "coordinates": [ [ [ -59.324206772333199, -11.998311738471857 ], [ -59.325598575126747, -12.023054899246084 ], [ -59.293587110875094, -12.02367347826544 ], [ -59.294360334649291, -11.997074580433146 ], [ -59.324206772333199, -11.998311738471857 ] ] ] } },
{ "type": "Feature", "properties": { "class": "Fo", "domain": "11", "sample": "U" }, "geometry": { "type": "Polygon", "coordinates": [ [ [ -56.655691281056143, -14.618741512111299 ], [ -56.655543260071397, -14.624933723306484 ], [ -56.649721101338081, -14.624662351501117 ], [ -56.649869122322819, -14.618420799977685 ], [ -56.655691281056143, -14.618741512111299 ] ] ] } },
{ "type": "Feature", "properties": { "class": "Fo", "domain": "11", "sample": "B" }, "geometry": { "type": "Polygon", "coordinates": [ [ [ -43.799044693008454, -19.645502303486371 ], [ -43.802602376667231, -19.645870892333903 ], [ -43.802538274258964, -19.649172166359612 ], [ -43.798772257773322, -19.649300371176146 ], [ -43.799044693008454, -19.645502303486371 ] ] ] } },
{ "type": "Feature", "properties": { "class": "Fo", "domain": "11", "sample": "R" }, "geometry": { "type": "Polygon", "coordinates": [ [ [ -42.761980723113815, -17.143390720500523 ], [ -42.761951389274842, -17.149609494365556 ], [ -42.756113955316614, -17.149814831238459 ], [ -42.756436627545462, -17.143185383627621 ], [ -42.761980723113815, -17.143390720500523 ] ] ] } },
{ "type": "Feature", "properties": { "class": "Fo", "domain": "11", "sample": "G" }, "geometry": { "type": "Polygon", "coordinates": [ [ [ -45.688855377189462, -5.866468714920072 ], [ -45.68133567621048, -5.86639671601969 ], [ -45.681176840907213, -5.872337156361818 ], [ -45.689055071949177, -5.872400690483124 ], [ -45.688855377189462, -5.866468714920072 ] ] ] } },
{ "type": "Feature", "properties": { "class": "Sv", "domain": "11", "sample": "W" }, "geometry": { "type": "Polygon", "coordinates": [ [ [ -41.632338671315985, -5.814519541759242 ], [ -41.632433161424061, -5.81993697462194 ], [ -41.625346403318787, -5.82012595483808 ], [ -41.625314906616097, -5.814393554948481 ], [ -41.632338671315985, -5.814519541759242 ] ] ] } },
{ "type": "Feature", "properties": { "class": "Sv", "domain": "11", "sample": "U" }, "geometry": { "type": "Polygon", "coordinates": [ [ [ -44.519540386376192, -11.491147557525361 ], [ -44.519323559289866, -11.526490372597165 ], [ -44.474440352419535, -11.526490372597165 ], [ -44.475307660764855, -11.48941294083472 ], [ -44.519540386376192, -11.491147557525361 ] ] ] } },
{ "type": "Feature", "properties": { "class": "Sv", "domain": "11", "sample": "B" }, "geometry": { "type": "Polygon", "coordinates": [ [ [ -59.13665431015815, -12.628545670751409 ], [ -59.136454921160443, -12.638515120637214 ], [ -59.120942457138121, -12.638275853839959 ], [ -59.121101968336291, -12.628545670751409 ], [ -59.13665431015815, -12.628545670751409 ] ] ] } },
{ "type": "Feature", "properties": { "class": "Sv", "domain": "11", "sample": "R" }, "geometry": { "type": "Polygon", "coordinates": [ [ [ -42.810868162171992, -17.399698523013413 ], [ -42.811164373744923, -17.4029568503157 ], [ -42.806986231558263, -17.40311275114356 ], [ -42.80686151089597, -17.399620572599485 ], [ -42.810868162171992, -17.399698523013413 ] ] ] } },
{ "type": "Feature", "properties": { "class": "Sv", "domain": "11", "sample": "G" }, "geometry": { "type": "Polygon", "coordinates": [ [ [ -49.650564427495475, -8.573858155358835 ], [ -49.650500893374165, -8.575684761346391 ], [ -49.648293082658775, -8.575676819581227 ], [ -49.64844397619688, -8.573762854176875 ], [ -49.650564427495475, -8.573858155358835 ] ] ] } },
{ "type": "Feature", "properties": { "class": "Gl", "domain": "11", "sample": "W" }, "geometry": { "type": "Polygon", "coordinates": [ [ [ -49.832315090662036, -8.404469251987345 ], [ -49.830431027572551, -8.404377877432934 ], [ -49.830530637584552, -8.402241796064599 ], [ -49.832434295591561, -8.40225286384371 ], [ -49.832315090662036, -8.404469251987345 ] ] ] } },
{ "type": "Feature", "properties": { "class": "Gl", "domain": "11", "sample": "U" }, "geometry": { "type": "Polygon", "coordinates": [ [ [ -43.580019157799789, -4.731883982480878 ], [ -43.581804930918899, -4.731960515614555 ], [ -43.581787923555865, -4.73371227400759 ], [ -43.579968135710672, -4.733635740873913 ], [ -43.580019157799789, -4.731883982480878 ] ] ] } },
{ "type": "Feature", "properties": { "class": "Gl", "domain": "11", "sample": "B" }, "geometry": { "type": "Polygon", "coordinates": [ [ [ -42.603727384674912, -2.847320717487784 ], [ -42.598778748496883, -2.847265997357927 ], [ -42.598701595093189, -2.85096936073517 ], [ -42.603665130730739, -2.850995078536401 ], [ -42.603727384674912, -2.847320717487784 ] ] ] } },
{ "type": "Feature", "properties": { "class": "Gl", "domain": "11", "sample": "R" }, "geometry": { "type": "Polygon", "coordinates": [ [ [ -59.637677010649973, -13.668516803103417 ], [ -59.63763997160904, -13.676146845535341 ], [ -59.628898757949173, -13.676257962658134 ], [ -59.628676523703582, -13.668331607898759 ], [ -59.637677010649973, -13.668516803103417 ] ] ] } },
{ "type": "Feature", "properties": { "class": "Gl", "domain": "11", "sample": "G" }, "geometry": { "type": "Polygon", "coordinates": [ [ [ -43.437129548860483, -17.395282822658157 ], [ -43.437083925954234, -17.396586117013555 ], [ -43.436141052558263, -17.396595241594806 ], [ -43.436083263543665, -17.395307154874828 ], [ -43.437129548860483, -17.395282822658157 ] ] ] } }
]
}
