{
"type": "FeatureCollection",
"name": "homogeneity_samples_sbsr_bsb",
"crs": { "type": "name", "properties": { "name": "urn:ogc:def:crs:EPSG::32722" } },
"features": [
{ "type": "Feature", "properties": { "class": "Gl", "sample": "U" }, "geometry": { "type": "Polygon", "coordinates": [ [ [ 823764.457639663363807, 8258556.500582347624004 ], [ 823964.457639663363807, 8258556.500582347624004 ], [ 823964.457639663363807, 8258706.500582347624004 ], [ 823764.457639663363807, 8258706.500582347624004 ], [ 823764.457639663363807, 8258556.500582347624004 ] ] ] } },
{ "type": "Feature", "properties": { "class": "Fo", "sample": "W" }, "geometry": { "type": "Polygon", "coordinates": [ [ [ 828757.650416670250706, 8264138.729877011850476 ], [ 828957.650416670250706, 8264138.729877011850476 ], [ 828957.650416670250706, 8264288.729877011850476 ], [ 828757.650416670250706, 8264288.729877011850476 ], [ 828757.650416670250706, 8264138.729877011850476 ] ] ] } },
{ "type": "Feature", "properties": { "class": "Gl", "sample": "W" }, "geometry": { "type": "Polygon", "coordinates": [ [ [ 815061.57233100803569, 8265566.799553755670786 ], [ 815261.57233100803569, 8265566.799553755670786 ], [ 815261.57233100803569, 8265716.799553755670786 ], [ 815061.57233100803569, 8265716.799553755670786 ], [ 815061.57233100803569, 8265566.799553755670786 ] ] ] } },
{ "type": "Feature", "properties": { "class": "Sv", "sample": "G" }, "geometry": { "type": "Polygon", "coordinates": [ [ [ 832758.659886769251898, 8265647.69972609076649 ], [ 832958.659886769251898, 8265647.69972609076649 ], [ 832958.659886769251898, 8265797.69972609076649 ], [ 832758.659886769251898, 8265797.69972609076649 ], [ 832758.659886769251898, 8265647.69972609076649 ] ] ] } },
{ "type": "Feature", "properties": { "class": "Fo", "sample": "R" }, "geometry": { "type": "Polygon", "coordinates": [ [ [ 825639.775270249927416, 8262128.29112024884671 ], [ 825839.775270249927416, 8262128.29112024884671 ], [ 825839.775270249927416, 8262278.29112024884671 ], [ 825639.775270249927416, 8262278.29112024884671 ], [ 825639.775270249927416, 8262128.29112024884671 ] ] ] } },
{ "type": "Feature", "properties": { "class": "Gl", "sample": "G" }, "geometry": { "type": "Polygon", "coordinates": [ [ [ 823648.168798484606668, 8253351.143412610515952 ], [ 823848.168798484606668, 8253351.143412610515952 ], [ 823848.168798484606668, 8253501.143412610515952 ], [ 823648.168798484606668, 8253501.143412610515952 ], [ 823648.168798484606668, 8253351.143412610515952 ] ] ] } },
{ "type": "Feature", "properties": { "class": "Gl", "sample": "B" }, "geometry": { "type": "Polygon", "coordinates": [ [ [ 816240.24082022625953, 8256904.685458982363343 ], [ 816440.24082022625953, 8256904.685458982363343 ], [ 816440.24082022625953, 8257054.685458982363343 ], [ 816240.24082022625953, 8257054.685458982363343 ], [ 816240.24082022625953, 8256904.685458982363343 ] ] ] } },
{ "type": "Feature", "properties": { "class": "Sv", "sample": "R" }, "geometry": { "type": "Polygon", "coordinates": [ [ [ 814733.541949212667532, 8264494.898065206594765 ], [ 814933.541949212667532, 8264494.898065206594765 ], [ 814933.541949212667532, 8264644.898065206594765 ], [ 814733.541949212667532, 8264644.898065206594765 ], [ 814733.541949212667532, 8264494.898065206594765 ] ] ] } },
{ "type": "Feature", "properties": { "class": "Fo", "sample": "B" }, "geometry": { "type": "Polygon", "coordinates": [ [ [ 812881.075453999568708, 8259140.831253657117486 ], [ 813081.075453999568708, 8259140.831253657117486 ], [ 813081.075453999568708, 8259290.831253657117486 ], [ 812881.075453999568708, 8259290.831253657117486 ], [ 812881.075453999568708, 8259140.831253657117486 ] ] ] } },
{ "type": "Feature", "properties": { "class": "Sv", "sample": "U" }, "geometry": { "type": "Polygon", "coordinates": [ [ [ 820687.048580007976852, 8261990.289197013713419 ], [ 820887.048580007976852, 8261990.289197013713419 ], [ 820887.048580007976852, 8262140.289197013713419 ], [ 820687.048580007976852, 8262140.289197013713419 ], [ 820687.048580007976852, 8261990.289197013713419 ] ] ] } },
{ "type": "Feature", "properties": { "class": "Gl", "sample": "R" }, "geometry": { "type": "Polygon", "coordinates": [ [ [ 823379.265930235735141, 8266379.547395852394402 ], [ 823579.265930235735141, 8266379.547395852394402 ], [ 823579.265930235735141, 8266529.547395852394402 ], [ 823379.265930235735141, 8266529.547395852394402 ], [ 823379.265930235735141, 8266379.547395852394402 ] ] ] } },
{ "type": "Feature", "properties": { "class": "Sv", "sample": "B" }, "geometry": { "type": "Polygon", "coordinates": [ [ [ 821849.259989570244215, 8270073.195608993060887 ], [ 822049.259989570244215, 8270073.195608993060887 ], [ 822049.259989570244215, 8270223.195608993060887 ], [ 821849.259989570244215, 8270223.195608993060887 ], [ 821849.259989570244215, 8270073.195608993060887 ] ] ] } },
{ "type": "Feature", "properties": { "class": "Sv", "sample": "W" }, "geometry": { "type": "Polygon", "coordinates": [ [ [ 822951.196302880183794, 8256588.915397323668003 ], [ 823151.196302880183794, 8256588.915397323668003 ], [ 823151.196302880183794, 8256738.915397323668003 ], [ 822951.196302880183794, 8256738.915397323668003 ], [ 822951.196302880183794, 8256588.915397323668003 ] ] ] } },
{ "type": "Feature", "properties": { "class": "Fo", "sample": "G" }, "geometry": { "type": "Polygon", "coordinates": [ [ [ 820148.33700672769919, 8272900.043360399082303 ], [ 820348.33700672769919, 8272900.043360399082303 ], [ 820348.33700672769919, 8273050.043360399082303 ], [ 820148.33700672769919, 8273050.043360399082303 ], [ 820148.33700672769919, 8272900.043360399082303 ] ] ] } },
{ "type": "Feature", "properties": { "class": "Fo", "sample": "U" }, "geometry": { "type": "Polygon", "coordinates": [ [ [ 825031.36966711259447, 8270261.389906786382198 ], [ 825231.36966711259447, 8270261.389906786382198 ], [ 825231.36966711259447, 8270411.389906786382198 ], [ 825031.36966711259447, 8270411.389906786382198 ], [ 825031.36966711259447, 8270261.389906786382198 ] ] ] } }
]
}
