{
"type": "FeatureCollection",
"name": "homogeneity_samples_sbsr_bsb_200_samples",
"crs": { "type": "name", "properties": { "name": "urn:ogc:def:crs:EPSG::32722" } },
"features": [
{ "type": "Feature", "properties": { "class": "Sv", "sample": "R" }, "geometry": { "type": "Polygon", "coordinates": [ [ [ 814872.456879284000024, 8264235.829560626298189 ], [ 815072.456879284000024, 8264235.829560626298189 ], [ 815072.456879284000024, 8264135.829560626298189 ], [ 814872.456879284000024, 8264135.829560626298189 ], [ 814872.456879284000024, 8264235.829560626298189 ] ] ] } },
{ "type": "Feature", "properties": { "class": "Gl", "sample": "W" }, "geometry": { "type": "Polygon", "coordinates": [ [ [ 817601.508783189812675, 8268036.052350088022649 ], [ 817801.508783189812675, 8268036.052350088022649 ], [ 817801.508783189812675, 8267936.052350088022649 ], [ 817601.508783189812675, 8267936.052350088022649 ], [ 817601.508783189812675, 8268036.052350088022649 ] ] ] } },
{ "type": "Feature", "properties": { "class": "Fo", "sample": "G" }, "geometry": { "type": "Polygon", "coordinates": [ [ [ 819937.953869080170989, 8273104.849481258541346 ], [ 820137.953869080170989, 8273104.849481258541346 ], [ 820137.953869080170989, 8273004.849481258541346 ], [ 819937.953869080170989, 8273004.849481258541346 ], [ 819937.953869080170989, 8273104.849481258541346 ] ] ] } },
{ "type": "Feature", "properties": { "class": "Sv", "sample": "B" }, "geometry": { "type": "Polygon", "coordinates": [ [ [ 821847.635673779761419, 8270197.204927004873753 ], [ 822047.635673779761419, 8270197.204927004873753 ], [ 822047.635673779761419, 8270097.204927004873753 ], [ 821847.635673779761419, 8270097.204927004873753 ], [ 821847.635673779761419, 8270197.204927004873753 ] ] ] } },
{ "type": "Feature", "properties": { "class": "Fo", "sample": "U" }, "geometry": { "type": "Polygon", "coordinates": [ [ [ 825026.331839022808708, 8270382.012843588367105 ], [ 825226.331839022808708, 8270382.012843588367105 ], [ 825226.331839022808708, 8270282.012843588367105 ], [ 825026.331839022808708, 8270282.012843588367105 ], [ 825026.331839022808708, 8270382.012843588367105 ] ] ] } },
{ "type": "Feature", "properties": { "class": "Gl", "sample": "R" }, "geometry": { "type": "Polygon", "coordinates": [ [ [ 823118.410109719377942, 8266631.292174633592367 ], [ 823318.410109719377942, 8266631.292174633592367 ], [ 823318.410109719377942, 8266531.292174633592367 ], [ 823118.410109719377942, 8266531.292174633592367 ], [ 823118.410109719377942, 8266631.292174633592367 ] ] ] } },
{ "type": "Feature", "properties": { "class": "Fo", "sample": "W" }, "geometry": { "type": "Polygon", "coordinates": [ [ [ 828847.455523819895461, 8264263.990766962058842 ], [ 829047.455523819895461, 8264263.990766962058842 ], [ 829047.455523819895461, 8264163.990766962058842 ], [ 828847.455523819895461, 8264163.990766962058842 ], [ 828847.455523819895461, 8264263.990766962058842 ] ] ] } },
{ "type": "Feature", "properties": { "class": "Sv", "sample": "G" }, "geometry": { "type": "Polygon", "coordinates": [ [ [ 832605.216494360123761, 8265876.219829733483493 ], [ 832805.216494360123761, 8265876.219829733483493 ], [ 832805.216494360123761, 8265776.219829733483493 ], [ 832605.216494360123761, 8265776.219829733483493 ], [ 832605.216494360123761, 8265876.219829733483493 ] ] ] } },
{ "type": "Feature", "properties": { "class": "Fo", "sample": "R" }, "geometry": { "type": "Polygon", "coordinates": [ [ [ 825633.557850656332448, 8262248.70443850196898 ], [ 825833.557850656332448, 8262248.70443850196898 ], [ 825833.557850656332448, 8262148.70443850196898 ], [ 825633.557850656332448, 8262148.70443850196898 ], [ 825633.557850656332448, 8262248.70443850196898 ] ] ] } },
{ "type": "Feature", "properties": { "class": "Gl", "sample": "U" }, "geometry": { "type": "Polygon", "coordinates": [ [ [ 823716.835744372103363, 8258662.550819078460336 ], [ 823916.835744372103363, 8258662.550819078460336 ], [ 823916.835744372103363, 8258562.550819078460336 ], [ 823716.835744372103363, 8258562.550819078460336 ], [ 823716.835744372103363, 8258662.550819078460336 ] ] ] } },
{ "type": "Feature", "properties": { "class": "Sv", "sample": "W" }, "geometry": { "type": "Polygon", "coordinates": [ [ [ 822805.116689224727452, 8256734.388222720474005 ], [ 823005.116689224727452, 8256734.388222720474005 ], [ 823005.116689224727452, 8256634.388222720474005 ], [ 822805.116689224727452, 8256634.388222720474005 ], [ 822805.116689224727452, 8256734.388222720474005 ] ] ] } },
{ "type": "Feature", "properties": { "class": "Sv", "sample": "U" }, "geometry": { "type": "Polygon", "coordinates": [ [ [ 820670.79382897936739, 8262118.134561629034579 ], [ 820870.79382897936739, 8262118.134561629034579 ], [ 820870.79382897936739, 8262018.134561629034579 ], [ 820670.79382897936739, 8262018.134561629034579 ], [ 820670.79382897936739, 8262118.134561629034579 ] ] ] } },
{ "type": "Feature", "properties": { "class": "Gl", "sample": "G" }, "geometry": { "type": "Polygon", "coordinates": [ [ [ 823671.722379222279415, 8253466.483952404931188 ], [ 823871.722379222279415, 8253466.483952404931188 ], [ 823871.722379222279415, 8253366.483952404931188 ], [ 823671.722379222279415, 8253366.483952404931188 ], [ 823671.722379222279415, 8253466.483952404931188 ] ] ] } },
{ "type": "Feature", "properties": { "class": "Gl", "sample": "B" }, "geometry": { "type": "Polygon", "coordinates": [ [ [ 816249.48443413421046, 8256947.033048070967197 ], [ 816449.48443413421046, 8256947.033048070967197 ], [ 816449.48443413421046, 8256847.033048070967197 ], [ 816249.48443413421046, 8256847.033048070967197 ], [ 816249.48443413421046, 8256947.033048070967197 ] ] ] } },
{ "type": "Feature", "properties": { "class": "Fo", "sample": "B" }, "geometry": { "type": "Polygon", "coordinates": [ [ [ 812963.423669732641429, 8259279.132947820238769 ], [ 813163.423669732641429, 8259279.132947820238769 ], [ 813163.423669732641429, 8259179.132947820238769 ], [ 812963.423669732641429, 8259179.132947820238769 ], [ 812963.423669732641429, 8259279.132947820238769 ] ] ] } }
]
}
