{
"type": "FeatureCollection",
"name": "triple_intersections_best",
"crs": { "type": "name", "properties": { "name": "urn:ogc:def:crs:OGC:1.3:CRS84" } },
"features": [
{ "type": "Feature", "properties": { "s1_id": "S1A_IW_SLC__1SDV_20251203T083354_20251203T083422_062148_07C735_B709-SLC", "nisar_id": "NISAR_L1_PR_RSLC_007_016_A_176_4005_DHDH_A_20251205T083946_20251205T084020_X05009_N_F_J_001", "biomass_id": "BIO_S1_SCS__1S_20251204T084822_20251204T084842_T_G01_M01_C05_T020_F308_01_DO3WKM", "s1_time": "2025-12-03T08:33:54+00:00", "nisar_time": "2025-12-05T08:39:46+00:00", "biomass_time": "2025-12-04T08:48:22.102000+00:00", "delta_s1_nisar_seconds": 173152.0, "delta_s1_biomass_seconds": 87268.102, "delta_nisar_biomass_seconds": 85883.898, "temporal_span_seconds": 173152.0, "triple_intersection_area_m2": 5882218321.1028013 }, "geometry": { "type": "Polygon", "coordinates": [ [ [ -44.026569696692469, -2.882785417647006 ], [ -43.80452, -3.939096 ], [ -44.355568, -4.054175 ], [ -44.416622379652956, -3.763163332791871 ], [ -44.215588, -2.841342 ], [ -44.026569696692469, -2.882785417647006 ] ] ] } }
]
}
