<?xml version="1.0" encoding="utf-8"?>
<kml xmlns:gx="http://www.google.com/kml/ext/2.2" xmlns:kml="http://www.opengis.net/kml/2.2">
  <Document>
    <name>bio_s1_scs__1s_20251122t084426_20251122t084446_t_g01_m01_c01_t020_f296_map.kml</name>
    <description>L1 Product Overlay ADS</description>
    <GroundOverlay>
      <name>Ground overlay</name>
      <visibility>1</visibility>
      <TimeStamp>
        <when>2025-11-22T08:44:36</when>
      </TimeStamp>
      <Icon>
        <href>bio_s1_scs__1s_20251122t084426_20251122t084446_t_g01_m01_c01_t020_f296_ql.png</href>
      </Icon>
      <gx:LatLonQuad>
        <coordinates>-41.117454,-16.553785 -41.702942,-16.667107 -41.434308,-17.928701 -40.843010,-17.815316</coordinates>
      </gx:LatLonQuad>
    </GroundOverlay>
    <Placemark>
      <name>Placemark</name>
      <visibility>1</visibility>
      <TimeStamp>
        <when>2025-11-22T08:44:36</when>
      </TimeStamp>
      <Style>
        <LineStyle>
          <color>40ffffff</color>
          <width>1</width>
        </LineStyle>
        <PolyStyle>
          <color>00000000</color>
        </PolyStyle>
      </Style>
      <ExtendedData>
        <Data name="Product Name">
          <value>BIO_S1_SCS__1S_20251122T084426_20251122T084446_T_G01_M01_C01_T020_F296_01_DJXN00</value>
        </Data>
        <Data name="Product Type">
          <value>S1_SCS__1S</value>
        </Data>
        <Data name="Start Date and Time">
          <value>2025-11-22T08:44:26</value>
        </Data>
        <Data name="Stop Date and Time">
          <value>2025-11-22T08:44:46</value>
        </Data>
        <Data name="Duration [s]">
          <value>20</value>
        </Data>
        <Data name="Mission Phase ID">
          <value>T</value>
        </Data>
        <Data name="Global Coverage ID">
          <value>01</value>
        </Data>
        <Data name="Major Cycle ID">
          <value>01</value>
        </Data>
        <Data name="Repeat Cycle ID">
          <value>01</value>
        </Data>
        <Data name="Track Number">
          <value>020</value>
        </Data>
        <Data name="Frame Number">
          <value>296</value>
        </Data>
        <Data name="Baseline ID">
          <value>01</value>
        </Data>
      </ExtendedData>
      <Polygon>
        <tessellate>1</tessellate>
        <altitudeMode>clampToGround</altitudeMode>
        <outerBoundaryIs>
          <LinearRing>
            <coordinates>-41.117454,-16.553785,0 -41.702942,-16.667107,0 -41.434308,-17.928701,0 -40.843010,-17.815316,0 -41.117454,-16.553785,0</coordinates>
          </LinearRing>
        </outerBoundaryIs>
      </Polygon>
    </Placemark>
  </Document>
</kml>
