<?xml version="1.0" encoding="utf-8"?>
<kml xmlns:gx="http://www.google.com/kml/ext/2.2" xmlns:kml="http://www.opengis.net/kml/2.2">
  <Document>
    <name>bio_s1_scs__1s_20251125t084700_20251125t084720_t_g01_m01_c02_t020_f304_map.kml</name>
    <description>L1 Product Overlay ADS</description>
    <GroundOverlay>
      <name>Ground overlay</name>
      <visibility>1</visibility>
      <TimeStamp>
        <when>2025-11-25T08:47:10</when>
      </TimeStamp>
      <Icon>
        <href>bio_s1_scs__1s_20251125t084700_20251125t084720_t_g01_m01_c02_t020_f304_ql.png</href>
      </Icon>
      <gx:LatLonQuad>
        <coordinates>-43.069904,-7.310347 -43.628925,-7.425133 -43.364472,-8.688358 -42.802455,-8.573759</coordinates>
      </gx:LatLonQuad>
    </GroundOverlay>
    <Placemark>
      <name>Placemark</name>
      <visibility>1</visibility>
      <TimeStamp>
        <when>2025-11-25T08:47:10</when>
      </TimeStamp>
      <Style>
        <LineStyle>
          <color>40ffffff</color>
          <width>1</width>
        </LineStyle>
        <PolyStyle>
          <color>00000000</color>
        </PolyStyle>
      </Style>
      <ExtendedData>
        <Data name="Product Name">
          <value>BIO_S1_SCS__1S_20251125T084700_20251125T084720_T_G01_M01_C02_T020_F304_01_DKCSXK</value>
        </Data>
        <Data name="Product Type">
          <value>S1_SCS__1S</value>
        </Data>
        <Data name="Start Date and Time">
          <value>2025-11-25T08:47:00</value>
        </Data>
        <Data name="Stop Date and Time">
          <value>2025-11-25T08:47:20</value>
        </Data>
        <Data name="Duration [s]">
          <value>20</value>
        </Data>
        <Data name="Mission Phase ID">
          <value>T</value>
        </Data>
        <Data name="Global Coverage ID">
          <value>01</value>
        </Data>
        <Data name="Major Cycle ID">
          <value>01</value>
        </Data>
        <Data name="Repeat Cycle ID">
          <value>02</value>
        </Data>
        <Data name="Track Number">
          <value>020</value>
        </Data>
        <Data name="Frame Number">
          <value>304</value>
        </Data>
        <Data name="Baseline ID">
          <value>01</value>
        </Data>
      </ExtendedData>
      <Polygon>
        <tessellate>1</tessellate>
        <altitudeMode>clampToGround</altitudeMode>
        <outerBoundaryIs>
          <LinearRing>
            <coordinates>-43.069904,-7.310347,0 -43.628925,-7.425133,0 -43.364472,-8.688358,0 -42.802455,-8.573759,0 -43.069904,-7.310347,0</coordinates>
          </LinearRing>
        </outerBoundaryIs>
      </Polygon>
    </Placemark>
  </Document>
</kml>
