<?xml version="1.0" encoding="utf-8"?>
<kml xmlns:gx="http://www.google.com/kml/ext/2.2" xmlns:kml="http://www.opengis.net/kml/2.2">
  <Document>
    <name>bio_s1_scs__1s_20251122t210838_20251122t210859_t_g01_m01_c01_t028_f166_map.kml</name>
    <description>L1 Product Overlay ADS</description>
    <GroundOverlay>
      <name>Ground overlay</name>
      <visibility>1</visibility>
      <TimeStamp>
        <when>2025-11-22T21:08:48</when>
      </TimeStamp>
      <Icon>
        <href>bio_s1_scs__1s_20251122t210838_20251122t210859_t_g01_m01_c01_t028_f166_ql.png</href>
      </Icon>
      <gx:LatLonQuad>
        <coordinates>-46.803831,-13.300633 -46.228152,-13.414825 -45.962155,-12.152276 -46.533355,-12.038062</coordinates>
      </gx:LatLonQuad>
    </GroundOverlay>
    <Placemark>
      <name>Placemark</name>
      <visibility>1</visibility>
      <TimeStamp>
        <when>2025-11-22T21:08:48</when>
      </TimeStamp>
      <Style>
        <LineStyle>
          <color>40ffffff</color>
          <width>1</width>
        </LineStyle>
        <PolyStyle>
          <color>00000000</color>
        </PolyStyle>
      </Style>
      <ExtendedData>
        <Data name="Product Name">
          <value>BIO_S1_SCS__1S_20251122T210838_20251122T210859_T_G01_M01_C01_T028_F166_01_DJYIU7</value>
        </Data>
        <Data name="Product Type">
          <value>S1_SCS__1S</value>
        </Data>
        <Data name="Start Date and Time">
          <value>2025-11-22T21:08:38</value>
        </Data>
        <Data name="Stop Date and Time">
          <value>2025-11-22T21:08:59</value>
        </Data>
        <Data name="Duration [s]">
          <value>21</value>
        </Data>
        <Data name="Mission Phase ID">
          <value>T</value>
        </Data>
        <Data name="Global Coverage ID">
          <value>01</value>
        </Data>
        <Data name="Major Cycle ID">
          <value>01</value>
        </Data>
        <Data name="Repeat Cycle ID">
          <value>01</value>
        </Data>
        <Data name="Track Number">
          <value>028</value>
        </Data>
        <Data name="Frame Number">
          <value>166</value>
        </Data>
        <Data name="Baseline ID">
          <value>01</value>
        </Data>
      </ExtendedData>
      <Polygon>
        <tessellate>1</tessellate>
        <altitudeMode>clampToGround</altitudeMode>
        <outerBoundaryIs>
          <LinearRing>
            <coordinates>-46.803831,-13.300633,0 -46.228152,-13.414825,0 -45.962155,-12.152276,0 -46.533355,-12.038062,0 -46.803831,-13.300633,0</coordinates>
          </LinearRing>
        </outerBoundaryIs>
      </Polygon>
    </Placemark>
  </Document>
</kml>
