<?xml version="1.0" encoding="utf-8"?>
<kml xmlns:gx="http://www.google.com/kml/ext/2.2" xmlns:kml="http://www.opengis.net/kml/2.2">
  <Document>
    <name>bio_s1_scs__1s_20251121t221114_20251121t221135_t_g01_m01_c01_t014_f157_map.kml</name>
    <description>L1 Product Overlay ADS</description>
    <GroundOverlay>
      <name>Ground overlay</name>
      <visibility>1</visibility>
      <TimeStamp>
        <when>2025-11-21T22:11:24</when>
      </TimeStamp>
      <Icon>
        <href>bio_s1_scs__1s_20251121t221114_20251121t221135_t_g01_m01_c01_t014_f157_ql.png</href>
      </Icon>
      <gx:LatLonQuad>
        <coordinates>-60.998750,-2.894531 -60.448361,-3.010060 -60.181819,-1.746402 -60.730703,-1.630577</coordinates>
      </gx:LatLonQuad>
    </GroundOverlay>
    <Placemark>
      <name>Placemark</name>
      <visibility>1</visibility>
      <TimeStamp>
        <when>2025-11-21T22:11:24</when>
      </TimeStamp>
      <Style>
        <LineStyle>
          <color>40ffffff</color>
          <width>1</width>
        </LineStyle>
        <PolyStyle>
          <color>00000000</color>
        </PolyStyle>
      </Style>
      <ExtendedData>
        <Data name="Product Name">
          <value>BIO_S1_SCS__1S_20251121T221114_20251121T221135_T_G01_M01_C01_T014_F157_01_DJVHW4</value>
        </Data>
        <Data name="Product Type">
          <value>S1_SCS__1S</value>
        </Data>
        <Data name="Start Date and Time">
          <value>2025-11-21T22:11:14</value>
        </Data>
        <Data name="Stop Date and Time">
          <value>2025-11-21T22:11:35</value>
        </Data>
        <Data name="Duration [s]">
          <value>21</value>
        </Data>
        <Data name="Mission Phase ID">
          <value>T</value>
        </Data>
        <Data name="Global Coverage ID">
          <value>01</value>
        </Data>
        <Data name="Major Cycle ID">
          <value>01</value>
        </Data>
        <Data name="Repeat Cycle ID">
          <value>01</value>
        </Data>
        <Data name="Track Number">
          <value>014</value>
        </Data>
        <Data name="Frame Number">
          <value>157</value>
        </Data>
        <Data name="Baseline ID">
          <value>01</value>
        </Data>
      </ExtendedData>
      <Polygon>
        <tessellate>1</tessellate>
        <altitudeMode>clampToGround</altitudeMode>
        <outerBoundaryIs>
          <LinearRing>
            <coordinates>-60.998750,-2.894531,0 -60.448361,-3.010060,0 -60.181819,-1.746402,0 -60.730703,-1.630577,0 -60.998750,-2.894531,0</coordinates>
          </LinearRing>
        </outerBoundaryIs>
      </Polygon>
    </Placemark>
  </Document>
</kml>
