<?xml version="1.0" encoding="utf-8"?>
<kml xmlns:gx="http://www.google.com/kml/ext/2.2" xmlns:kml="http://www.opengis.net/kml/2.2">
  <Document>
    <name>bio_s1_scs__1s_20251122t211032_20251122t211053_t_g01_m01_c01_t028_f172_map.kml</name>
    <description>L1 Product Overlay ADS</description>
    <GroundOverlay>
      <name>Ground overlay</name>
      <visibility>1</visibility>
      <TimeStamp>
        <when>2025-11-22T21:10:42</when>
      </TimeStamp>
      <Icon>
        <href>bio_s1_scs__1s_20251122t211032_20251122t211053_t_g01_m01_c01_t028_f172_ql.png</href>
      </Icon>
      <gx:LatLonQuad>
        <coordinates>-48.256635,-20.233495 -47.661105,-20.345759 -47.389097,-19.084840 -47.977974,-18.972742</coordinates>
      </gx:LatLonQuad>
    </GroundOverlay>
    <Placemark>
      <name>Placemark</name>
      <visibility>1</visibility>
      <TimeStamp>
        <when>2025-11-22T21:10:42</when>
      </TimeStamp>
      <Style>
        <LineStyle>
          <color>40ffffff</color>
          <width>1</width>
        </LineStyle>
        <PolyStyle>
          <color>00000000</color>
        </PolyStyle>
      </Style>
      <ExtendedData>
        <Data name="Product Name">
          <value>BIO_S1_SCS__1S_20251122T211032_20251122T211053_T_G01_M01_C01_T028_F172_01_DK4Y34</value>
        </Data>
        <Data name="Product Type">
          <value>S1_SCS__1S</value>
        </Data>
        <Data name="Start Date and Time">
          <value>2025-11-22T21:10:32</value>
        </Data>
        <Data name="Stop Date and Time">
          <value>2025-11-22T21:10:53</value>
        </Data>
        <Data name="Duration [s]">
          <value>21</value>
        </Data>
        <Data name="Mission Phase ID">
          <value>T</value>
        </Data>
        <Data name="Global Coverage ID">
          <value>01</value>
        </Data>
        <Data name="Major Cycle ID">
          <value>01</value>
        </Data>
        <Data name="Repeat Cycle ID">
          <value>01</value>
        </Data>
        <Data name="Track Number">
          <value>028</value>
        </Data>
        <Data name="Frame Number">
          <value>172</value>
        </Data>
        <Data name="Baseline ID">
          <value>01</value>
        </Data>
      </ExtendedData>
      <Polygon>
        <tessellate>1</tessellate>
        <altitudeMode>clampToGround</altitudeMode>
        <outerBoundaryIs>
          <LinearRing>
            <coordinates>-48.256635,-20.233495,0 -47.661105,-20.345759,0 -47.389097,-19.084840,0 -47.977974,-18.972742,0 -48.256635,-20.233495,0</coordinates>
          </LinearRing>
        </outerBoundaryIs>
      </Polygon>
    </Placemark>
  </Document>
</kml>
