<?xml version="1.0" encoding="utf-8"?>
<kml xmlns:gx="http://www.google.com/kml/ext/2.2" xmlns:kml="http://www.opengis.net/kml/2.2">
  <Document>
    <name>bio_s1_scs__1s_20251123t091504_20251123t091517_t_g01_m01_c01_t035_f289_map.kml</name>
    <description>L1 Product Overlay ADS</description>
    <GroundOverlay>
      <name>Ground overlay</name>
      <visibility>1</visibility>
      <TimeStamp>
        <when>2025-11-23T09:15:10</when>
      </TimeStamp>
      <Icon>
        <href>bio_s1_scs__1s_20251123t091504_20251123t091517_t_g01_m01_c01_t035_f289_ql.png</href>
      </Icon>
      <gx:LatLonQuad>
        <coordinates>-47.541601,-24.641116 -48.168340,-24.754666 -47.989405,-25.554475 -47.357632,-25.440815</coordinates>
      </gx:LatLonQuad>
    </GroundOverlay>
    <Placemark>
      <name>Placemark</name>
      <visibility>1</visibility>
      <TimeStamp>
        <when>2025-11-23T09:15:10</when>
      </TimeStamp>
      <Style>
        <LineStyle>
          <color>40ffffff</color>
          <width>1</width>
        </LineStyle>
        <PolyStyle>
          <color>00000000</color>
        </PolyStyle>
      </Style>
      <ExtendedData>
        <Data name="Product Name">
          <value>BIO_S1_SCS__1S_20251123T091504_20251123T091517_T_G01_M01_C01_T035_F289_01_DNHNN5</value>
        </Data>
        <Data name="Product Type">
          <value>S1_SCS__1S</value>
        </Data>
        <Data name="Start Date and Time">
          <value>2025-11-23T09:15:04</value>
        </Data>
        <Data name="Stop Date and Time">
          <value>2025-11-23T09:15:17</value>
        </Data>
        <Data name="Duration [s]">
          <value>13</value>
        </Data>
        <Data name="Mission Phase ID">
          <value>T</value>
        </Data>
        <Data name="Global Coverage ID">
          <value>01</value>
        </Data>
        <Data name="Major Cycle ID">
          <value>01</value>
        </Data>
        <Data name="Repeat Cycle ID">
          <value>01</value>
        </Data>
        <Data name="Track Number">
          <value>035</value>
        </Data>
        <Data name="Frame Number">
          <value>289</value>
        </Data>
        <Data name="Baseline ID">
          <value>01</value>
        </Data>
      </ExtendedData>
      <Polygon>
        <tessellate>1</tessellate>
        <altitudeMode>clampToGround</altitudeMode>
        <outerBoundaryIs>
          <LinearRing>
            <coordinates>-47.541601,-24.641116,0 -48.168340,-24.754666,0 -47.989405,-25.554475,0 -47.357632,-25.440815,0 -47.541601,-24.641116,0</coordinates>
          </LinearRing>
        </outerBoundaryIs>
      </Polygon>
    </Placemark>
  </Document>
</kml>
