<?xml version="1.0" encoding="utf-8"?>
<kml xmlns:gx="http://www.google.com/kml/ext/2.2" xmlns:kml="http://www.opengis.net/kml/2.2">
  <Document>
    <name>bio_s1_scs__1s_20251121t094855_20251121t094916_t_g01_m01_c01_t006_f293_map.kml</name>
    <description>L1 Product Overlay ADS</description>
    <GroundOverlay>
      <name>Ground overlay</name>
      <visibility>1</visibility>
      <TimeStamp>
        <when>2025-11-21T09:49:05</when>
      </TimeStamp>
      <Icon>
        <href>bio_s1_scs__1s_20251121t094855_20251121t094916_t_g01_m01_c01_t006_f293_ql.png</href>
      </Icon>
      <gx:LatLonQuad>
        <coordinates>-56.733962,-20.016017 -57.337671,-20.129783 -57.064962,-21.390419 -56.454196,-21.276484</coordinates>
      </gx:LatLonQuad>
    </GroundOverlay>
    <Placemark>
      <name>Placemark</name>
      <visibility>1</visibility>
      <TimeStamp>
        <when>2025-11-21T09:49:05</when>
      </TimeStamp>
      <Style>
        <LineStyle>
          <color>40ffffff</color>
          <width>1</width>
        </LineStyle>
        <PolyStyle>
          <color>00000000</color>
        </PolyStyle>
      </Style>
      <ExtendedData>
        <Data name="Product Name">
          <value>BIO_S1_SCS__1S_20251121T094855_20251121T094916_T_G01_M01_C01_T006_F293_01_DJUQJS</value>
        </Data>
        <Data name="Product Type">
          <value>S1_SCS__1S</value>
        </Data>
        <Data name="Start Date and Time">
          <value>2025-11-21T09:48:55</value>
        </Data>
        <Data name="Stop Date and Time">
          <value>2025-11-21T09:49:16</value>
        </Data>
        <Data name="Duration [s]">
          <value>21</value>
        </Data>
        <Data name="Mission Phase ID">
          <value>T</value>
        </Data>
        <Data name="Global Coverage ID">
          <value>01</value>
        </Data>
        <Data name="Major Cycle ID">
          <value>01</value>
        </Data>
        <Data name="Repeat Cycle ID">
          <value>01</value>
        </Data>
        <Data name="Track Number">
          <value>006</value>
        </Data>
        <Data name="Frame Number">
          <value>293</value>
        </Data>
        <Data name="Baseline ID">
          <value>01</value>
        </Data>
      </ExtendedData>
      <Polygon>
        <tessellate>1</tessellate>
        <altitudeMode>clampToGround</altitudeMode>
        <outerBoundaryIs>
          <LinearRing>
            <coordinates>-56.733962,-20.016017,0 -57.337671,-20.129783,0 -57.064962,-21.390419,0 -56.454196,-21.276484,0 -56.733962,-20.016017,0</coordinates>
          </LinearRing>
        </outerBoundaryIs>
      </Polygon>
    </Placemark>
  </Document>
</kml>
