<?xml version="1.0" encoding="utf-8"?>
<kml xmlns:gx="http://www.google.com/kml/ext/2.2" xmlns:kml="http://www.opengis.net/kml/2.2">
  <Document>
    <name>bio_s1_scs__1s_20251122t210644_20251122t210705_t_g01_m01_c01_t028_f160_map.kml</name>
    <description>L1 Product Overlay ADS</description>
    <GroundOverlay>
      <name>Ground overlay</name>
      <visibility>1</visibility>
      <TimeStamp>
        <when>2025-11-22T21:06:54</when>
      </TimeStamp>
      <Icon>
        <href>bio_s1_scs__1s_20251122t210644_20251122t210705_t_g01_m01_c01_t028_f160_ql.png</href>
      </Icon>
      <gx:LatLonQuad>
        <coordinates>-45.366557,-6.362676 -44.806911,-6.478266 -44.541780,-5.214817 -45.098956,-5.099022</coordinates>
      </gx:LatLonQuad>
    </GroundOverlay>
    <Placemark>
      <name>Placemark</name>
      <visibility>1</visibility>
      <TimeStamp>
        <when>2025-11-22T21:06:54</when>
      </TimeStamp>
      <Style>
        <LineStyle>
          <color>40ffffff</color>
          <width>1</width>
        </LineStyle>
        <PolyStyle>
          <color>00000000</color>
        </PolyStyle>
      </Style>
      <ExtendedData>
        <Data name="Product Name">
          <value>BIO_S1_SCS__1S_20251122T210644_20251122T210705_T_G01_M01_C01_T028_F160_01_DJYINR</value>
        </Data>
        <Data name="Product Type">
          <value>S1_SCS__1S</value>
        </Data>
        <Data name="Start Date and Time">
          <value>2025-11-22T21:06:44</value>
        </Data>
        <Data name="Stop Date and Time">
          <value>2025-11-22T21:07:05</value>
        </Data>
        <Data name="Duration [s]">
          <value>21</value>
        </Data>
        <Data name="Mission Phase ID">
          <value>T</value>
        </Data>
        <Data name="Global Coverage ID">
          <value>01</value>
        </Data>
        <Data name="Major Cycle ID">
          <value>01</value>
        </Data>
        <Data name="Repeat Cycle ID">
          <value>01</value>
        </Data>
        <Data name="Track Number">
          <value>028</value>
        </Data>
        <Data name="Frame Number">
          <value>160</value>
        </Data>
        <Data name="Baseline ID">
          <value>01</value>
        </Data>
      </ExtendedData>
      <Polygon>
        <tessellate>1</tessellate>
        <altitudeMode>clampToGround</altitudeMode>
        <outerBoundaryIs>
          <LinearRing>
            <coordinates>-45.366557,-6.362676,0 -44.806911,-6.478266,0 -44.541780,-5.214817,0 -45.098956,-5.099022,0 -45.366557,-6.362676,0</coordinates>
          </LinearRing>
        </outerBoundaryIs>
      </Polygon>
    </Placemark>
  </Document>
</kml>
