<?xml version="1.0" encoding="utf-8"?>
<kml xmlns:gx="http://www.google.com/kml/ext/2.2" xmlns:kml="http://www.opengis.net/kml/2.2">
  <Document>
    <name>bio_s1_scs__1s_20251121t221133_20251121t221154_t_g01_m01_c01_t014_f158_map.kml</name>
    <description>L1 Product Overlay ADS</description>
    <GroundOverlay>
      <name>Ground overlay</name>
      <visibility>1</visibility>
      <TimeStamp>
        <when>2025-11-21T22:11:43</when>
      </TimeStamp>
      <Icon>
        <href>bio_s1_scs__1s_20251121t221133_20251121t221154_t_g01_m01_c01_t014_f158_ql.png</href>
      </Icon>
      <gx:LatLonQuad>
        <coordinates>-61.242369,-4.050424 -60.690127,-4.165749 -60.424198,-2.902175 -60.974618,-2.786587</coordinates>
      </gx:LatLonQuad>
    </GroundOverlay>
    <Placemark>
      <name>Placemark</name>
      <visibility>1</visibility>
      <TimeStamp>
        <when>2025-11-21T22:11:43</when>
      </TimeStamp>
      <Style>
        <LineStyle>
          <color>40ffffff</color>
          <width>1</width>
        </LineStyle>
        <PolyStyle>
          <color>00000000</color>
        </PolyStyle>
      </Style>
      <ExtendedData>
        <Data name="Product Name">
          <value>BIO_S1_SCS__1S_20251121T221133_20251121T221154_T_G01_M01_C01_T014_F158_01_DJVHUL</value>
        </Data>
        <Data name="Product Type">
          <value>S1_SCS__1S</value>
        </Data>
        <Data name="Start Date and Time">
          <value>2025-11-21T22:11:33</value>
        </Data>
        <Data name="Stop Date and Time">
          <value>2025-11-21T22:11:54</value>
        </Data>
        <Data name="Duration [s]">
          <value>21</value>
        </Data>
        <Data name="Mission Phase ID">
          <value>T</value>
        </Data>
        <Data name="Global Coverage ID">
          <value>01</value>
        </Data>
        <Data name="Major Cycle ID">
          <value>01</value>
        </Data>
        <Data name="Repeat Cycle ID">
          <value>01</value>
        </Data>
        <Data name="Track Number">
          <value>014</value>
        </Data>
        <Data name="Frame Number">
          <value>158</value>
        </Data>
        <Data name="Baseline ID">
          <value>01</value>
        </Data>
      </ExtendedData>
      <Polygon>
        <tessellate>1</tessellate>
        <altitudeMode>clampToGround</altitudeMode>
        <outerBoundaryIs>
          <LinearRing>
            <coordinates>-61.242369,-4.050424,0 -60.690127,-4.165749,0 -60.424198,-2.902175,0 -60.974618,-2.786587,0 -61.242369,-4.050424,0</coordinates>
          </LinearRing>
        </outerBoundaryIs>
      </Polygon>
    </Placemark>
  </Document>
</kml>
