<?xml version="1.0" encoding="utf-8"?>
<kml xmlns:gx="http://www.google.com/kml/ext/2.2" xmlns:kml="http://www.opengis.net/kml/2.2">
  <Document>
    <name>bio_s1_scs__1s_20251126t092100_20251126t092120_t_g01_m01_c02_t035_f308_map.kml</name>
    <description>L1 Product Overlay ADS</description>
    <GroundOverlay>
      <name>Ground overlay</name>
      <visibility>1</visibility>
      <TimeStamp>
        <when>2025-11-26T09:21:10</when>
      </TimeStamp>
      <Icon>
        <href>bio_s1_scs__1s_20251126t092100_20251126t092120_t_g01_m01_c02_t035_f308_ql.png</href>
      </Icon>
      <gx:LatLonQuad>
        <coordinates>-52.224220,-2.686405 -52.775439,-2.802195 -52.509697,-4.065716 -51.956759,-3.950233</coordinates>
      </gx:LatLonQuad>
    </GroundOverlay>
    <Placemark>
      <name>Placemark</name>
      <visibility>1</visibility>
      <TimeStamp>
        <when>2025-11-26T09:21:10</when>
      </TimeStamp>
      <Style>
        <LineStyle>
          <color>40ffffff</color>
          <width>1</width>
        </LineStyle>
        <PolyStyle>
          <color>00000000</color>
        </PolyStyle>
      </Style>
      <ExtendedData>
        <Data name="Product Name">
          <value>BIO_S1_SCS__1S_20251126T092100_20251126T092120_T_G01_M01_C02_T035_F308_01_DK96XZ</value>
        </Data>
        <Data name="Product Type">
          <value>S1_SCS__1S</value>
        </Data>
        <Data name="Start Date and Time">
          <value>2025-11-26T09:21:00</value>
        </Data>
        <Data name="Stop Date and Time">
          <value>2025-11-26T09:21:20</value>
        </Data>
        <Data name="Duration [s]">
          <value>20</value>
        </Data>
        <Data name="Mission Phase ID">
          <value>T</value>
        </Data>
        <Data name="Global Coverage ID">
          <value>01</value>
        </Data>
        <Data name="Major Cycle ID">
          <value>01</value>
        </Data>
        <Data name="Repeat Cycle ID">
          <value>02</value>
        </Data>
        <Data name="Track Number">
          <value>035</value>
        </Data>
        <Data name="Frame Number">
          <value>308</value>
        </Data>
        <Data name="Baseline ID">
          <value>01</value>
        </Data>
      </ExtendedData>
      <Polygon>
        <tessellate>1</tessellate>
        <altitudeMode>clampToGround</altitudeMode>
        <outerBoundaryIs>
          <LinearRing>
            <coordinates>-52.224220,-2.686405,0 -52.775439,-2.802195,0 -52.509697,-4.065716,0 -51.956759,-3.950233,0 -52.224220,-2.686405,0</coordinates>
          </LinearRing>
        </outerBoundaryIs>
      </Polygon>
    </Placemark>
  </Document>
</kml>
