<?xml version="1.0" encoding="utf-8"?>
<kml xmlns:gx="http://www.google.com/kml/ext/2.2" xmlns:kml="http://www.opengis.net/kml/2.2">
  <Document>
    <name>bio_s1_scs__1s_20251122t210857_20251122t210918_t_g01_m01_c01_t028_f167_map.kml</name>
    <description>L1 Product Overlay ADS</description>
    <GroundOverlay>
      <name>Ground overlay</name>
      <visibility>1</visibility>
      <TimeStamp>
        <when>2025-11-22T21:09:07</when>
      </TimeStamp>
      <Icon>
        <href>bio_s1_scs__1s_20251122t210857_20251122t210918_t_g01_m01_c01_t028_f167_ql.png</href>
      </Icon>
      <gx:LatLonQuad>
        <coordinates>-47.031889,-14.446709 -46.469416,-14.557410 -46.207796,-13.318923 -46.763598,-13.208638</coordinates>
      </gx:LatLonQuad>
    </GroundOverlay>
    <Placemark>
      <name>Placemark</name>
      <visibility>1</visibility>
      <TimeStamp>
        <when>2025-11-22T21:09:07</when>
      </TimeStamp>
      <Style>
        <LineStyle>
          <color>40ffffff</color>
          <width>1</width>
        </LineStyle>
        <PolyStyle>
          <color>00000000</color>
        </PolyStyle>
      </Style>
      <ExtendedData>
        <Data name="Product Name">
          <value>BIO_S1_SCS__1S_20251122T210857_20251122T210918_T_G01_M01_C01_T028_F167_01_DNGWE0</value>
        </Data>
        <Data name="Product Type">
          <value>S1_SCS__1S</value>
        </Data>
        <Data name="Start Date and Time">
          <value>2025-11-22T21:08:57</value>
        </Data>
        <Data name="Stop Date and Time">
          <value>2025-11-22T21:09:18</value>
        </Data>
        <Data name="Duration [s]">
          <value>21</value>
        </Data>
        <Data name="Mission Phase ID">
          <value>T</value>
        </Data>
        <Data name="Global Coverage ID">
          <value>01</value>
        </Data>
        <Data name="Major Cycle ID">
          <value>01</value>
        </Data>
        <Data name="Repeat Cycle ID">
          <value>01</value>
        </Data>
        <Data name="Track Number">
          <value>028</value>
        </Data>
        <Data name="Frame Number">
          <value>167</value>
        </Data>
        <Data name="Baseline ID">
          <value>01</value>
        </Data>
      </ExtendedData>
      <Polygon>
        <tessellate>1</tessellate>
        <altitudeMode>clampToGround</altitudeMode>
        <outerBoundaryIs>
          <LinearRing>
            <coordinates>-47.031889,-14.446709,0 -46.469416,-14.557410,0 -46.207796,-13.318923,0 -46.763598,-13.208638,0 -47.031889,-14.446709,0</coordinates>
          </LinearRing>
        </outerBoundaryIs>
      </Polygon>
    </Placemark>
  </Document>
</kml>
